<?xml version="1.0" encoding="UTF-8"?>
<gpx version="1.1" creator="SimRacing overlays (OpenStreetMap, ODbL)" xmlns="http://www.topografix.com/GPX/1/1">
  <metadata><name>Atlanta Motor Speedway (EchoPark Speedway) Oval</name>
    <desc>Driving direction. Source: OpenStreetMap contributors (ODbL).</desc></metadata>
  <trk><name>atlanta_oval ONTRACK</name><trkseg>
      <trkpt lat="33.385760" lon="-84.316849"/>
      <trkpt lat="33.385912" lon="-84.317369"/>
      <trkpt lat="33.386095" lon="-84.317996"/>
      <trkpt lat="33.386131" lon="-84.318124"/>
      <trkpt lat="33.386163" lon="-84.318261"/>
      <trkpt lat="33.386189" lon="-84.318444"/>
      <trkpt lat="33.386199" lon="-84.318637"/>
      <trkpt lat="33.386199" lon="-84.318878"/>
      <trkpt lat="33.386176" lon="-84.319743"/>
      <trkpt lat="33.386161" lon="-84.320285"/>
      <trkpt lat="33.386157" lon="-84.320505"/>
      <trkpt lat="33.386137" lon="-84.320730"/>
      <trkpt lat="33.386103" lon="-84.320908"/>
      <trkpt lat="33.386065" lon="-84.321072"/>
      <trkpt lat="33.385973" lon="-84.321370"/>
      <trkpt lat="33.385865" lon="-84.321639"/>
      <trkpt lat="33.385697" lon="-84.321928"/>
      <trkpt lat="33.385606" lon="-84.322058"/>
      <trkpt lat="33.385512" lon="-84.322175"/>
      <trkpt lat="33.385416" lon="-84.322273"/>
      <trkpt lat="33.385316" lon="-84.322365"/>
      <trkpt lat="33.385215" lon="-84.322446"/>
      <trkpt lat="33.385111" lon="-84.322519"/>
      <trkpt lat="33.385006" lon="-84.322582"/>
      <trkpt lat="33.384892" lon="-84.322639"/>
      <trkpt lat="33.384769" lon="-84.322691"/>
      <trkpt lat="33.384674" lon="-84.322727"/>
      <trkpt lat="33.384581" lon="-84.322751"/>
      <trkpt lat="33.384479" lon="-84.322775"/>
      <trkpt lat="33.384378" lon="-84.322791"/>
      <trkpt lat="33.384278" lon="-84.322801"/>
      <trkpt lat="33.384182" lon="-84.322804"/>
      <trkpt lat="33.384084" lon="-84.322798"/>
      <trkpt lat="33.383984" lon="-84.322789"/>
      <trkpt lat="33.383882" lon="-84.322774"/>
      <trkpt lat="33.383787" lon="-84.322751"/>
      <trkpt lat="33.383690" lon="-84.322725"/>
      <trkpt lat="33.383588" lon="-84.322689"/>
      <trkpt lat="33.383495" lon="-84.322648"/>
      <trkpt lat="33.383402" lon="-84.322597"/>
      <trkpt lat="33.383308" lon="-84.322543"/>
      <trkpt lat="33.383213" lon="-84.322481"/>
      <trkpt lat="33.383110" lon="-84.322404"/>
      <trkpt lat="33.383009" lon="-84.322322"/>
      <trkpt lat="33.382911" lon="-84.322227"/>
      <trkpt lat="33.382813" lon="-84.322129"/>
      <trkpt lat="33.382727" lon="-84.322021"/>
      <trkpt lat="33.382638" lon="-84.321900"/>
      <trkpt lat="33.382556" lon="-84.321773"/>
      <trkpt lat="33.382474" lon="-84.321632"/>
      <trkpt lat="33.382399" lon="-84.321498"/>
      <trkpt lat="33.382333" lon="-84.321366"/>
      <trkpt lat="33.382271" lon="-84.321217"/>
      <trkpt lat="33.382208" lon="-84.321063"/>
      <trkpt lat="33.382121" lon="-84.320830"/>
      <trkpt lat="33.382033" lon="-84.320579"/>
      <trkpt lat="33.381952" lon="-84.320325"/>
      <trkpt lat="33.381873" lon="-84.320064"/>
      <trkpt lat="33.381562" lon="-84.319008"/>
      <trkpt lat="33.381009" lon="-84.317152"/>
      <trkpt lat="33.380882" lon="-84.316687"/>
      <trkpt lat="33.380828" lon="-84.316453"/>
      <trkpt lat="33.380785" lon="-84.316232"/>
      <trkpt lat="33.380754" lon="-84.316044"/>
      <trkpt lat="33.380728" lon="-84.315864"/>
      <trkpt lat="33.380708" lon="-84.315681"/>
      <trkpt lat="33.380694" lon="-84.315487"/>
      <trkpt lat="33.380694" lon="-84.315336"/>
      <trkpt lat="33.380700" lon="-84.315206"/>
      <trkpt lat="33.380701" lon="-84.315187"/>
      <trkpt lat="33.380713" lon="-84.315048"/>
      <trkpt lat="33.380731" lon="-84.314910"/>
      <trkpt lat="33.380758" lon="-84.314757"/>
      <trkpt lat="33.380789" lon="-84.314604"/>
      <trkpt lat="33.380824" lon="-84.314475"/>
      <trkpt lat="33.380866" lon="-84.314349"/>
      <trkpt lat="33.380914" lon="-84.314228"/>
      <trkpt lat="33.380968" lon="-84.314103"/>
      <trkpt lat="33.381021" lon="-84.313996"/>
      <trkpt lat="33.381075" lon="-84.313892"/>
      <trkpt lat="33.381140" lon="-84.313791"/>
      <trkpt lat="33.381267" lon="-84.313614"/>
      <trkpt lat="33.381396" lon="-84.313472"/>
      <trkpt lat="33.381418" lon="-84.313447"/>
      <trkpt lat="33.381583" lon="-84.313308"/>
      <trkpt lat="33.381753" lon="-84.313193"/>
      <trkpt lat="33.381932" lon="-84.313093"/>
      <trkpt lat="33.382109" lon="-84.313024"/>
      <trkpt lat="33.382295" lon="-84.312978"/>
      <trkpt lat="33.382505" lon="-84.312947"/>
      <trkpt lat="33.382714" lon="-84.312941"/>
      <trkpt lat="33.382875" lon="-84.312955"/>
      <trkpt lat="33.383037" lon="-84.312986"/>
      <trkpt lat="33.383185" lon="-84.313026"/>
      <trkpt lat="33.383308" lon="-84.313078"/>
      <trkpt lat="33.383431" lon="-84.313140"/>
      <trkpt lat="33.383549" lon="-84.313206"/>
      <trkpt lat="33.383664" lon="-84.313286"/>
      <trkpt lat="33.383796" lon="-84.313390"/>
      <trkpt lat="33.383905" lon="-84.313481"/>
      <trkpt lat="33.384011" lon="-84.313587"/>
      <trkpt lat="33.384279" lon="-84.313865"/>
      <trkpt lat="33.384550" lon="-84.314245"/>
      <trkpt lat="33.385135" lon="-84.315113"/>
      <trkpt lat="33.385216" lon="-84.315229"/>
      <trkpt lat="33.385297" lon="-84.315378"/>
      <trkpt lat="33.385373" lon="-84.315556"/>
      <trkpt lat="33.385391" lon="-84.315613"/>
      <trkpt lat="33.385584" lon="-84.316246"/>
      <trkpt lat="33.385760" lon="-84.316849"/>
  </trkseg></trk>
  <trk><name>atlanta_oval ONPITROAD</name><trkseg>
      <trkpt lat="33.384279" lon="-84.313865"/>
      <trkpt lat="33.384389" lon="-84.314164"/>
      <trkpt lat="33.384487" lon="-84.314473"/>
      <trkpt lat="33.384873" lon="-84.315788"/>
      <trkpt lat="33.385059" lon="-84.316421"/>
      <trkpt lat="33.385101" lon="-84.316561"/>
      <trkpt lat="33.385449" lon="-84.317740"/>
      <trkpt lat="33.385468" lon="-84.317803"/>
      <trkpt lat="33.385835" lon="-84.319034"/>
      <trkpt lat="33.385979" lon="-84.319588"/>
      <trkpt lat="33.386161" lon="-84.320285"/>
  </trkseg></trk>
</gpx>
