<?xml version="1.0" encoding="UTF-8"?>
<gpx version="1.1" creator="SimRacing overlays (OpenStreetMap, ODbL)" xmlns="http://www.topografix.com/GPX/1/1">
  <metadata><name>Barber Motorsports Park</name>
    <desc>Driving direction. Source: OpenStreetMap contributors (ODbL).</desc></metadata>
  <trk><name>barber_full ONTRACK</name><trkseg>
      <trkpt lat="33.532230" lon="-86.620137"/>
      <trkpt lat="33.532623" lon="-86.619654"/>
      <trkpt lat="33.533821" lon="-86.618170"/>
      <trkpt lat="33.533887" lon="-86.618099"/>
      <trkpt lat="33.533942" lon="-86.618055"/>
      <trkpt lat="33.534046" lon="-86.618014"/>
      <trkpt lat="33.534107" lon="-86.618009"/>
      <trkpt lat="33.534170" lon="-86.618016"/>
      <trkpt lat="33.534295" lon="-86.618054"/>
      <trkpt lat="33.534898" lon="-86.618282"/>
      <trkpt lat="33.535138" lon="-86.618363"/>
      <trkpt lat="33.535240" lon="-86.618382"/>
      <trkpt lat="33.535397" lon="-86.618393"/>
      <trkpt lat="33.535511" lon="-86.618369"/>
      <trkpt lat="33.535628" lon="-86.618312"/>
      <trkpt lat="33.535689" lon="-86.618261"/>
      <trkpt lat="33.535789" lon="-86.618113"/>
      <trkpt lat="33.535827" lon="-86.618020"/>
      <trkpt lat="33.535885" lon="-86.617811"/>
      <trkpt lat="33.535891" lon="-86.617721"/>
      <trkpt lat="33.535885" lon="-86.617613"/>
      <trkpt lat="33.535865" lon="-86.617512"/>
      <trkpt lat="33.535843" lon="-86.617436"/>
      <trkpt lat="33.535800" lon="-86.617345"/>
      <trkpt lat="33.535744" lon="-86.617253"/>
      <trkpt lat="33.535671" lon="-86.617169"/>
      <trkpt lat="33.535609" lon="-86.617116"/>
      <trkpt lat="33.535535" lon="-86.617072"/>
      <trkpt lat="33.535474" lon="-86.617040"/>
      <trkpt lat="33.535405" lon="-86.617021"/>
      <trkpt lat="33.535296" lon="-86.617013"/>
      <trkpt lat="33.534854" lon="-86.617068"/>
      <trkpt lat="33.534382" lon="-86.617145"/>
      <trkpt lat="33.534219" lon="-86.617197"/>
      <trkpt lat="33.534090" lon="-86.617266"/>
      <trkpt lat="33.533948" lon="-86.617400"/>
      <trkpt lat="33.532499" lon="-86.619126"/>
      <trkpt lat="33.531631" lon="-86.620171"/>
      <trkpt lat="33.531558" lon="-86.620221"/>
      <trkpt lat="33.531506" lon="-86.620236"/>
      <trkpt lat="33.531385" lon="-86.620227"/>
      <trkpt lat="33.531325" lon="-86.620188"/>
      <trkpt lat="33.531284" lon="-86.620146"/>
      <trkpt lat="33.531240" lon="-86.620088"/>
      <trkpt lat="33.531209" lon="-86.620009"/>
      <trkpt lat="33.531189" lon="-86.619939"/>
      <trkpt lat="33.531177" lon="-86.619760"/>
      <trkpt lat="33.531191" lon="-86.619646"/>
      <trkpt lat="33.531242" lon="-86.619509"/>
      <trkpt lat="33.531621" lon="-86.618791"/>
      <trkpt lat="33.531685" lon="-86.618680"/>
      <trkpt lat="33.531838" lon="-86.618472"/>
      <trkpt lat="33.531934" lon="-86.618363"/>
      <trkpt lat="33.532464" lon="-86.617884"/>
      <trkpt lat="33.534592" lon="-86.616093"/>
      <trkpt lat="33.534675" lon="-86.616000"/>
      <trkpt lat="33.534746" lon="-86.615871"/>
      <trkpt lat="33.534777" lon="-86.615717"/>
      <trkpt lat="33.534769" lon="-86.615553"/>
      <trkpt lat="33.534732" lon="-86.615335"/>
      <trkpt lat="33.534742" lon="-86.615233"/>
      <trkpt lat="33.534766" lon="-86.615167"/>
      <trkpt lat="33.534862" lon="-86.615036"/>
      <trkpt lat="33.534888" lon="-86.614987"/>
      <trkpt lat="33.534901" lon="-86.614942"/>
      <trkpt lat="33.534904" lon="-86.614890"/>
      <trkpt lat="33.534898" lon="-86.614839"/>
      <trkpt lat="33.534864" lon="-86.614760"/>
      <trkpt lat="33.534813" lon="-86.614701"/>
      <trkpt lat="33.534690" lon="-86.614615"/>
      <trkpt lat="33.534572" lon="-86.614577"/>
      <trkpt lat="33.534405" lon="-86.614595"/>
      <trkpt lat="33.534273" lon="-86.614639"/>
      <trkpt lat="33.534195" lon="-86.614697"/>
      <trkpt lat="33.534122" lon="-86.614769"/>
      <trkpt lat="33.533404" lon="-86.615660"/>
      <trkpt lat="33.532675" lon="-86.616536"/>
      <trkpt lat="33.532506" lon="-86.616776"/>
      <trkpt lat="33.532438" lon="-86.616854"/>
      <trkpt lat="33.532336" lon="-86.616935"/>
      <trkpt lat="33.532294" lon="-86.616958"/>
      <trkpt lat="33.531957" lon="-86.617066"/>
      <trkpt lat="33.531881" lon="-86.617095"/>
      <trkpt lat="33.531810" lon="-86.617134"/>
      <trkpt lat="33.531712" lon="-86.617197"/>
      <trkpt lat="33.531613" lon="-86.617340"/>
      <trkpt lat="33.531576" lon="-86.617415"/>
      <trkpt lat="33.531072" lon="-86.618761"/>
      <trkpt lat="33.530642" lon="-86.619930"/>
      <trkpt lat="33.530174" lon="-86.621238"/>
      <trkpt lat="33.530142" lon="-86.621305"/>
      <trkpt lat="33.530105" lon="-86.621367"/>
      <trkpt lat="33.530070" lon="-86.621410"/>
      <trkpt lat="33.530008" lon="-86.621465"/>
      <trkpt lat="33.529699" lon="-86.621646"/>
      <trkpt lat="33.529463" lon="-86.621813"/>
      <trkpt lat="33.529390" lon="-86.621900"/>
      <trkpt lat="33.529324" lon="-86.622041"/>
      <trkpt lat="33.529308" lon="-86.622099"/>
      <trkpt lat="33.529283" lon="-86.622235"/>
      <trkpt lat="33.529281" lon="-86.622378"/>
      <trkpt lat="33.529302" lon="-86.622549"/>
      <trkpt lat="33.529652" lon="-86.623869"/>
      <trkpt lat="33.529726" lon="-86.624039"/>
      <trkpt lat="33.529761" lon="-86.624093"/>
      <trkpt lat="33.529855" lon="-86.624192"/>
      <trkpt lat="33.529923" lon="-86.624238"/>
      <trkpt lat="33.530074" lon="-86.624308"/>
      <trkpt lat="33.530361" lon="-86.624366"/>
      <trkpt lat="33.530490" lon="-86.624372"/>
      <trkpt lat="33.530635" lon="-86.624358"/>
      <trkpt lat="33.530713" lon="-86.624342"/>
      <trkpt lat="33.530842" lon="-86.624301"/>
      <trkpt lat="33.530969" lon="-86.624236"/>
      <trkpt lat="33.531118" lon="-86.624120"/>
      <trkpt lat="33.531182" lon="-86.624055"/>
      <trkpt lat="33.531385" lon="-86.623763"/>
      <trkpt lat="33.531401" lon="-86.623710"/>
      <trkpt lat="33.531424" lon="-86.623572"/>
      <trkpt lat="33.531424" lon="-86.623517"/>
      <trkpt lat="33.531398" lon="-86.623392"/>
      <trkpt lat="33.531372" lon="-86.623338"/>
      <trkpt lat="33.531333" lon="-86.623286"/>
      <trkpt lat="33.530809" lon="-86.622679"/>
      <trkpt lat="33.530746" lon="-86.622590"/>
      <trkpt lat="33.530711" lon="-86.622517"/>
      <trkpt lat="33.530687" lon="-86.622425"/>
      <trkpt lat="33.530679" lon="-86.622352"/>
      <trkpt lat="33.530675" lon="-86.622270"/>
      <trkpt lat="33.530698" lon="-86.622135"/>
      <trkpt lat="33.530762" lon="-86.621980"/>
      <trkpt lat="33.530798" lon="-86.621924"/>
      <trkpt lat="33.530897" lon="-86.621809"/>
      <trkpt lat="33.531759" lon="-86.620716"/>
      <trkpt lat="33.532230" lon="-86.620137"/>
  </trkseg></trk>
  <trk><name>barber_full ONPITROAD</name><trkseg>
      <trkpt lat="33.531385" lon="-86.623763"/>
      <trkpt lat="33.531481" lon="-86.623650"/>
      <trkpt lat="33.531615" lon="-86.623423"/>
      <trkpt lat="33.531636" lon="-86.623344"/>
      <trkpt lat="33.531638" lon="-86.623300"/>
      <trkpt lat="33.531638" lon="-86.623231"/>
      <trkpt lat="33.531627" lon="-86.623174"/>
      <trkpt lat="33.531612" lon="-86.623134"/>
      <trkpt lat="33.531533" lon="-86.623033"/>
      <trkpt lat="33.530967" lon="-86.622400"/>
      <trkpt lat="33.530923" lon="-86.622327"/>
      <trkpt lat="33.530910" lon="-86.622254"/>
      <trkpt lat="33.530926" lon="-86.622174"/>
      <trkpt lat="33.530995" lon="-86.622017"/>
      <trkpt lat="33.531081" lon="-86.621853"/>
      <trkpt lat="33.531210" lon="-86.621649"/>
      <trkpt lat="33.531784" lon="-86.620947"/>
      <trkpt lat="33.532019" lon="-86.620646"/>
      <trkpt lat="33.532259" lon="-86.620359"/>
      <trkpt lat="33.533691" lon="-86.618567"/>
      <trkpt lat="33.533910" lon="-86.618314"/>
      <trkpt lat="33.534009" lon="-86.618250"/>
      <trkpt lat="33.534043" lon="-86.618238"/>
      <trkpt lat="33.534138" lon="-86.618217"/>
      <trkpt lat="33.534219" lon="-86.618214"/>
      <trkpt lat="33.534298" lon="-86.618221"/>
      <trkpt lat="33.534404" lon="-86.618249"/>
      <trkpt lat="33.534965" lon="-86.618440"/>
      <trkpt lat="33.535116" lon="-86.618469"/>
      <trkpt lat="33.535241" lon="-86.618455"/>
      <trkpt lat="33.535445" lon="-86.618384"/>
  </trkseg></trk>
</gpx>
