<?xml version="1.0" encoding="UTF-8"?>
<gpx version="1.1" creator="SimRacing overlays (OpenStreetMap, ODbL)" xmlns="http://www.topografix.com/GPX/1/1">
  <metadata><name>Mount Panorama Circuit (Bathurst)</name>
    <desc>Driving direction. Source: OpenStreetMap contributors (ODbL).</desc></metadata>
  <trk><name>bathurst ONTRACK</name><trkseg>
      <trkpt lat="-33.439297" lon="149.558439"/>
      <trkpt lat="-33.438969" lon="149.556084"/>
      <trkpt lat="-33.438961" lon="149.555986"/>
      <trkpt lat="-33.438972" lon="149.555916"/>
      <trkpt lat="-33.438995" lon="149.555851"/>
      <trkpt lat="-33.439047" lon="149.555764"/>
      <trkpt lat="-33.439120" lon="149.555695"/>
      <trkpt lat="-33.439256" lon="149.555656"/>
      <trkpt lat="-33.440288" lon="149.555452"/>
      <trkpt lat="-33.448387" lon="149.553766"/>
      <trkpt lat="-33.448595" lon="149.553722"/>
      <trkpt lat="-33.448672" lon="149.553697"/>
      <trkpt lat="-33.448786" lon="149.553638"/>
      <trkpt lat="-33.448859" lon="149.553575"/>
      <trkpt lat="-33.448955" lon="149.553449"/>
      <trkpt lat="-33.449023" lon="149.553316"/>
      <trkpt lat="-33.449062" lon="149.553197"/>
      <trkpt lat="-33.449084" lon="149.553065"/>
      <trkpt lat="-33.449083" lon="149.552891"/>
      <trkpt lat="-33.449075" lon="149.552821"/>
      <trkpt lat="-33.449031" lon="149.552614"/>
      <trkpt lat="-33.448970" lon="149.552418"/>
      <trkpt lat="-33.448190" lon="149.550733"/>
      <trkpt lat="-33.447904" lon="149.550084"/>
      <trkpt lat="-33.447830" lon="149.549876"/>
      <trkpt lat="-33.447818" lon="149.549813"/>
      <trkpt lat="-33.447812" lon="149.549689"/>
      <trkpt lat="-33.447823" lon="149.549507"/>
      <trkpt lat="-33.447851" lon="149.549309"/>
      <trkpt lat="-33.447963" lon="149.548906"/>
      <trkpt lat="-33.448024" lon="149.548787"/>
      <trkpt lat="-33.448069" lon="149.548740"/>
      <trkpt lat="-33.448124" lon="149.548708"/>
      <trkpt lat="-33.448182" lon="149.548690"/>
      <trkpt lat="-33.448262" lon="149.548686"/>
      <trkpt lat="-33.448340" lon="149.548707"/>
      <trkpt lat="-33.448392" lon="149.548739"/>
      <trkpt lat="-33.448870" lon="149.549230"/>
      <trkpt lat="-33.449010" lon="149.549360"/>
      <trkpt lat="-33.449148" lon="149.549443"/>
      <trkpt lat="-33.449312" lon="149.549499"/>
      <trkpt lat="-33.449428" lon="149.549512"/>
      <trkpt lat="-33.449593" lon="149.549504"/>
      <trkpt lat="-33.450053" lon="149.549423"/>
      <trkpt lat="-33.450496" lon="149.549314"/>
      <trkpt lat="-33.450640" lon="149.549254"/>
      <trkpt lat="-33.450767" lon="149.549157"/>
      <trkpt lat="-33.450828" lon="149.549091"/>
      <trkpt lat="-33.450893" lon="149.548996"/>
      <trkpt lat="-33.450955" lon="149.548875"/>
      <trkpt lat="-33.451162" lon="149.548357"/>
      <trkpt lat="-33.451254" lon="149.548198"/>
      <trkpt lat="-33.451369" lon="149.548041"/>
      <trkpt lat="-33.451674" lon="149.547678"/>
      <trkpt lat="-33.452010" lon="149.547307"/>
      <trkpt lat="-33.452166" lon="149.547166"/>
      <trkpt lat="-33.452344" lon="149.547060"/>
      <trkpt lat="-33.452795" lon="149.546861"/>
      <trkpt lat="-33.452983" lon="149.546794"/>
      <trkpt lat="-33.453088" lon="149.546771"/>
      <trkpt lat="-33.453239" lon="149.546759"/>
      <trkpt lat="-33.453383" lon="149.546773"/>
      <trkpt lat="-33.453567" lon="149.546825"/>
      <trkpt lat="-33.453659" lon="149.546863"/>
      <trkpt lat="-33.453757" lon="149.546918"/>
      <trkpt lat="-33.453875" lon="149.546998"/>
      <trkpt lat="-33.455168" lon="149.547969"/>
      <trkpt lat="-33.455244" lon="149.548041"/>
      <trkpt lat="-33.455369" lon="149.548179"/>
      <trkpt lat="-33.455476" lon="149.548357"/>
      <trkpt lat="-33.455600" lon="149.548625"/>
      <trkpt lat="-33.455637" lon="149.548740"/>
      <trkpt lat="-33.455652" lon="149.548816"/>
      <trkpt lat="-33.455669" lon="149.548989"/>
      <trkpt lat="-33.455685" lon="149.549385"/>
      <trkpt lat="-33.455703" lon="149.551025"/>
      <trkpt lat="-33.455718" lon="149.551543"/>
      <trkpt lat="-33.455740" lon="149.551714"/>
      <trkpt lat="-33.455773" lon="149.551827"/>
      <trkpt lat="-33.455814" lon="149.551924"/>
      <trkpt lat="-33.455966" lon="149.552229"/>
      <trkpt lat="-33.456002" lon="149.552329"/>
      <trkpt lat="-33.456022" lon="149.552422"/>
      <trkpt lat="-33.456031" lon="149.552603"/>
      <trkpt lat="-33.455983" lon="149.552987"/>
      <trkpt lat="-33.455987" lon="149.553046"/>
      <trkpt lat="-33.456009" lon="149.553132"/>
      <trkpt lat="-33.456034" lon="149.553191"/>
      <trkpt lat="-33.456094" lon="149.553291"/>
      <trkpt lat="-33.456210" lon="149.553428"/>
      <trkpt lat="-33.456298" lon="149.553485"/>
      <trkpt lat="-33.456436" lon="149.553547"/>
      <trkpt lat="-33.456468" lon="149.553576"/>
      <trkpt lat="-33.456490" lon="149.553608"/>
      <trkpt lat="-33.456516" lon="149.553674"/>
      <trkpt lat="-33.456530" lon="149.553763"/>
      <trkpt lat="-33.456529" lon="149.553994"/>
      <trkpt lat="-33.456535" lon="149.554079"/>
      <trkpt lat="-33.456547" lon="149.554139"/>
      <trkpt lat="-33.456574" lon="149.554212"/>
      <trkpt lat="-33.456672" lon="149.554363"/>
      <trkpt lat="-33.457090" lon="149.554897"/>
      <trkpt lat="-33.457213" lon="149.555073"/>
      <trkpt lat="-33.457283" lon="149.555229"/>
      <trkpt lat="-33.457442" lon="149.555682"/>
      <trkpt lat="-33.457500" lon="149.555794"/>
      <trkpt lat="-33.457595" lon="149.555911"/>
      <trkpt lat="-33.457671" lon="149.555978"/>
      <trkpt lat="-33.457890" lon="149.556128"/>
      <trkpt lat="-33.458237" lon="149.556320"/>
      <trkpt lat="-33.458317" lon="149.556384"/>
      <trkpt lat="-33.458369" lon="149.556453"/>
      <trkpt lat="-33.458395" lon="149.556507"/>
      <trkpt lat="-33.458421" lon="149.556613"/>
      <trkpt lat="-33.458420" lon="149.556691"/>
      <trkpt lat="-33.458402" lon="149.556770"/>
      <trkpt lat="-33.458366" lon="149.556847"/>
      <trkpt lat="-33.458331" lon="149.556893"/>
      <trkpt lat="-33.458184" lon="149.557027"/>
      <trkpt lat="-33.457943" lon="149.557221"/>
      <trkpt lat="-33.457408" lon="149.557617"/>
      <trkpt lat="-33.456969" lon="149.557910"/>
      <trkpt lat="-33.456835" lon="149.557980"/>
      <trkpt lat="-33.456711" lon="149.558027"/>
      <trkpt lat="-33.456540" lon="149.558070"/>
      <trkpt lat="-33.456067" lon="149.558166"/>
      <trkpt lat="-33.454327" lon="149.558501"/>
      <trkpt lat="-33.447365" lon="149.559753"/>
      <trkpt lat="-33.447000" lon="149.559828"/>
      <trkpt lat="-33.446822" lon="149.559896"/>
      <trkpt lat="-33.444880" lon="149.561003"/>
      <trkpt lat="-33.444785" lon="149.561048"/>
      <trkpt lat="-33.444701" lon="149.561073"/>
      <trkpt lat="-33.444619" lon="149.561069"/>
      <trkpt lat="-33.444567" lon="149.561048"/>
      <trkpt lat="-33.444516" lon="149.561009"/>
      <trkpt lat="-33.444198" lon="149.560653"/>
      <trkpt lat="-33.444134" lon="149.560598"/>
      <trkpt lat="-33.444050" lon="149.560544"/>
      <trkpt lat="-33.443900" lon="149.560468"/>
      <trkpt lat="-33.443822" lon="149.560445"/>
      <trkpt lat="-33.443660" lon="149.560429"/>
      <trkpt lat="-33.443398" lon="149.560466"/>
      <trkpt lat="-33.441851" lon="149.560744"/>
      <trkpt lat="-33.440008" lon="149.561094"/>
      <trkpt lat="-33.439837" lon="149.561111"/>
      <trkpt lat="-33.439794" lon="149.561098"/>
      <trkpt lat="-33.439749" lon="149.561068"/>
      <trkpt lat="-33.439692" lon="149.561002"/>
      <trkpt lat="-33.439662" lon="149.560948"/>
      <trkpt lat="-33.439648" lon="149.560914"/>
      <trkpt lat="-33.439630" lon="149.560834"/>
      <trkpt lat="-33.439297" lon="149.558439"/>
  </trkseg></trk>
  <trk><name>bathurst ONPITROAD</name><trkseg>
      <trkpt lat="-33.441227" lon="149.560860"/>
      <trkpt lat="-33.440865" lon="149.560854"/>
      <trkpt lat="-33.440261" lon="149.560882"/>
      <trkpt lat="-33.440189" lon="149.560876"/>
      <trkpt lat="-33.440161" lon="149.560863"/>
      <trkpt lat="-33.440140" lon="149.560839"/>
      <trkpt lat="-33.440090" lon="149.560731"/>
      <trkpt lat="-33.440066" lon="149.560699"/>
      <trkpt lat="-33.439974" lon="149.560643"/>
      <trkpt lat="-33.439939" lon="149.560608"/>
      <trkpt lat="-33.439908" lon="149.560549"/>
      <trkpt lat="-33.439830" lon="149.560310"/>
      <trkpt lat="-33.439798" lon="149.560259"/>
      <trkpt lat="-33.439756" lon="149.560220"/>
      <trkpt lat="-33.439692" lon="149.560180"/>
      <trkpt lat="-33.439658" lon="149.560132"/>
      <trkpt lat="-33.439605" lon="149.559978"/>
      <trkpt lat="-33.439417" lon="149.558642"/>
      <trkpt lat="-33.439089" lon="149.556418"/>
      <trkpt lat="-33.439076" lon="149.556284"/>
      <trkpt lat="-33.439085" lon="149.556161"/>
      <trkpt lat="-33.439119" lon="149.556029"/>
      <trkpt lat="-33.439175" lon="149.555913"/>
      <trkpt lat="-33.439245" lon="149.555805"/>
      <trkpt lat="-33.439317" lon="149.555738"/>
      <trkpt lat="-33.439405" lon="149.555703"/>
      <trkpt lat="-33.439595" lon="149.555657"/>
      <trkpt lat="-33.440288" lon="149.555452"/>
  </trkseg></trk>
</gpx>
