<?xml version="1.0" encoding="UTF-8"?>
<gpx version="1.1" creator="SimRacing overlays (OpenStreetMap, ODbL)" xmlns="http://www.topografix.com/GPX/1/1">
  <metadata><name>Brands Hatch (Indy Circuit)</name>
    <desc>Driving direction. Source: OpenStreetMap contributors (ODbL).</desc></metadata>
  <trk><name>brandshatch_indy ONTRACK</name><trkseg>
      <trkpt lat="51.359870" lon="0.258891"/>
      <trkpt lat="51.360084" lon="0.259560"/>
      <trkpt lat="51.360313" lon="0.260325"/>
      <trkpt lat="51.360662" lon="0.261542"/>
      <trkpt lat="51.360762" lon="0.261940"/>
      <trkpt lat="51.360810" lon="0.262182"/>
      <trkpt lat="51.360844" lon="0.262408"/>
      <trkpt lat="51.360887" lon="0.262851"/>
      <trkpt lat="51.360896" lon="0.263261"/>
      <trkpt lat="51.360885" lon="0.263416"/>
      <trkpt lat="51.360845" lon="0.263677"/>
      <trkpt lat="51.360801" lon="0.263853"/>
      <trkpt lat="51.360774" lon="0.263923"/>
      <trkpt lat="51.360704" lon="0.264053"/>
      <trkpt lat="51.360608" lon="0.264188"/>
      <trkpt lat="51.360523" lon="0.264269"/>
      <trkpt lat="51.360428" lon="0.264338"/>
      <trkpt lat="51.360252" lon="0.264433"/>
      <trkpt lat="51.360111" lon="0.264488"/>
      <trkpt lat="51.359504" lon="0.264571"/>
      <trkpt lat="51.359299" lon="0.264586"/>
      <trkpt lat="51.358336" lon="0.264511"/>
      <trkpt lat="51.358215" lon="0.264492"/>
      <trkpt lat="51.358130" lon="0.264448"/>
      <trkpt lat="51.358070" lon="0.264386"/>
      <trkpt lat="51.358038" lon="0.264337"/>
      <trkpt lat="51.357981" lon="0.264196"/>
      <trkpt lat="51.357967" lon="0.264122"/>
      <trkpt lat="51.357962" lon="0.263959"/>
      <trkpt lat="51.357972" lon="0.263876"/>
      <trkpt lat="51.358002" lon="0.263772"/>
      <trkpt lat="51.358041" lon="0.263694"/>
      <trkpt lat="51.358109" lon="0.263603"/>
      <trkpt lat="51.358194" lon="0.263559"/>
      <trkpt lat="51.358255" lon="0.263545"/>
      <trkpt lat="51.359324" lon="0.263463"/>
      <trkpt lat="51.359748" lon="0.263199"/>
      <trkpt lat="51.359871" lon="0.263104"/>
      <trkpt lat="51.359940" lon="0.263009"/>
      <trkpt lat="51.359988" lon="0.262878"/>
      <trkpt lat="51.360010" lon="0.262734"/>
      <trkpt lat="51.359997" lon="0.262543"/>
      <trkpt lat="51.359768" lon="0.261187"/>
      <trkpt lat="51.359723" lon="0.260939"/>
      <trkpt lat="51.359674" lon="0.260746"/>
      <trkpt lat="51.359498" lon="0.260176"/>
      <trkpt lat="51.359202" lon="0.259302"/>
      <trkpt lat="51.359062" lon="0.258938"/>
      <trkpt lat="51.358962" lon="0.258739"/>
      <trkpt lat="51.358848" lon="0.258588"/>
      <trkpt lat="51.358725" lon="0.258474"/>
      <trkpt lat="51.358621" lon="0.258411"/>
      <trkpt lat="51.358505" lon="0.258377"/>
      <trkpt lat="51.358165" lon="0.258381"/>
      <trkpt lat="51.357997" lon="0.258369"/>
      <trkpt lat="51.357922" lon="0.258345"/>
      <trkpt lat="51.357831" lon="0.258294"/>
      <trkpt lat="51.357751" lon="0.258234"/>
      <trkpt lat="51.357635" lon="0.258122"/>
      <trkpt lat="51.357521" lon="0.257994"/>
      <trkpt lat="51.357411" lon="0.257842"/>
      <trkpt lat="51.357325" lon="0.257683"/>
      <trkpt lat="51.357264" lon="0.257511"/>
      <trkpt lat="51.357240" lon="0.257329"/>
      <trkpt lat="51.357247" lon="0.257144"/>
      <trkpt lat="51.357302" lon="0.256935"/>
      <trkpt lat="51.357428" lon="0.256696"/>
      <trkpt lat="51.357597" lon="0.256533"/>
      <trkpt lat="51.357731" lon="0.256440"/>
      <trkpt lat="51.357893" lon="0.256391"/>
      <trkpt lat="51.358013" lon="0.256389"/>
      <trkpt lat="51.358276" lon="0.256441"/>
      <trkpt lat="51.358530" lon="0.256564"/>
      <trkpt lat="51.358887" lon="0.256850"/>
      <trkpt lat="51.358977" lon="0.256950"/>
      <trkpt lat="51.359129" lon="0.257147"/>
      <trkpt lat="51.359310" lon="0.257444"/>
      <trkpt lat="51.359405" lon="0.257648"/>
      <trkpt lat="51.359631" lon="0.258188"/>
      <trkpt lat="51.359775" lon="0.258592"/>
      <trkpt lat="51.359870" lon="0.258891"/>
  </trkseg></trk>
  <trk><name>brandshatch_indy ONPITROAD</name><trkseg>
      <trkpt lat="51.358013" lon="0.256389"/>
      <trkpt lat="51.358341" lon="0.256588"/>
      <trkpt lat="51.358536" lon="0.256741"/>
      <trkpt lat="51.358718" lon="0.256918"/>
      <trkpt lat="51.358752" lon="0.256974"/>
      <trkpt lat="51.358778" lon="0.257158"/>
      <trkpt lat="51.358792" lon="0.257209"/>
      <trkpt lat="51.358809" lon="0.257236"/>
      <trkpt lat="51.358861" lon="0.257282"/>
      <trkpt lat="51.358993" lon="0.257315"/>
      <trkpt lat="51.359047" lon="0.257347"/>
      <trkpt lat="51.359192" lon="0.257533"/>
      <trkpt lat="51.359301" lon="0.257743"/>
      <trkpt lat="51.359530" lon="0.258271"/>
      <trkpt lat="51.359753" lon="0.258915"/>
      <trkpt lat="51.360140" lon="0.260176"/>
      <trkpt lat="51.360252" lon="0.260515"/>
      <trkpt lat="51.360272" lon="0.260604"/>
      <trkpt lat="51.360269" lon="0.260751"/>
      <trkpt lat="51.360291" lon="0.260853"/>
      <trkpt lat="51.360532" lon="0.261464"/>
      <trkpt lat="51.360649" lon="0.261801"/>
      <trkpt lat="51.360763" lon="0.262165"/>
      <trkpt lat="51.360863" lon="0.262572"/>
  </trkseg></trk>
</gpx>
