<?xml version="1.0" encoding="UTF-8"?>
<gpx version="1.1" creator="SimRacing overlays (OpenStreetMap, ODbL)" xmlns="http://www.topografix.com/GPX/1/1">
  <metadata><name>Bristol Motor Speedway</name>
    <desc>Driving direction. Source: OpenStreetMap contributors (ODbL).</desc></metadata>
  <trk><name>bristol_oval ONTRACK</name><trkseg>
      <trkpt lat="36.515309" lon="-82.257803"/>
      <trkpt lat="36.514638" lon="-82.257367"/>
      <trkpt lat="36.514560" lon="-82.257307"/>
      <trkpt lat="36.514480" lon="-82.257227"/>
      <trkpt lat="36.514348" lon="-82.257022"/>
      <trkpt lat="36.514302" lon="-82.256908"/>
      <trkpt lat="36.514263" lon="-82.256757"/>
      <trkpt lat="36.514243" lon="-82.256626"/>
      <trkpt lat="36.514243" lon="-82.256491"/>
      <trkpt lat="36.514256" lon="-82.256358"/>
      <trkpt lat="36.514293" lon="-82.256216"/>
      <trkpt lat="36.514328" lon="-82.256108"/>
      <trkpt lat="36.514410" lon="-82.255944"/>
      <trkpt lat="36.514551" lon="-82.255772"/>
      <trkpt lat="36.514727" lon="-82.255654"/>
      <trkpt lat="36.514901" lon="-82.255608"/>
      <trkpt lat="36.514981" lon="-82.255598"/>
      <trkpt lat="36.515078" lon="-82.255608"/>
      <trkpt lat="36.515266" lon="-82.255668"/>
      <trkpt lat="36.515419" lon="-82.255757"/>
      <trkpt lat="36.516566" lon="-82.256585"/>
      <trkpt lat="36.516744" lon="-82.256736"/>
      <trkpt lat="36.516870" lon="-82.256881"/>
      <trkpt lat="36.516940" lon="-82.257038"/>
      <trkpt lat="36.516978" lon="-82.257165"/>
      <trkpt lat="36.517003" lon="-82.257281"/>
      <trkpt lat="36.517012" lon="-82.257378"/>
      <trkpt lat="36.517017" lon="-82.257502"/>
      <trkpt lat="36.517010" lon="-82.257611"/>
      <trkpt lat="36.516989" lon="-82.257719"/>
      <trkpt lat="36.516944" lon="-82.257844"/>
      <trkpt lat="36.516848" lon="-82.258021"/>
      <trkpt lat="36.516780" lon="-82.258111"/>
      <trkpt lat="36.516702" lon="-82.258188"/>
      <trkpt lat="36.516626" lon="-82.258242"/>
      <trkpt lat="36.516555" lon="-82.258278"/>
      <trkpt lat="36.516462" lon="-82.258310"/>
      <trkpt lat="36.516376" lon="-82.258326"/>
      <trkpt lat="36.516287" lon="-82.258331"/>
      <trkpt lat="36.516203" lon="-82.258323"/>
      <trkpt lat="36.516134" lon="-82.258303"/>
      <trkpt lat="36.516053" lon="-82.258276"/>
      <trkpt lat="36.515979" lon="-82.258239"/>
      <trkpt lat="36.515309" lon="-82.257803"/>
  </trkseg></trk>
  <trk><name>bristol_oval ONPITROAD</name><trkseg>
      <trkpt lat="36.516880" lon="-82.257270"/>
      <trkpt lat="36.516906" lon="-82.257393"/>
      <trkpt lat="36.516908" lon="-82.257501"/>
      <trkpt lat="36.516898" lon="-82.257599"/>
      <trkpt lat="36.516842" lon="-82.257789"/>
      <trkpt lat="36.516790" lon="-82.257893"/>
      <trkpt lat="36.516735" lon="-82.257976"/>
      <trkpt lat="36.516593" lon="-82.258086"/>
      <trkpt lat="36.516523" lon="-82.258117"/>
      <trkpt lat="36.516418" lon="-82.258146"/>
      <trkpt lat="36.516275" lon="-82.258139"/>
      <trkpt lat="36.516206" lon="-82.258116"/>
      <trkpt lat="36.516110" lon="-82.258067"/>
      <trkpt lat="36.514660" lon="-82.257130"/>
      <trkpt lat="36.514594" lon="-82.257080"/>
      <trkpt lat="36.514493" lon="-82.256968"/>
      <trkpt lat="36.514437" lon="-82.256868"/>
      <trkpt lat="36.514390" lon="-82.256762"/>
      <trkpt lat="36.514366" lon="-82.256661"/>
      <trkpt lat="36.514355" lon="-82.256537"/>
      <trkpt lat="36.514359" lon="-82.256410"/>
      <trkpt lat="36.514389" lon="-82.256272"/>
      <trkpt lat="36.514425" lon="-82.256158"/>
      <trkpt lat="36.514470" lon="-82.256063"/>
      <trkpt lat="36.514529" lon="-82.255978"/>
      <trkpt lat="36.514637" lon="-82.255878"/>
      <trkpt lat="36.514756" lon="-82.255819"/>
      <trkpt lat="36.514845" lon="-82.255790"/>
      <trkpt lat="36.514938" lon="-82.255782"/>
      <trkpt lat="36.515079" lon="-82.255812"/>
      <trkpt lat="36.515222" lon="-82.255890"/>
      <trkpt lat="36.516709" lon="-82.256973"/>
      <trkpt lat="36.516788" lon="-82.257068"/>
      <trkpt lat="36.516833" lon="-82.257154"/>
      <trkpt lat="36.516880" lon="-82.257270"/>
  </trkseg></trk>
</gpx>
