<?xml version="1.0" encoding="UTF-8"?>
<gpx version="1.1" creator="SimRacing overlays (OpenStreetMap, ODbL)" xmlns="http://www.topografix.com/GPX/1/1">
  <metadata><name>Darlington Raceway</name>
    <desc>Driving direction. Source: OpenStreetMap contributors (ODbL).</desc></metadata>
  <trk><name>darlington ONTRACK</name><trkseg>
      <trkpt lat="34.293235" lon="-79.904026"/>
      <trkpt lat="34.293151" lon="-79.903608"/>
      <trkpt lat="34.293098" lon="-79.903216"/>
      <trkpt lat="34.293088" lon="-79.902940"/>
      <trkpt lat="34.293102" lon="-79.902800"/>
      <trkpt lat="34.293133" lon="-79.902635"/>
      <trkpt lat="34.293180" lon="-79.902466"/>
      <trkpt lat="34.293246" lon="-79.902275"/>
      <trkpt lat="34.293331" lon="-79.902088"/>
      <trkpt lat="34.293441" lon="-79.901891"/>
      <trkpt lat="34.293586" lon="-79.901687"/>
      <trkpt lat="34.293714" lon="-79.901547"/>
      <trkpt lat="34.293889" lon="-79.901394"/>
      <trkpt lat="34.294011" lon="-79.901306"/>
      <trkpt lat="34.294186" lon="-79.901206"/>
      <trkpt lat="34.294351" lon="-79.901135"/>
      <trkpt lat="34.294504" lon="-79.901086"/>
      <trkpt lat="34.294709" lon="-79.901044"/>
      <trkpt lat="34.294845" lon="-79.901033"/>
      <trkpt lat="34.294962" lon="-79.901034"/>
      <trkpt lat="34.295126" lon="-79.901050"/>
      <trkpt lat="34.295372" lon="-79.901110"/>
      <trkpt lat="34.295502" lon="-79.901160"/>
      <trkpt lat="34.295667" lon="-79.901239"/>
      <trkpt lat="34.295791" lon="-79.901322"/>
      <trkpt lat="34.295908" lon="-79.901408"/>
      <trkpt lat="34.296173" lon="-79.901673"/>
      <trkpt lat="34.296316" lon="-79.901870"/>
      <trkpt lat="34.296381" lon="-79.901978"/>
      <trkpt lat="34.296441" lon="-79.902100"/>
      <trkpt lat="34.296538" lon="-79.902354"/>
      <trkpt lat="34.296575" lon="-79.902487"/>
      <trkpt lat="34.296605" lon="-79.902644"/>
      <trkpt lat="34.296626" lon="-79.902845"/>
      <trkpt lat="34.297110" lon="-79.907884"/>
      <trkpt lat="34.297123" lon="-79.908195"/>
      <trkpt lat="34.297113" lon="-79.908549"/>
      <trkpt lat="34.297087" lon="-79.908740"/>
      <trkpt lat="34.297022" lon="-79.908987"/>
      <trkpt lat="34.296971" lon="-79.909125"/>
      <trkpt lat="34.296890" lon="-79.909302"/>
      <trkpt lat="34.296823" lon="-79.909419"/>
      <trkpt lat="34.296667" lon="-79.909630"/>
      <trkpt lat="34.296487" lon="-79.909801"/>
      <trkpt lat="34.296394" lon="-79.909869"/>
      <trkpt lat="34.296284" lon="-79.909943"/>
      <trkpt lat="34.296143" lon="-79.910012"/>
      <trkpt lat="34.296046" lon="-79.910049"/>
      <trkpt lat="34.295853" lon="-79.910098"/>
      <trkpt lat="34.295739" lon="-79.910111"/>
      <trkpt lat="34.295632" lon="-79.910111"/>
      <trkpt lat="34.295507" lon="-79.910104"/>
      <trkpt lat="34.295287" lon="-79.910059"/>
      <trkpt lat="34.295080" lon="-79.909977"/>
      <trkpt lat="34.294978" lon="-79.909920"/>
      <trkpt lat="34.294795" lon="-79.909786"/>
      <trkpt lat="34.294686" lon="-79.909684"/>
      <trkpt lat="34.294606" lon="-79.909592"/>
      <trkpt lat="34.294507" lon="-79.909460"/>
      <trkpt lat="34.294398" lon="-79.909273"/>
      <trkpt lat="34.294317" lon="-79.909091"/>
      <trkpt lat="34.294249" lon="-79.908881"/>
      <trkpt lat="34.294174" lon="-79.908607"/>
      <trkpt lat="34.293617" lon="-79.905929"/>
      <trkpt lat="34.293235" lon="-79.904026"/>
  </trkseg></trk>
  <trk><name>darlington ONPITROAD</name><trkseg>
      <trkpt lat="34.296578" lon="-79.909717"/>
      <trkpt lat="34.296385" lon="-79.909829"/>
      <trkpt lat="34.296259" lon="-79.909875"/>
      <trkpt lat="34.296005" lon="-79.909935"/>
      <trkpt lat="34.295874" lon="-79.909944"/>
      <trkpt lat="34.295787" lon="-79.909935"/>
      <trkpt lat="34.295701" lon="-79.909915"/>
      <trkpt lat="34.295536" lon="-79.909832"/>
      <trkpt lat="34.295429" lon="-79.909763"/>
      <trkpt lat="34.295297" lon="-79.909660"/>
      <trkpt lat="34.295138" lon="-79.909514"/>
      <trkpt lat="34.294963" lon="-79.909310"/>
      <trkpt lat="34.294830" lon="-79.909136"/>
      <trkpt lat="34.294696" lon="-79.908918"/>
      <trkpt lat="34.294585" lon="-79.908712"/>
      <trkpt lat="34.294480" lon="-79.908482"/>
      <trkpt lat="34.294406" lon="-79.908293"/>
      <trkpt lat="34.294347" lon="-79.908122"/>
      <trkpt lat="34.294271" lon="-79.907853"/>
      <trkpt lat="34.294198" lon="-79.907529"/>
      <trkpt lat="34.293705" lon="-79.905117"/>
      <trkpt lat="34.293481" lon="-79.903969"/>
      <trkpt lat="34.293364" lon="-79.903173"/>
      <trkpt lat="34.293341" lon="-79.902942"/>
      <trkpt lat="34.293346" lon="-79.902772"/>
      <trkpt lat="34.293391" lon="-79.902557"/>
      <trkpt lat="34.293489" lon="-79.902262"/>
      <trkpt lat="34.293562" lon="-79.902120"/>
      <trkpt lat="34.293667" lon="-79.901954"/>
      <trkpt lat="34.293761" lon="-79.901827"/>
      <trkpt lat="34.293898" lon="-79.901687"/>
      <trkpt lat="34.294033" lon="-79.901572"/>
      <trkpt lat="34.294176" lon="-79.901477"/>
      <trkpt lat="34.294305" lon="-79.901409"/>
      <trkpt lat="34.294480" lon="-79.901343"/>
      <trkpt lat="34.294630" lon="-79.901305"/>
      <trkpt lat="34.294771" lon="-79.901285"/>
      <trkpt lat="34.294921" lon="-79.901280"/>
      <trkpt lat="34.295070" lon="-79.901295"/>
      <trkpt lat="34.295190" lon="-79.901316"/>
      <trkpt lat="34.295326" lon="-79.901356"/>
      <trkpt lat="34.295456" lon="-79.901407"/>
      <trkpt lat="34.295597" lon="-79.901482"/>
      <trkpt lat="34.295764" lon="-79.901595"/>
      <trkpt lat="34.295899" lon="-79.901708"/>
      <trkpt lat="34.296025" lon="-79.901842"/>
      <trkpt lat="34.296112" lon="-79.901960"/>
      <trkpt lat="34.296197" lon="-79.902098"/>
      <trkpt lat="34.296297" lon="-79.902305"/>
      <trkpt lat="34.296384" lon="-79.902526"/>
      <trkpt lat="34.296483" lon="-79.902867"/>
      <trkpt lat="34.296684" lon="-79.903809"/>
      <trkpt lat="34.296760" lon="-79.904241"/>
  </trkseg></trk>
</gpx>
