<?xml version="1.0" encoding="UTF-8"?>
<gpx version="1.1" creator="SimRacing overlays (OpenStreetMap, ODbL)" xmlns="http://www.topografix.com/GPX/1/1">
  <metadata><name>Daytona International Speedway (Oval)</name>
    <desc>Driving direction. Source: OpenStreetMap contributors (ODbL).</desc></metadata>
  <trk><name>daytona_oval ONTRACK</name><trkseg>
      <trkpt lat="29.187755" lon="-81.072751"/>
      <trkpt lat="29.187682" lon="-81.072814"/>
      <trkpt lat="29.187477" lon="-81.072975"/>
      <trkpt lat="29.187373" lon="-81.073049"/>
      <trkpt lat="29.187264" lon="-81.073106"/>
      <trkpt lat="29.186951" lon="-81.073305"/>
      <trkpt lat="29.186764" lon="-81.073409"/>
      <trkpt lat="29.186531" lon="-81.073509"/>
      <trkpt lat="29.186066" lon="-81.073677"/>
      <trkpt lat="29.185602" lon="-81.073840"/>
      <trkpt lat="29.185084" lon="-81.074004"/>
      <trkpt lat="29.184390" lon="-81.074189"/>
      <trkpt lat="29.182552" lon="-81.074724"/>
      <trkpt lat="29.182100" lon="-81.074826"/>
      <trkpt lat="29.181847" lon="-81.074862"/>
      <trkpt lat="29.181529" lon="-81.074896"/>
      <trkpt lat="29.181388" lon="-81.074901"/>
      <trkpt lat="29.181232" lon="-81.074899"/>
      <trkpt lat="29.180968" lon="-81.074881"/>
      <trkpt lat="29.180853" lon="-81.074865"/>
      <trkpt lat="29.180568" lon="-81.074788"/>
      <trkpt lat="29.180393" lon="-81.074720"/>
      <trkpt lat="29.180232" lon="-81.074647"/>
      <trkpt lat="29.180088" lon="-81.074561"/>
      <trkpt lat="29.179912" lon="-81.074436"/>
      <trkpt lat="29.179741" lon="-81.074301"/>
      <trkpt lat="29.179606" lon="-81.074174"/>
      <trkpt lat="29.179458" lon="-81.074020"/>
      <trkpt lat="29.179323" lon="-81.073859"/>
      <trkpt lat="29.179192" lon="-81.073681"/>
      <trkpt lat="29.179087" lon="-81.073511"/>
      <trkpt lat="29.178995" lon="-81.073337"/>
      <trkpt lat="29.178881" lon="-81.073087"/>
      <trkpt lat="29.178822" lon="-81.072928"/>
      <trkpt lat="29.178763" lon="-81.072734"/>
      <trkpt lat="29.178704" lon="-81.072502"/>
      <trkpt lat="29.178659" lon="-81.072246"/>
      <trkpt lat="29.178635" lon="-81.072039"/>
      <trkpt lat="29.178627" lon="-81.071809"/>
      <trkpt lat="29.178635" lon="-81.071584"/>
      <trkpt lat="29.178656" lon="-81.071359"/>
      <trkpt lat="29.178692" lon="-81.071139"/>
      <trkpt lat="29.178739" lon="-81.070926"/>
      <trkpt lat="29.178816" lon="-81.070662"/>
      <trkpt lat="29.178917" lon="-81.070400"/>
      <trkpt lat="29.179028" lon="-81.070174"/>
      <trkpt lat="29.179113" lon="-81.070024"/>
      <trkpt lat="29.179212" lon="-81.069871"/>
      <trkpt lat="29.179322" lon="-81.069722"/>
      <trkpt lat="29.179613" lon="-81.069381"/>
      <trkpt lat="29.179825" lon="-81.069169"/>
      <trkpt lat="29.180076" lon="-81.068951"/>
      <trkpt lat="29.181377" lon="-81.067865"/>
      <trkpt lat="29.186052" lon="-81.063994"/>
      <trkpt lat="29.186951" lon="-81.063239"/>
      <trkpt lat="29.187254" lon="-81.063029"/>
      <trkpt lat="29.187625" lon="-81.062798"/>
      <trkpt lat="29.188018" lon="-81.062639"/>
      <trkpt lat="29.188213" lon="-81.062582"/>
      <trkpt lat="29.188477" lon="-81.062525"/>
      <trkpt lat="29.188576" lon="-81.062512"/>
      <trkpt lat="29.188874" lon="-81.062503"/>
      <trkpt lat="29.189066" lon="-81.062515"/>
      <trkpt lat="29.189270" lon="-81.062549"/>
      <trkpt lat="29.189441" lon="-81.062595"/>
      <trkpt lat="29.189707" lon="-81.062681"/>
      <trkpt lat="29.189864" lon="-81.062755"/>
      <trkpt lat="29.190039" lon="-81.062854"/>
      <trkpt lat="29.190242" lon="-81.062990"/>
      <trkpt lat="29.190418" lon="-81.063123"/>
      <trkpt lat="29.190572" lon="-81.063258"/>
      <trkpt lat="29.190726" lon="-81.063418"/>
      <trkpt lat="29.190838" lon="-81.063563"/>
      <trkpt lat="29.190973" lon="-81.063756"/>
      <trkpt lat="29.191105" lon="-81.063975"/>
      <trkpt lat="29.191200" lon="-81.064157"/>
      <trkpt lat="29.191335" lon="-81.064489"/>
      <trkpt lat="29.191400" lon="-81.064708"/>
      <trkpt lat="29.191445" lon="-81.064897"/>
      <trkpt lat="29.191484" lon="-81.065129"/>
      <trkpt lat="29.191508" lon="-81.065339"/>
      <trkpt lat="29.191517" lon="-81.065642"/>
      <trkpt lat="29.191507" lon="-81.065855"/>
      <trkpt lat="29.191467" lon="-81.066163"/>
      <trkpt lat="29.191399" lon="-81.066480"/>
      <trkpt lat="29.191289" lon="-81.066839"/>
      <trkpt lat="29.191170" lon="-81.067157"/>
      <trkpt lat="29.191085" lon="-81.067343"/>
      <trkpt lat="29.190756" lon="-81.068011"/>
      <trkpt lat="29.189149" lon="-81.070920"/>
      <trkpt lat="29.188990" lon="-81.071195"/>
      <trkpt lat="29.188834" lon="-81.071446"/>
      <trkpt lat="29.188724" lon="-81.071650"/>
      <trkpt lat="29.188472" lon="-81.071998"/>
      <trkpt lat="29.188238" lon="-81.072277"/>
      <trkpt lat="29.188063" lon="-81.072464"/>
      <trkpt lat="29.187867" lon="-81.072653"/>
      <trkpt lat="29.187755" lon="-81.072751"/>
  </trkseg></trk>
  <trk><name>daytona_oval ONPITROAD</name><trkseg>
      <trkpt lat="29.189554" lon="-81.070188"/>
      <trkpt lat="29.189484" lon="-81.070285"/>
      <trkpt lat="29.189219" lon="-81.070577"/>
      <trkpt lat="29.189076" lon="-81.070719"/>
      <trkpt lat="29.188910" lon="-81.070865"/>
      <trkpt lat="29.185454" lon="-81.073734"/>
      <trkpt lat="29.185315" lon="-81.073812"/>
      <trkpt lat="29.185084" lon="-81.074004"/>
  </trkseg></trk>
</gpx>
