<?xml version="1.0" encoding="UTF-8"?>
<gpx version="1.1" creator="SimRacing overlays (OpenStreetMap, ODbL)" xmlns="http://www.topografix.com/GPX/1/1">
  <metadata><name>Donington Park Grand Prix</name>
    <desc>Driving direction. Source: OpenStreetMap contributors (ODbL).</desc></metadata>
  <trk><name>donington_gp ONTRACK</name><trkseg>
      <trkpt lat="52.829931" lon="-1.380363"/>
      <trkpt lat="52.830322" lon="-1.383843"/>
      <trkpt lat="52.830422" lon="-1.384393"/>
      <trkpt lat="52.830468" lon="-1.384540"/>
      <trkpt lat="52.830538" lon="-1.384693"/>
      <trkpt lat="52.830597" lon="-1.384775"/>
      <trkpt lat="52.830722" lon="-1.384874"/>
      <trkpt lat="52.830847" lon="-1.384909"/>
      <trkpt lat="52.830936" lon="-1.384884"/>
      <trkpt lat="52.830988" lon="-1.384852"/>
      <trkpt lat="52.831070" lon="-1.384779"/>
      <trkpt lat="52.831851" lon="-1.383781"/>
      <trkpt lat="52.832048" lon="-1.383487"/>
      <trkpt lat="52.832117" lon="-1.383367"/>
      <trkpt lat="52.832152" lon="-1.383286"/>
      <trkpt lat="52.832268" lon="-1.382965"/>
      <trkpt lat="52.832368" lon="-1.382646"/>
      <trkpt lat="52.832431" lon="-1.382384"/>
      <trkpt lat="52.832506" lon="-1.381863"/>
      <trkpt lat="52.832523" lon="-1.381690"/>
      <trkpt lat="52.832536" lon="-1.381251"/>
      <trkpt lat="52.832537" lon="-1.380842"/>
      <trkpt lat="52.832529" lon="-1.380688"/>
      <trkpt lat="52.832499" lon="-1.380389"/>
      <trkpt lat="52.832306" lon="-1.379257"/>
      <trkpt lat="52.832281" lon="-1.379022"/>
      <trkpt lat="52.832293" lon="-1.378792"/>
      <trkpt lat="52.832321" lon="-1.378517"/>
      <trkpt lat="52.832376" lon="-1.378193"/>
      <trkpt lat="52.832450" lon="-1.377888"/>
      <trkpt lat="52.832681" lon="-1.377117"/>
      <trkpt lat="52.832724" lon="-1.376950"/>
      <trkpt lat="52.832817" lon="-1.376432"/>
      <trkpt lat="52.832911" lon="-1.375848"/>
      <trkpt lat="52.832914" lon="-1.375752"/>
      <trkpt lat="52.832906" lon="-1.375606"/>
      <trkpt lat="52.832869" lon="-1.375429"/>
      <trkpt lat="52.832844" lon="-1.375363"/>
      <trkpt lat="52.831987" lon="-1.373914"/>
      <trkpt lat="52.831633" lon="-1.373352"/>
      <trkpt lat="52.831562" lon="-1.373211"/>
      <trkpt lat="52.831461" lon="-1.372765"/>
      <trkpt lat="52.831391" lon="-1.372370"/>
      <trkpt lat="52.831338" lon="-1.371957"/>
      <trkpt lat="52.831301" lon="-1.371459"/>
      <trkpt lat="52.831252" lon="-1.370265"/>
      <trkpt lat="52.831251" lon="-1.369979"/>
      <trkpt lat="52.831261" lon="-1.369735"/>
      <trkpt lat="52.831289" lon="-1.369485"/>
      <trkpt lat="52.831338" lon="-1.369255"/>
      <trkpt lat="52.831637" lon="-1.368409"/>
      <trkpt lat="52.831698" lon="-1.368204"/>
      <trkpt lat="52.831792" lon="-1.367723"/>
      <trkpt lat="52.831816" lon="-1.367451"/>
      <trkpt lat="52.831794" lon="-1.367180"/>
      <trkpt lat="52.831754" lon="-1.367013"/>
      <trkpt lat="52.831697" lon="-1.366900"/>
      <trkpt lat="52.831659" lon="-1.366845"/>
      <trkpt lat="52.831499" lon="-1.366672"/>
      <trkpt lat="52.830625" lon="-1.365876"/>
      <trkpt lat="52.829523" lon="-1.364805"/>
      <trkpt lat="52.829444" lon="-1.364736"/>
      <trkpt lat="52.829343" lon="-1.364688"/>
      <trkpt lat="52.829299" lon="-1.364679"/>
      <trkpt lat="52.829249" lon="-1.364679"/>
      <trkpt lat="52.829185" lon="-1.364699"/>
      <trkpt lat="52.829112" lon="-1.364743"/>
      <trkpt lat="52.828841" lon="-1.364997"/>
      <trkpt lat="52.828772" lon="-1.365089"/>
      <trkpt lat="52.828717" lon="-1.365183"/>
      <trkpt lat="52.828590" lon="-1.365490"/>
      <trkpt lat="52.828513" lon="-1.365709"/>
      <trkpt lat="52.828471" lon="-1.365900"/>
      <trkpt lat="52.828429" lon="-1.366305"/>
      <trkpt lat="52.828423" lon="-1.366551"/>
      <trkpt lat="52.828429" lon="-1.366728"/>
      <trkpt lat="52.828811" lon="-1.373647"/>
      <trkpt lat="52.828863" lon="-1.374701"/>
      <trkpt lat="52.828846" lon="-1.374826"/>
      <trkpt lat="52.828798" lon="-1.374949"/>
      <trkpt lat="52.828732" lon="-1.375011"/>
      <trkpt lat="52.828616" lon="-1.375082"/>
      <trkpt lat="52.828535" lon="-1.375202"/>
      <trkpt lat="52.828493" lon="-1.375320"/>
      <trkpt lat="52.828470" lon="-1.375474"/>
      <trkpt lat="52.828455" lon="-1.378422"/>
      <trkpt lat="52.828445" lon="-1.378876"/>
      <trkpt lat="52.828385" lon="-1.379796"/>
      <trkpt lat="52.828245" lon="-1.381585"/>
      <trkpt lat="52.828250" lon="-1.381714"/>
      <trkpt lat="52.828279" lon="-1.381809"/>
      <trkpt lat="52.828338" lon="-1.381889"/>
      <trkpt lat="52.828373" lon="-1.381912"/>
      <trkpt lat="52.828461" lon="-1.381924"/>
      <trkpt lat="52.828574" lon="-1.381890"/>
      <trkpt lat="52.828605" lon="-1.381848"/>
      <trkpt lat="52.828641" lon="-1.381723"/>
      <trkpt lat="52.828841" lon="-1.379609"/>
      <trkpt lat="52.828946" lon="-1.378279"/>
      <trkpt lat="52.828963" lon="-1.377999"/>
      <trkpt lat="52.828972" lon="-1.377662"/>
      <trkpt lat="52.828974" lon="-1.377403"/>
      <trkpt lat="52.828962" lon="-1.376740"/>
      <trkpt lat="52.828975" lon="-1.376536"/>
      <trkpt lat="52.828998" lon="-1.376432"/>
      <trkpt lat="52.829039" lon="-1.376349"/>
      <trkpt lat="52.829088" lon="-1.376292"/>
      <trkpt lat="52.829150" lon="-1.376263"/>
      <trkpt lat="52.829211" lon="-1.376260"/>
      <trkpt lat="52.829273" lon="-1.376281"/>
      <trkpt lat="52.829336" lon="-1.376322"/>
      <trkpt lat="52.829397" lon="-1.376383"/>
      <trkpt lat="52.829475" lon="-1.376510"/>
      <trkpt lat="52.829497" lon="-1.376567"/>
      <trkpt lat="52.829515" lon="-1.376662"/>
      <trkpt lat="52.829931" lon="-1.380363"/>
  </trkseg></trk>
  <trk><name>donington_gp ONPITROAD</name><trkseg>
      <trkpt lat="52.829543" lon="-1.376906"/>
      <trkpt lat="52.829551" lon="-1.376986"/>
      <trkpt lat="52.829548" lon="-1.377186"/>
      <trkpt lat="52.829498" lon="-1.377815"/>
      <trkpt lat="52.829525" lon="-1.378155"/>
      <trkpt lat="52.830003" lon="-1.382148"/>
      <trkpt lat="52.830151" lon="-1.383023"/>
      <trkpt lat="52.830322" lon="-1.383843"/>
  </trkseg></trk>
</gpx>
