<?xml version="1.0" encoding="UTF-8"?>
<gpx version="1.1" creator="SimRacing overlays (OpenStreetMap, ODbL)" xmlns="http://www.topografix.com/GPX/1/1">
  <metadata><name>Indianapolis Motor Speedway (Oval)</name>
    <desc>Driving direction. Source: OpenStreetMap contributors (ODbL).</desc></metadata>
  <trk><name>indianapolis_oval ONTRACK</name><trkseg>
      <trkpt lat="39.793157" lon="-86.238857"/>
      <trkpt lat="39.791231" lon="-86.238828"/>
      <trkpt lat="39.790729" lon="-86.238823"/>
      <trkpt lat="39.790580" lon="-86.238818"/>
      <trkpt lat="39.790487" lon="-86.238813"/>
      <trkpt lat="39.790224" lon="-86.238793"/>
      <trkpt lat="39.790017" lon="-86.238757"/>
      <trkpt lat="39.789757" lon="-86.238682"/>
      <trkpt lat="39.789588" lon="-86.238607"/>
      <trkpt lat="39.789447" lon="-86.238531"/>
      <trkpt lat="39.789291" lon="-86.238412"/>
      <trkpt lat="39.789122" lon="-86.238271"/>
      <trkpt lat="39.788969" lon="-86.238119"/>
      <trkpt lat="39.788702" lon="-86.237791"/>
      <trkpt lat="39.788501" lon="-86.237452"/>
      <trkpt lat="39.788397" lon="-86.237235"/>
      <trkpt lat="39.788310" lon="-86.237002"/>
      <trkpt lat="39.788235" lon="-86.236774"/>
      <trkpt lat="39.788179" lon="-86.236535"/>
      <trkpt lat="39.788143" lon="-86.236296"/>
      <trkpt lat="39.788120" lon="-86.236030"/>
      <trkpt lat="39.788120" lon="-86.235622"/>
      <trkpt lat="39.788122" lon="-86.235196"/>
      <trkpt lat="39.788128" lon="-86.234409"/>
      <trkpt lat="39.788139" lon="-86.233167"/>
      <trkpt lat="39.788166" lon="-86.232852"/>
      <trkpt lat="39.788208" lon="-86.232582"/>
      <trkpt lat="39.788261" lon="-86.232353"/>
      <trkpt lat="39.788331" lon="-86.232135"/>
      <trkpt lat="39.788431" lon="-86.231875"/>
      <trkpt lat="39.788522" lon="-86.231695"/>
      <trkpt lat="39.788601" lon="-86.231554"/>
      <trkpt lat="39.788690" lon="-86.231411"/>
      <trkpt lat="39.788784" lon="-86.231279"/>
      <trkpt lat="39.788878" lon="-86.231154"/>
      <trkpt lat="39.789085" lon="-86.230916"/>
      <trkpt lat="39.789253" lon="-86.230771"/>
      <trkpt lat="39.789407" lon="-86.230647"/>
      <trkpt lat="39.789609" lon="-86.230536"/>
      <trkpt lat="39.789854" lon="-86.230425"/>
      <trkpt lat="39.789981" lon="-86.230382"/>
      <trkpt lat="39.790090" lon="-86.230354"/>
      <trkpt lat="39.790216" lon="-86.230336"/>
      <trkpt lat="39.790343" lon="-86.230328"/>
      <trkpt lat="39.790615" lon="-86.230332"/>
      <trkpt lat="39.791285" lon="-86.230329"/>
      <trkpt lat="39.792742" lon="-86.230358"/>
      <trkpt lat="39.798106" lon="-86.230458"/>
      <trkpt lat="39.799215" lon="-86.230477"/>
      <trkpt lat="39.799538" lon="-86.230482"/>
      <trkpt lat="39.799799" lon="-86.230497"/>
      <trkpt lat="39.799923" lon="-86.230513"/>
      <trkpt lat="39.800051" lon="-86.230538"/>
      <trkpt lat="39.800153" lon="-86.230565"/>
      <trkpt lat="39.800239" lon="-86.230597"/>
      <trkpt lat="39.800355" lon="-86.230645"/>
      <trkpt lat="39.800450" lon="-86.230691"/>
      <trkpt lat="39.800584" lon="-86.230765"/>
      <trkpt lat="39.800717" lon="-86.230855"/>
      <trkpt lat="39.800796" lon="-86.230919"/>
      <trkpt lat="39.800913" lon="-86.231024"/>
      <trkpt lat="39.801043" lon="-86.231148"/>
      <trkpt lat="39.801171" lon="-86.231292"/>
      <trkpt lat="39.801273" lon="-86.231423"/>
      <trkpt lat="39.801358" lon="-86.231549"/>
      <trkpt lat="39.801414" lon="-86.231634"/>
      <trkpt lat="39.801468" lon="-86.231721"/>
      <trkpt lat="39.801564" lon="-86.231893"/>
      <trkpt lat="39.801629" lon="-86.232028"/>
      <trkpt lat="39.801715" lon="-86.232232"/>
      <trkpt lat="39.801773" lon="-86.232398"/>
      <trkpt lat="39.801819" lon="-86.232571"/>
      <trkpt lat="39.801857" lon="-86.232755"/>
      <trkpt lat="39.801885" lon="-86.232940"/>
      <trkpt lat="39.801908" lon="-86.233182"/>
      <trkpt lat="39.801915" lon="-86.233357"/>
      <trkpt lat="39.801918" lon="-86.233534"/>
      <trkpt lat="39.801900" lon="-86.235844"/>
      <trkpt lat="39.801898" lon="-86.236109"/>
      <trkpt lat="39.801890" lon="-86.236275"/>
      <trkpt lat="39.801872" lon="-86.236459"/>
      <trkpt lat="39.801838" lon="-86.236666"/>
      <trkpt lat="39.801786" lon="-86.236876"/>
      <trkpt lat="39.801730" lon="-86.237070"/>
      <trkpt lat="39.801661" lon="-86.237265"/>
      <trkpt lat="39.801592" lon="-86.237441"/>
      <trkpt lat="39.801497" lon="-86.237640"/>
      <trkpt lat="39.801402" lon="-86.237801"/>
      <trkpt lat="39.801299" lon="-86.237959"/>
      <trkpt lat="39.801206" lon="-86.238092"/>
      <trkpt lat="39.801110" lon="-86.238209"/>
      <trkpt lat="39.800996" lon="-86.238323"/>
      <trkpt lat="39.800902" lon="-86.238406"/>
      <trkpt lat="39.800733" lon="-86.238548"/>
      <trkpt lat="39.800546" lon="-86.238673"/>
      <trkpt lat="39.800328" lon="-86.238789"/>
      <trkpt lat="39.800202" lon="-86.238842"/>
      <trkpt lat="39.800055" lon="-86.238890"/>
      <trkpt lat="39.799855" lon="-86.238935"/>
      <trkpt lat="39.799706" lon="-86.238953"/>
      <trkpt lat="39.799558" lon="-86.238956"/>
      <trkpt lat="39.799419" lon="-86.238957"/>
      <trkpt lat="39.799329" lon="-86.238957"/>
      <trkpt lat="39.798924" lon="-86.238953"/>
      <trkpt lat="39.798376" lon="-86.238937"/>
      <trkpt lat="39.797354" lon="-86.238918"/>
      <trkpt lat="39.796503" lon="-86.238906"/>
      <trkpt lat="39.796159" lon="-86.238901"/>
      <trkpt lat="39.793157" lon="-86.238857"/>
      <trkpt lat="39.793157" lon="-86.238857"/>
  </trkseg></trk>
  <trk><name>indianapolis_oval ONPITROAD</name><trkseg>
      <trkpt lat="39.796853" lon="-86.238765"/>
      <trkpt lat="39.793447" lon="-86.238717"/>
      <trkpt lat="39.792107" lon="-86.238689"/>
      <trkpt lat="39.790732" lon="-86.238667"/>
  </trkseg></trk>
</gpx>
