<?xml version="1.0" encoding="UTF-8"?>
<gpx version="1.1" creator="SimRacing overlays (OpenStreetMap, ODbL)" xmlns="http://www.topografix.com/GPX/1/1">
  <metadata><name>Autodromo Jose Carlos Pace (Interlagos)</name>
    <desc>Driving direction. Source: OpenStreetMap contributors (ODbL).</desc></metadata>
  <trk><name>interlagos_gp ONTRACK</name><trkseg>
      <trkpt lat="-23.704537" lon="-46.699758"/>
      <trkpt lat="-23.705905" lon="-46.699372"/>
      <trkpt lat="-23.706080" lon="-46.699297"/>
      <trkpt lat="-23.706225" lon="-46.699206"/>
      <trkpt lat="-23.706292" lon="-46.699151"/>
      <trkpt lat="-23.706378" lon="-46.699047"/>
      <trkpt lat="-23.706412" lon="-46.698987"/>
      <trkpt lat="-23.706439" lon="-46.698912"/>
      <trkpt lat="-23.706440" lon="-46.698833"/>
      <trkpt lat="-23.706427" lon="-46.698763"/>
      <trkpt lat="-23.706398" lon="-46.698696"/>
      <trkpt lat="-23.706311" lon="-46.698589"/>
      <trkpt lat="-23.706100" lon="-46.698374"/>
      <trkpt lat="-23.706021" lon="-46.698281"/>
      <trkpt lat="-23.705985" lon="-46.698194"/>
      <trkpt lat="-23.705978" lon="-46.698143"/>
      <trkpt lat="-23.705982" lon="-46.698088"/>
      <trkpt lat="-23.706016" lon="-46.697980"/>
      <trkpt lat="-23.706207" lon="-46.697645"/>
      <trkpt lat="-23.706260" lon="-46.697505"/>
      <trkpt lat="-23.706304" lon="-46.697327"/>
      <trkpt lat="-23.706321" lon="-46.697072"/>
      <trkpt lat="-23.706319" lon="-46.696956"/>
      <trkpt lat="-23.706308" lon="-46.696835"/>
      <trkpt lat="-23.706280" lon="-46.696680"/>
      <trkpt lat="-23.706241" lon="-46.696547"/>
      <trkpt lat="-23.706177" lon="-46.696396"/>
      <trkpt lat="-23.706097" lon="-46.696256"/>
      <trkpt lat="-23.706022" lon="-46.696142"/>
      <trkpt lat="-23.705931" lon="-46.696036"/>
      <trkpt lat="-23.705818" lon="-46.695927"/>
      <trkpt lat="-23.705710" lon="-46.695840"/>
      <trkpt lat="-23.705583" lon="-46.695763"/>
      <trkpt lat="-23.705455" lon="-46.695703"/>
      <trkpt lat="-23.705180" lon="-46.695608"/>
      <trkpt lat="-23.703731" lon="-46.695149"/>
      <trkpt lat="-23.703404" lon="-46.695055"/>
      <trkpt lat="-23.702847" lon="-46.694914"/>
      <trkpt lat="-23.700893" lon="-46.694342"/>
      <trkpt lat="-23.700102" lon="-46.694098"/>
      <trkpt lat="-23.699990" lon="-46.694068"/>
      <trkpt lat="-23.699857" lon="-46.694059"/>
      <trkpt lat="-23.699797" lon="-46.694068"/>
      <trkpt lat="-23.699692" lon="-46.694107"/>
      <trkpt lat="-23.699638" lon="-46.694142"/>
      <trkpt lat="-23.699574" lon="-46.694215"/>
      <trkpt lat="-23.699537" lon="-46.694274"/>
      <trkpt lat="-23.699498" lon="-46.694388"/>
      <trkpt lat="-23.699464" lon="-46.694554"/>
      <trkpt lat="-23.699350" lon="-46.695293"/>
      <trkpt lat="-23.699345" lon="-46.695384"/>
      <trkpt lat="-23.699354" lon="-46.695574"/>
      <trkpt lat="-23.699373" lon="-46.695676"/>
      <trkpt lat="-23.699404" lon="-46.695789"/>
      <trkpt lat="-23.699471" lon="-46.695956"/>
      <trkpt lat="-23.699558" lon="-46.696102"/>
      <trkpt lat="-23.699644" lon="-46.696211"/>
      <trkpt lat="-23.699738" lon="-46.696312"/>
      <trkpt lat="-23.699874" lon="-46.696436"/>
      <trkpt lat="-23.702042" lon="-46.698156"/>
      <trkpt lat="-23.702196" lon="-46.698286"/>
      <trkpt lat="-23.702290" lon="-46.698397"/>
      <trkpt lat="-23.702333" lon="-46.698465"/>
      <trkpt lat="-23.702368" lon="-46.698550"/>
      <trkpt lat="-23.702392" lon="-46.698634"/>
      <trkpt lat="-23.702405" lon="-46.698701"/>
      <trkpt lat="-23.702412" lon="-46.698804"/>
      <trkpt lat="-23.702407" lon="-46.698990"/>
      <trkpt lat="-23.702394" lon="-46.699095"/>
      <trkpt lat="-23.702345" lon="-46.699286"/>
      <trkpt lat="-23.702277" lon="-46.699460"/>
      <trkpt lat="-23.702231" lon="-46.699540"/>
      <trkpt lat="-23.702119" lon="-46.699689"/>
      <trkpt lat="-23.701996" lon="-46.699776"/>
      <trkpt lat="-23.701822" lon="-46.699835"/>
      <trkpt lat="-23.701609" lon="-46.699885"/>
      <trkpt lat="-23.701046" lon="-46.699984"/>
      <trkpt lat="-23.700858" lon="-46.699999"/>
      <trkpt lat="-23.700694" lon="-46.699986"/>
      <trkpt lat="-23.700631" lon="-46.699956"/>
      <trkpt lat="-23.700570" lon="-46.699887"/>
      <trkpt lat="-23.700531" lon="-46.699804"/>
      <trkpt lat="-23.700520" lon="-46.699714"/>
      <trkpt lat="-23.700531" lon="-46.699635"/>
      <trkpt lat="-23.700607" lon="-46.699476"/>
      <trkpt lat="-23.700728" lon="-46.699299"/>
      <trkpt lat="-23.700770" lon="-46.699217"/>
      <trkpt lat="-23.700785" lon="-46.699181"/>
      <trkpt lat="-23.700803" lon="-46.699097"/>
      <trkpt lat="-23.700808" lon="-46.699005"/>
      <trkpt lat="-23.700785" lon="-46.698885"/>
      <trkpt lat="-23.700758" lon="-46.698817"/>
      <trkpt lat="-23.700722" lon="-46.698761"/>
      <trkpt lat="-23.700640" lon="-46.698677"/>
      <trkpt lat="-23.700531" lon="-46.698617"/>
      <trkpt lat="-23.700450" lon="-46.698600"/>
      <trkpt lat="-23.700384" lon="-46.698598"/>
      <trkpt lat="-23.700322" lon="-46.698608"/>
      <trkpt lat="-23.700265" lon="-46.698628"/>
      <trkpt lat="-23.700217" lon="-46.698657"/>
      <trkpt lat="-23.700102" lon="-46.698759"/>
      <trkpt lat="-23.699759" lon="-46.699138"/>
      <trkpt lat="-23.699579" lon="-46.699318"/>
      <trkpt lat="-23.699503" lon="-46.699379"/>
      <trkpt lat="-23.699406" lon="-46.699442"/>
      <trkpt lat="-23.699351" lon="-46.699474"/>
      <trkpt lat="-23.699225" lon="-46.699521"/>
      <trkpt lat="-23.698990" lon="-46.699588"/>
      <trkpt lat="-23.698761" lon="-46.699641"/>
      <trkpt lat="-23.698678" lon="-46.699646"/>
      <trkpt lat="-23.698601" lon="-46.699637"/>
      <trkpt lat="-23.698554" lon="-46.699612"/>
      <trkpt lat="-23.698509" lon="-46.699571"/>
      <trkpt lat="-23.698465" lon="-46.699499"/>
      <trkpt lat="-23.698443" lon="-46.699435"/>
      <trkpt lat="-23.698440" lon="-46.699381"/>
      <trkpt lat="-23.698452" lon="-46.699322"/>
      <trkpt lat="-23.698475" lon="-46.699275"/>
      <trkpt lat="-23.698509" lon="-46.699231"/>
      <trkpt lat="-23.698636" lon="-46.699087"/>
      <trkpt lat="-23.699140" lon="-46.698585"/>
      <trkpt lat="-23.699215" lon="-46.698486"/>
      <trkpt lat="-23.699259" lon="-46.698413"/>
      <trkpt lat="-23.699328" lon="-46.698265"/>
      <trkpt lat="-23.699357" lon="-46.698177"/>
      <trkpt lat="-23.699387" lon="-46.697995"/>
      <trkpt lat="-23.699389" lon="-46.697774"/>
      <trkpt lat="-23.699374" lon="-46.697655"/>
      <trkpt lat="-23.699348" lon="-46.697560"/>
      <trkpt lat="-23.699281" lon="-46.697396"/>
      <trkpt lat="-23.699210" lon="-46.697281"/>
      <trkpt lat="-23.699124" lon="-46.697177"/>
      <trkpt lat="-23.699046" lon="-46.697102"/>
      <trkpt lat="-23.698770" lon="-46.696904"/>
      <trkpt lat="-23.697909" lon="-46.696319"/>
      <trkpt lat="-23.697668" lon="-46.696167"/>
      <trkpt lat="-23.697622" lon="-46.696149"/>
      <trkpt lat="-23.697577" lon="-46.696142"/>
      <trkpt lat="-23.697498" lon="-46.696149"/>
      <trkpt lat="-23.697439" lon="-46.696179"/>
      <trkpt lat="-23.697380" lon="-46.696238"/>
      <trkpt lat="-23.697332" lon="-46.696314"/>
      <trkpt lat="-23.697209" lon="-46.696623"/>
      <trkpt lat="-23.697043" lon="-46.697121"/>
      <trkpt lat="-23.697003" lon="-46.697262"/>
      <trkpt lat="-23.696994" lon="-46.697357"/>
      <trkpt lat="-23.697004" lon="-46.697484"/>
      <trkpt lat="-23.697031" lon="-46.697683"/>
      <trkpt lat="-23.697110" lon="-46.698146"/>
      <trkpt lat="-23.697168" lon="-46.698366"/>
      <trkpt lat="-23.697289" lon="-46.698681"/>
      <trkpt lat="-23.697496" lon="-46.699145"/>
      <trkpt lat="-23.697607" lon="-46.699340"/>
      <trkpt lat="-23.697733" lon="-46.699515"/>
      <trkpt lat="-23.697915" lon="-46.699711"/>
      <trkpt lat="-23.698006" lon="-46.699780"/>
      <trkpt lat="-23.698108" lon="-46.699843"/>
      <trkpt lat="-23.698221" lon="-46.699905"/>
      <trkpt lat="-23.698323" lon="-46.699948"/>
      <trkpt lat="-23.698872" lon="-46.700107"/>
      <trkpt lat="-23.700548" lon="-46.700544"/>
      <trkpt lat="-23.700803" lon="-46.700587"/>
      <trkpt lat="-23.700927" lon="-46.700599"/>
      <trkpt lat="-23.701166" lon="-46.700607"/>
      <trkpt lat="-23.701321" lon="-46.700599"/>
      <trkpt lat="-23.701729" lon="-46.700535"/>
      <trkpt lat="-23.702192" lon="-46.700419"/>
      <trkpt lat="-23.704537" lon="-46.699758"/>
  </trkseg></trk>
  <trk><name>interlagos_gp ONPITROAD</name><trkseg>
      <trkpt lat="-23.699886" lon="-46.700370"/>
      <trkpt lat="-23.700000" lon="-46.700364"/>
      <trkpt lat="-23.700298" lon="-46.700416"/>
      <trkpt lat="-23.700456" lon="-46.700431"/>
      <trkpt lat="-23.700681" lon="-46.700435"/>
      <trkpt lat="-23.700919" lon="-46.700409"/>
      <trkpt lat="-23.701759" lon="-46.700215"/>
      <trkpt lat="-23.701883" lon="-46.700207"/>
      <trkpt lat="-23.702122" lon="-46.700233"/>
      <trkpt lat="-23.702277" lon="-46.700224"/>
      <trkpt lat="-23.705955" lon="-46.699191"/>
      <trkpt lat="-23.706087" lon="-46.699131"/>
      <trkpt lat="-23.706120" lon="-46.699106"/>
      <trkpt lat="-23.706168" lon="-46.699043"/>
      <trkpt lat="-23.706183" lon="-46.698966"/>
      <trkpt lat="-23.706163" lon="-46.698876"/>
      <trkpt lat="-23.706011" lon="-46.698576"/>
      <trkpt lat="-23.705930" lon="-46.698470"/>
      <trkpt lat="-23.705681" lon="-46.698210"/>
      <trkpt lat="-23.705651" lon="-46.698161"/>
      <trkpt lat="-23.705623" lon="-46.698096"/>
      <trkpt lat="-23.705613" lon="-46.698045"/>
      <trkpt lat="-23.705615" lon="-46.697950"/>
      <trkpt lat="-23.705629" lon="-46.697898"/>
      <trkpt lat="-23.705712" lon="-46.697723"/>
      <trkpt lat="-23.705878" lon="-46.697423"/>
      <trkpt lat="-23.705942" lon="-46.697285"/>
      <trkpt lat="-23.705972" lon="-46.697205"/>
      <trkpt lat="-23.706001" lon="-46.697097"/>
      <trkpt lat="-23.706021" lon="-46.696982"/>
      <trkpt lat="-23.706029" lon="-46.696866"/>
      <trkpt lat="-23.706027" lon="-46.696725"/>
      <trkpt lat="-23.705991" lon="-46.696524"/>
      <trkpt lat="-23.705956" lon="-46.696418"/>
      <trkpt lat="-23.705897" lon="-46.696295"/>
      <trkpt lat="-23.705846" lon="-46.696213"/>
      <trkpt lat="-23.705789" lon="-46.696137"/>
      <trkpt lat="-23.705670" lon="-46.696015"/>
      <trkpt lat="-23.705542" lon="-46.695923"/>
      <trkpt lat="-23.705366" lon="-46.695834"/>
      <trkpt lat="-23.704818" lon="-46.695604"/>
      <trkpt lat="-23.704230" lon="-46.695370"/>
      <trkpt lat="-23.703719" lon="-46.695199"/>
      <trkpt lat="-23.703238" lon="-46.695056"/>
      <trkpt lat="-23.703192" lon="-46.695036"/>
      <trkpt lat="-23.703105" lon="-46.694978"/>
  </trkseg></trk>
</gpx>
