<?xml version="1.0" encoding="UTF-8"?>
<gpx version="1.1" creator="SimRacing overlays (OpenStreetMap, ODbL)" xmlns="http://www.topografix.com/GPX/1/1">
  <metadata><name>Kansas Speedway (Oval)</name>
    <desc>Driving direction. Source: OpenStreetMap contributors (ODbL).</desc></metadata>
  <trk><name>kansas_oval ONTRACK</name><trkseg>
      <trkpt lat="39.116409" lon="-94.833900"/>
      <trkpt lat="39.116322" lon="-94.833932"/>
      <trkpt lat="39.116089" lon="-94.833992"/>
      <trkpt lat="39.115826" lon="-94.834043"/>
      <trkpt lat="39.115580" lon="-94.834073"/>
      <trkpt lat="39.115341" lon="-94.834084"/>
      <trkpt lat="39.115077" lon="-94.834071"/>
      <trkpt lat="39.114806" lon="-94.834040"/>
      <trkpt lat="39.114614" lon="-94.833999"/>
      <trkpt lat="39.113145" lon="-94.833631"/>
      <trkpt lat="39.112944" lon="-94.833550"/>
      <trkpt lat="39.112762" lon="-94.833453"/>
      <trkpt lat="39.112576" lon="-94.833335"/>
      <trkpt lat="39.112377" lon="-94.833170"/>
      <trkpt lat="39.112190" lon="-94.832964"/>
      <trkpt lat="39.112020" lon="-94.832729"/>
      <trkpt lat="39.111880" lon="-94.832489"/>
      <trkpt lat="39.111767" lon="-94.832247"/>
      <trkpt lat="39.111674" lon="-94.831980"/>
      <trkpt lat="39.111599" lon="-94.831698"/>
      <trkpt lat="39.111557" lon="-94.831447"/>
      <trkpt lat="39.111529" lon="-94.831181"/>
      <trkpt lat="39.111526" lon="-94.830870"/>
      <trkpt lat="39.111556" lon="-94.830543"/>
      <trkpt lat="39.111621" lon="-94.830213"/>
      <trkpt lat="39.111708" lon="-94.829902"/>
      <trkpt lat="39.111821" lon="-94.829619"/>
      <trkpt lat="39.111958" lon="-94.829353"/>
      <trkpt lat="39.112119" lon="-94.829118"/>
      <trkpt lat="39.112301" lon="-94.828887"/>
      <trkpt lat="39.112520" lon="-94.828688"/>
      <trkpt lat="39.112736" lon="-94.828535"/>
      <trkpt lat="39.112980" lon="-94.828392"/>
      <trkpt lat="39.113289" lon="-94.828233"/>
      <trkpt lat="39.113632" lon="-94.828083"/>
      <trkpt lat="39.115130" lon="-94.827480"/>
      <trkpt lat="39.116690" lon="-94.826889"/>
      <trkpt lat="39.116939" lon="-94.826807"/>
      <trkpt lat="39.117176" lon="-94.826738"/>
      <trkpt lat="39.117407" lon="-94.826693"/>
      <trkpt lat="39.117606" lon="-94.826670"/>
      <trkpt lat="39.117834" lon="-94.826659"/>
      <trkpt lat="39.118020" lon="-94.826679"/>
      <trkpt lat="39.118206" lon="-94.826718"/>
      <trkpt lat="39.118381" lon="-94.826773"/>
      <trkpt lat="39.118556" lon="-94.826856"/>
      <trkpt lat="39.118758" lon="-94.826975"/>
      <trkpt lat="39.118926" lon="-94.827100"/>
      <trkpt lat="39.119078" lon="-94.827237"/>
      <trkpt lat="39.119237" lon="-94.827419"/>
      <trkpt lat="39.119392" lon="-94.827624"/>
      <trkpt lat="39.119529" lon="-94.827868"/>
      <trkpt lat="39.119650" lon="-94.828120"/>
      <trkpt lat="39.119737" lon="-94.828381"/>
      <trkpt lat="39.119813" lon="-94.828645"/>
      <trkpt lat="39.119854" lon="-94.828914"/>
      <trkpt lat="39.119881" lon="-94.829183"/>
      <trkpt lat="39.119883" lon="-94.829466"/>
      <trkpt lat="39.119867" lon="-94.829719"/>
      <trkpt lat="39.119833" lon="-94.829959"/>
      <trkpt lat="39.119787" lon="-94.830178"/>
      <trkpt lat="39.119723" lon="-94.830410"/>
      <trkpt lat="39.119641" lon="-94.830636"/>
      <trkpt lat="39.119513" lon="-94.830910"/>
      <trkpt lat="39.119340" lon="-94.831189"/>
      <trkpt lat="39.119145" lon="-94.831450"/>
      <trkpt lat="39.118358" lon="-94.832457"/>
      <trkpt lat="39.118116" lon="-94.832749"/>
      <trkpt lat="39.117869" lon="-94.833003"/>
      <trkpt lat="39.117675" lon="-94.833176"/>
      <trkpt lat="39.117502" lon="-94.833317"/>
      <trkpt lat="39.117293" lon="-94.833465"/>
      <trkpt lat="39.117064" lon="-94.833609"/>
      <trkpt lat="39.116810" lon="-94.833741"/>
      <trkpt lat="39.116571" lon="-94.833841"/>
      <trkpt lat="39.116409" lon="-94.833900"/>
  </trkseg></trk>
  <trk><name>kansas_oval ONPITROAD</name><trkseg>
      <trkpt lat="39.119513" lon="-94.830910"/>
      <trkpt lat="39.119239" lon="-94.831207"/>
      <trkpt lat="39.119099" lon="-94.831339"/>
      <trkpt lat="39.118944" lon="-94.831468"/>
      <trkpt lat="39.118786" lon="-94.831583"/>
      <trkpt lat="39.118636" lon="-94.831665"/>
      <trkpt lat="39.114199" lon="-94.833409"/>
      <trkpt lat="39.113975" lon="-94.833479"/>
      <trkpt lat="39.113775" lon="-94.833528"/>
      <trkpt lat="39.113553" lon="-94.833556"/>
      <trkpt lat="39.113328" lon="-94.833547"/>
      <trkpt lat="39.113092" lon="-94.833514"/>
      <trkpt lat="39.112929" lon="-94.833467"/>
      <trkpt lat="39.112576" lon="-94.833335"/>
  </trkseg></trk>
</gpx>
