<?xml version="1.0" encoding="UTF-8"?>
<gpx version="1.1" creator="SimRacing overlays (OpenStreetMap, ODbL)" xmlns="http://www.topografix.com/GPX/1/1">
  <metadata><name>WeatherTech Raceway Laguna Seca</name>
    <desc>Driving direction. Source: OpenStreetMap contributors (ODbL).</desc></metadata>
  <trk><name>lagunaseca_full ONTRACK</name><trkseg>
      <trkpt lat="36.586769" lon="-121.751364"/>
      <trkpt lat="36.586478" lon="-121.752555"/>
      <trkpt lat="36.586462" lon="-121.752686"/>
      <trkpt lat="36.586467" lon="-121.752752"/>
      <trkpt lat="36.586494" lon="-121.752881"/>
      <trkpt lat="36.586518" lon="-121.752939"/>
      <trkpt lat="36.586546" lon="-121.752994"/>
      <trkpt lat="36.586620" lon="-121.753085"/>
      <trkpt lat="36.586709" lon="-121.753154"/>
      <trkpt lat="36.588589" lon="-121.754380"/>
      <trkpt lat="36.588634" lon="-121.754418"/>
      <trkpt lat="36.588667" lon="-121.754470"/>
      <trkpt lat="36.588681" lon="-121.754535"/>
      <trkpt lat="36.588674" lon="-121.754603"/>
      <trkpt lat="36.588644" lon="-121.754662"/>
      <trkpt lat="36.588611" lon="-121.754700"/>
      <trkpt lat="36.588264" lon="-121.754987"/>
      <trkpt lat="36.586347" lon="-121.756739"/>
      <trkpt lat="36.586125" lon="-121.756918"/>
      <trkpt lat="36.584908" lon="-121.757602"/>
      <trkpt lat="36.584770" lon="-121.757666"/>
      <trkpt lat="36.584630" lon="-121.757718"/>
      <trkpt lat="36.584536" lon="-121.757746"/>
      <trkpt lat="36.584390" lon="-121.757767"/>
      <trkpt lat="36.584261" lon="-121.757775"/>
      <trkpt lat="36.583606" lon="-121.757775"/>
      <trkpt lat="36.582806" lon="-121.757735"/>
      <trkpt lat="36.582709" lon="-121.757720"/>
      <trkpt lat="36.582645" lon="-121.757690"/>
      <trkpt lat="36.582600" lon="-121.757654"/>
      <trkpt lat="36.582560" lon="-121.757612"/>
      <trkpt lat="36.582526" lon="-121.757557"/>
      <trkpt lat="36.582499" lon="-121.757489"/>
      <trkpt lat="36.582480" lon="-121.757408"/>
      <trkpt lat="36.582477" lon="-121.757314"/>
      <trkpt lat="36.582489" lon="-121.757216"/>
      <trkpt lat="36.582538" lon="-121.757048"/>
      <trkpt lat="36.582577" lon="-121.756985"/>
      <trkpt lat="36.582668" lon="-121.756903"/>
      <trkpt lat="36.582775" lon="-121.756865"/>
      <trkpt lat="36.582827" lon="-121.756862"/>
      <trkpt lat="36.583160" lon="-121.756995"/>
      <trkpt lat="36.583421" lon="-121.757069"/>
      <trkpt lat="36.583560" lon="-121.757094"/>
      <trkpt lat="36.583731" lon="-121.757111"/>
      <trkpt lat="36.583900" lon="-121.757114"/>
      <trkpt lat="36.584040" lon="-121.757106"/>
      <trkpt lat="36.584225" lon="-121.757077"/>
      <trkpt lat="36.584687" lon="-121.756970"/>
      <trkpt lat="36.584737" lon="-121.756949"/>
      <trkpt lat="36.584826" lon="-121.756883"/>
      <trkpt lat="36.584897" lon="-121.756786"/>
      <trkpt lat="36.584926" lon="-121.756729"/>
      <trkpt lat="36.584963" lon="-121.756604"/>
      <trkpt lat="36.584971" lon="-121.756539"/>
      <trkpt lat="36.584964" lon="-121.756408"/>
      <trkpt lat="36.584565" lon="-121.754325"/>
      <trkpt lat="36.584529" lon="-121.754191"/>
      <trkpt lat="36.584475" lon="-121.754069"/>
      <trkpt lat="36.584417" lon="-121.753980"/>
      <trkpt lat="36.584311" lon="-121.753873"/>
      <trkpt lat="36.584231" lon="-121.753827"/>
      <trkpt lat="36.584165" lon="-121.753799"/>
      <trkpt lat="36.584086" lon="-121.753785"/>
      <trkpt lat="36.583031" lon="-121.753679"/>
      <trkpt lat="36.582795" lon="-121.753672"/>
      <trkpt lat="36.582599" lon="-121.753689"/>
      <trkpt lat="36.582443" lon="-121.753713"/>
      <trkpt lat="36.582273" lon="-121.753754"/>
      <trkpt lat="36.580494" lon="-121.754378"/>
      <trkpt lat="36.580388" lon="-121.754393"/>
      <trkpt lat="36.580335" lon="-121.754391"/>
      <trkpt lat="36.580236" lon="-121.754364"/>
      <trkpt lat="36.580187" lon="-121.754341"/>
      <trkpt lat="36.580095" lon="-121.754275"/>
      <trkpt lat="36.580018" lon="-121.754182"/>
      <trkpt lat="36.579943" lon="-121.754019"/>
      <trkpt lat="36.579910" lon="-121.753897"/>
      <trkpt lat="36.579885" lon="-121.753709"/>
      <trkpt lat="36.579882" lon="-121.753572"/>
      <trkpt lat="36.579892" lon="-121.753436"/>
      <trkpt lat="36.579932" lon="-121.753044"/>
      <trkpt lat="36.580099" lon="-121.751914"/>
      <trkpt lat="36.580223" lon="-121.750882"/>
      <trkpt lat="36.580344" lon="-121.750018"/>
      <trkpt lat="36.580376" lon="-121.749925"/>
      <trkpt lat="36.580401" lon="-121.749885"/>
      <trkpt lat="36.580432" lon="-121.749854"/>
      <trkpt lat="36.580771" lon="-121.749628"/>
      <trkpt lat="36.581101" lon="-121.749427"/>
      <trkpt lat="36.581242" lon="-121.749366"/>
      <trkpt lat="36.581413" lon="-121.749310"/>
      <trkpt lat="36.581580" lon="-121.749272"/>
      <trkpt lat="36.581763" lon="-121.749242"/>
      <trkpt lat="36.581968" lon="-121.749228"/>
      <trkpt lat="36.582650" lon="-121.749223"/>
      <trkpt lat="36.583132" lon="-121.749188"/>
      <trkpt lat="36.583335" lon="-121.749183"/>
      <trkpt lat="36.583979" lon="-121.749221"/>
      <trkpt lat="36.584086" lon="-121.749212"/>
      <trkpt lat="36.584307" lon="-121.749154"/>
      <trkpt lat="36.584540" lon="-121.749070"/>
      <trkpt lat="36.584678" lon="-121.749009"/>
      <trkpt lat="36.584739" lon="-121.748992"/>
      <trkpt lat="36.584789" lon="-121.748991"/>
      <trkpt lat="36.584838" lon="-121.749003"/>
      <trkpt lat="36.584884" lon="-121.749032"/>
      <trkpt lat="36.584918" lon="-121.749082"/>
      <trkpt lat="36.584935" lon="-121.749145"/>
      <trkpt lat="36.584949" lon="-121.749328"/>
      <trkpt lat="36.584960" lon="-121.749390"/>
      <trkpt lat="36.584981" lon="-121.749446"/>
      <trkpt lat="36.585014" lon="-121.749498"/>
      <trkpt lat="36.585057" lon="-121.749538"/>
      <trkpt lat="36.585105" lon="-121.749564"/>
      <trkpt lat="36.585237" lon="-121.749599"/>
      <trkpt lat="36.585416" lon="-121.749629"/>
      <trkpt lat="36.585566" lon="-121.749642"/>
      <trkpt lat="36.585725" lon="-121.749638"/>
      <trkpt lat="36.585989" lon="-121.749597"/>
      <trkpt lat="36.586118" lon="-121.749601"/>
      <trkpt lat="36.586383" lon="-121.749651"/>
      <trkpt lat="36.586524" lon="-121.749700"/>
      <trkpt lat="36.586618" lon="-121.749755"/>
      <trkpt lat="36.586698" lon="-121.749821"/>
      <trkpt lat="36.586778" lon="-121.749910"/>
      <trkpt lat="36.586842" lon="-121.749995"/>
      <trkpt lat="36.586896" lon="-121.750088"/>
      <trkpt lat="36.586928" lon="-121.750160"/>
      <trkpt lat="36.586968" lon="-121.750340"/>
      <trkpt lat="36.586973" lon="-121.750418"/>
      <trkpt lat="36.586962" lon="-121.750517"/>
      <trkpt lat="36.586849" lon="-121.751036"/>
      <trkpt lat="36.586769" lon="-121.751364"/>
  </trkseg></trk>
  
</gpx>
