<?xml version="1.0" encoding="UTF-8"?>
<gpx version="1.1" creator="SimRacing overlays (OpenStreetMap, ODbL)" xmlns="http://www.topografix.com/GPX/1/1">
  <metadata><name>Las Vegas Motor Speedway (Oval)</name>
    <desc>Driving direction. Source: OpenStreetMap contributors (ODbL).</desc></metadata>
  <trk><name>lasvegas_oval ONTRACK</name><trkseg>
      <trkpt lat="36.274360" lon="-115.012818"/>
      <trkpt lat="36.274322" lon="-115.012873"/>
      <trkpt lat="36.274189" lon="-115.013041"/>
      <trkpt lat="36.273907" lon="-115.013354"/>
      <trkpt lat="36.273603" lon="-115.013635"/>
      <trkpt lat="36.273434" lon="-115.013768"/>
      <trkpt lat="36.273112" lon="-115.013992"/>
      <trkpt lat="36.271507" lon="-115.014798"/>
      <trkpt lat="36.271375" lon="-115.014847"/>
      <trkpt lat="36.271239" lon="-115.014886"/>
      <trkpt lat="36.271102" lon="-115.014913"/>
      <trkpt lat="36.270964" lon="-115.014930"/>
      <trkpt lat="36.270826" lon="-115.014935"/>
      <trkpt lat="36.270687" lon="-115.014929"/>
      <trkpt lat="36.270549" lon="-115.014912"/>
      <trkpt lat="36.270412" lon="-115.014883"/>
      <trkpt lat="36.270277" lon="-115.014844"/>
      <trkpt lat="36.270144" lon="-115.014794"/>
      <trkpt lat="36.270014" lon="-115.014733"/>
      <trkpt lat="36.269888" lon="-115.014662"/>
      <trkpt lat="36.269766" lon="-115.014580"/>
      <trkpt lat="36.269535" lon="-115.014389"/>
      <trkpt lat="36.269330" lon="-115.014164"/>
      <trkpt lat="36.269149" lon="-115.013909"/>
      <trkpt lat="36.268996" lon="-115.013627"/>
      <trkpt lat="36.268874" lon="-115.013323"/>
      <trkpt lat="36.268825" lon="-115.013164"/>
      <trkpt lat="36.268784" lon="-115.013002"/>
      <trkpt lat="36.268728" lon="-115.012669"/>
      <trkpt lat="36.268708" lon="-115.012330"/>
      <trkpt lat="36.268711" lon="-115.012160"/>
      <trkpt lat="36.268723" lon="-115.011991"/>
      <trkpt lat="36.268772" lon="-115.011657"/>
      <trkpt lat="36.268857" lon="-115.011333"/>
      <trkpt lat="36.268974" lon="-115.011026"/>
      <trkpt lat="36.269122" lon="-115.010740"/>
      <trkpt lat="36.269207" lon="-115.010607"/>
      <trkpt lat="36.271746" lon="-115.006796"/>
      <trkpt lat="36.271932" lon="-115.006549"/>
      <trkpt lat="36.272165" lon="-115.006290"/>
      <trkpt lat="36.272305" lon="-115.006156"/>
      <trkpt lat="36.272450" lon="-115.006031"/>
      <trkpt lat="36.272568" lon="-115.005943"/>
      <trkpt lat="36.272817" lon="-115.005796"/>
      <trkpt lat="36.273079" lon="-115.005691"/>
      <trkpt lat="36.273350" lon="-115.005629"/>
      <trkpt lat="36.273625" lon="-115.005611"/>
      <trkpt lat="36.273899" lon="-115.005638"/>
      <trkpt lat="36.274168" lon="-115.005709"/>
      <trkpt lat="36.274428" lon="-115.005822"/>
      <trkpt lat="36.274553" lon="-115.005895"/>
      <trkpt lat="36.274789" lon="-115.006068"/>
      <trkpt lat="36.275003" lon="-115.006277"/>
      <trkpt lat="36.275195" lon="-115.006519"/>
      <trkpt lat="36.275281" lon="-115.006651"/>
      <trkpt lat="36.275431" lon="-115.006933"/>
      <trkpt lat="36.275551" lon="-115.007238"/>
      <trkpt lat="36.275637" lon="-115.007559"/>
      <trkpt lat="36.275668" lon="-115.007724"/>
      <trkpt lat="36.275703" lon="-115.008060"/>
      <trkpt lat="36.275703" lon="-115.008399"/>
      <trkpt lat="36.275668" lon="-115.008735"/>
      <trkpt lat="36.275350" lon="-115.010570"/>
      <trkpt lat="36.275233" lon="-115.011034"/>
      <trkpt lat="36.275162" lon="-115.011261"/>
      <trkpt lat="36.275083" lon="-115.011483"/>
      <trkpt lat="36.274996" lon="-115.011701"/>
      <trkpt lat="36.274798" lon="-115.012121"/>
      <trkpt lat="36.274687" lon="-115.012322"/>
      <trkpt lat="36.274570" lon="-115.012516"/>
      <trkpt lat="36.274360" lon="-115.012818"/>
  </trkseg></trk>
  <trk><name>lasvegas_oval ONPITROAD</name><trkseg>
      <trkpt lat="36.275668" lon="-115.007724"/>
      <trkpt lat="36.275648" lon="-115.007970"/>
      <trkpt lat="36.275619" lon="-115.008214"/>
      <trkpt lat="36.275581" lon="-115.008457"/>
      <trkpt lat="36.275534" lon="-115.008697"/>
      <trkpt lat="36.275476" lon="-115.008943"/>
      <trkpt lat="36.275332" lon="-115.009435"/>
      <trkpt lat="36.275247" lon="-115.009681"/>
      <trkpt lat="36.275058" lon="-115.010161"/>
      <trkpt lat="36.274958" lon="-115.010385"/>
      <trkpt lat="36.274739" lon="-115.010820"/>
      <trkpt lat="36.274496" lon="-115.011234"/>
      <trkpt lat="36.273402" lon="-115.012876"/>
      <trkpt lat="36.273173" lon="-115.013176"/>
      <trkpt lat="36.273012" lon="-115.013367"/>
      <trkpt lat="36.272844" lon="-115.013549"/>
      <trkpt lat="36.272671" lon="-115.013723"/>
      <trkpt lat="36.272053" lon="-115.014271"/>
      <trkpt lat="36.271913" lon="-115.014380"/>
      <trkpt lat="36.271769" lon="-115.014479"/>
      <trkpt lat="36.271621" lon="-115.014568"/>
      <trkpt lat="36.271469" lon="-115.014646"/>
      <trkpt lat="36.271175" lon="-115.014763"/>
      <trkpt lat="36.270873" lon="-115.014842"/>
      <trkpt lat="36.270720" lon="-115.014866"/>
      <trkpt lat="36.270412" lon="-115.014883"/>
  </trkseg></trk>
</gpx>
