<?xml version="1.0" encoding="UTF-8"?>
<gpx version="1.1" creator="SimRacing overlays (OpenStreetMap, ODbL)" xmlns="http://www.topografix.com/GPX/1/1">
  <metadata><name>Autodromo Hermanos Rodriguez (Grand Prix)</name>
    <desc>Driving direction. Source: OpenStreetMap contributors (ODbL).</desc></metadata>
  <trk><name>mexico_gp ONTRACK</name><trkseg>
      <trkpt lat="19.406072" lon="-99.093301"/>
      <trkpt lat="19.405968" lon="-99.092517"/>
      <trkpt lat="19.405867" lon="-99.091633"/>
      <trkpt lat="19.405705" lon="-99.090361"/>
      <trkpt lat="19.405501" lon="-99.088365"/>
      <trkpt lat="19.405058" lon="-99.084971"/>
      <trkpt lat="19.404886" lon="-99.083905"/>
      <trkpt lat="19.404811" lon="-99.083538"/>
      <trkpt lat="19.404786" lon="-99.083491"/>
      <trkpt lat="19.404744" lon="-99.083451"/>
      <trkpt lat="19.404670" lon="-99.083424"/>
      <trkpt lat="19.404074" lon="-99.083517"/>
      <trkpt lat="19.404029" lon="-99.083521"/>
      <trkpt lat="19.403995" lon="-99.083515"/>
      <trkpt lat="19.403966" lon="-99.083500"/>
      <trkpt lat="19.403939" lon="-99.083471"/>
      <trkpt lat="19.403786" lon="-99.083158"/>
      <trkpt lat="19.403742" lon="-99.083092"/>
      <trkpt lat="19.403714" lon="-99.083077"/>
      <trkpt lat="19.403688" lon="-99.083073"/>
      <trkpt lat="19.403584" lon="-99.083078"/>
      <trkpt lat="19.403209" lon="-99.083152"/>
      <trkpt lat="19.402936" lon="-99.083232"/>
      <trkpt lat="19.402652" lon="-99.083347"/>
      <trkpt lat="19.402471" lon="-99.083432"/>
      <trkpt lat="19.402356" lon="-99.083495"/>
      <trkpt lat="19.402223" lon="-99.083573"/>
      <trkpt lat="19.399641" lon="-99.085214"/>
      <trkpt lat="19.398891" lon="-99.085714"/>
      <trkpt lat="19.398306" lon="-99.086143"/>
      <trkpt lat="19.398268" lon="-99.086162"/>
      <trkpt lat="19.398225" lon="-99.086172"/>
      <trkpt lat="19.398188" lon="-99.086170"/>
      <trkpt lat="19.398146" lon="-99.086157"/>
      <trkpt lat="19.398112" lon="-99.086132"/>
      <trkpt lat="19.398070" lon="-99.086076"/>
      <trkpt lat="19.397869" lon="-99.085707"/>
      <trkpt lat="19.397831" lon="-99.085674"/>
      <trkpt lat="19.397788" lon="-99.085656"/>
      <trkpt lat="19.397752" lon="-99.085653"/>
      <trkpt lat="19.397685" lon="-99.085674"/>
      <trkpt lat="19.397652" lon="-99.085702"/>
      <trkpt lat="19.397083" lon="-99.086527"/>
      <trkpt lat="19.397048" lon="-99.086597"/>
      <trkpt lat="19.397041" lon="-99.086642"/>
      <trkpt lat="19.397045" lon="-99.086673"/>
      <trkpt lat="19.397122" lon="-99.086814"/>
      <trkpt lat="19.397155" lon="-99.086855"/>
      <trkpt lat="19.397185" lon="-99.086872"/>
      <trkpt lat="19.397218" lon="-99.086880"/>
      <trkpt lat="19.397306" lon="-99.086875"/>
      <trkpt lat="19.397856" lon="-99.086805"/>
      <trkpt lat="19.399860" lon="-99.086523"/>
      <trkpt lat="19.399974" lon="-99.086517"/>
      <trkpt lat="19.400068" lon="-99.086551"/>
      <trkpt lat="19.400119" lon="-99.086592"/>
      <trkpt lat="19.400168" lon="-99.086656"/>
      <trkpt lat="19.400455" lon="-99.087156"/>
      <trkpt lat="19.400505" lon="-99.087223"/>
      <trkpt lat="19.400559" lon="-99.087282"/>
      <trkpt lat="19.400615" lon="-99.087330"/>
      <trkpt lat="19.400738" lon="-99.087409"/>
      <trkpt lat="19.400836" lon="-99.087453"/>
      <trkpt lat="19.400951" lon="-99.087493"/>
      <trkpt lat="19.401073" lon="-99.087551"/>
      <trkpt lat="19.401132" lon="-99.087589"/>
      <trkpt lat="19.401270" lon="-99.087725"/>
      <trkpt lat="19.401318" lon="-99.087784"/>
      <trkpt lat="19.401364" lon="-99.087859"/>
      <trkpt lat="19.401429" lon="-99.088029"/>
      <trkpt lat="19.401484" lon="-99.088374"/>
      <trkpt lat="19.401595" lon="-99.089271"/>
      <trkpt lat="19.401627" lon="-99.089410"/>
      <trkpt lat="19.401657" lon="-99.089467"/>
      <trkpt lat="19.401692" lon="-99.089515"/>
      <trkpt lat="19.401744" lon="-99.089562"/>
      <trkpt lat="19.401801" lon="-99.089600"/>
      <trkpt lat="19.401872" lon="-99.089627"/>
      <trkpt lat="19.402217" lon="-99.089721"/>
      <trkpt lat="19.402289" lon="-99.089747"/>
      <trkpt lat="19.402407" lon="-99.089813"/>
      <trkpt lat="19.402511" lon="-99.089914"/>
      <trkpt lat="19.402560" lon="-99.089984"/>
      <trkpt lat="19.402814" lon="-99.090494"/>
      <trkpt lat="19.403069" lon="-99.090977"/>
      <trkpt lat="19.403136" lon="-99.091116"/>
      <trkpt lat="19.403183" lon="-99.091237"/>
      <trkpt lat="19.403227" lon="-99.091366"/>
      <trkpt lat="19.403271" lon="-99.091546"/>
      <trkpt lat="19.403303" lon="-99.091736"/>
      <trkpt lat="19.403736" lon="-99.094922"/>
      <trkpt lat="19.403768" lon="-99.094966"/>
      <trkpt lat="19.403809" lon="-99.095001"/>
      <trkpt lat="19.403859" lon="-99.095022"/>
      <trkpt lat="19.404749" lon="-99.095075"/>
      <trkpt lat="19.404881" lon="-99.095092"/>
      <trkpt lat="19.405282" lon="-99.095178"/>
      <trkpt lat="19.405318" lon="-99.095199"/>
      <trkpt lat="19.405348" lon="-99.095233"/>
      <trkpt lat="19.405361" lon="-99.095272"/>
      <trkpt lat="19.405365" lon="-99.095327"/>
      <trkpt lat="19.405356" lon="-99.095379"/>
      <trkpt lat="19.405328" lon="-99.095420"/>
      <trkpt lat="19.405285" lon="-99.095463"/>
      <trkpt lat="19.405125" lon="-99.095576"/>
      <trkpt lat="19.405074" lon="-99.095633"/>
      <trkpt lat="19.405054" lon="-99.095680"/>
      <trkpt lat="19.405044" lon="-99.095735"/>
      <trkpt lat="19.405046" lon="-99.095792"/>
      <trkpt lat="19.405057" lon="-99.095839"/>
      <trkpt lat="19.405137" lon="-99.095994"/>
      <trkpt lat="19.405159" lon="-99.096049"/>
      <trkpt lat="19.405172" lon="-99.096110"/>
      <trkpt lat="19.405227" lon="-99.096663"/>
      <trkpt lat="19.405239" lon="-99.096729"/>
      <trkpt lat="19.405257" lon="-99.096783"/>
      <trkpt lat="19.405278" lon="-99.096814"/>
      <trkpt lat="19.405312" lon="-99.096843"/>
      <trkpt lat="19.405394" lon="-99.096870"/>
      <trkpt lat="19.405566" lon="-99.096838"/>
      <trkpt lat="19.405767" lon="-99.096749"/>
      <trkpt lat="19.405945" lon="-99.096635"/>
      <trkpt lat="19.406033" lon="-99.096565"/>
      <trkpt lat="19.406163" lon="-99.096436"/>
      <trkpt lat="19.406221" lon="-99.096371"/>
      <trkpt lat="19.406276" lon="-99.096287"/>
      <trkpt lat="19.406356" lon="-99.096100"/>
      <trkpt lat="19.406387" lon="-99.095985"/>
      <trkpt lat="19.406398" lon="-99.095821"/>
      <trkpt lat="19.406376" lon="-99.095541"/>
      <trkpt lat="19.406287" lon="-99.094920"/>
      <trkpt lat="19.406072" lon="-99.093301"/>
  </trkseg></trk>
  <trk><name>mexico_gp ONPITROAD</name><trkseg>
      <trkpt lat="19.405627" lon="-99.096814"/>
      <trkpt lat="19.405868" lon="-99.096614"/>
      <trkpt lat="19.406106" lon="-99.096355"/>
      <trkpt lat="19.406159" lon="-99.096279"/>
      <trkpt lat="19.406211" lon="-99.096183"/>
      <trkpt lat="19.406249" lon="-99.096086"/>
      <trkpt lat="19.406267" lon="-99.095998"/>
      <trkpt lat="19.406271" lon="-99.095840"/>
      <trkpt lat="19.406247" lon="-99.095608"/>
      <trkpt lat="19.405746" lon="-99.091819"/>
      <trkpt lat="19.405701" lon="-99.091354"/>
      <trkpt lat="19.405691" lon="-99.091022"/>
      <trkpt lat="19.405671" lon="-99.090690"/>
      <trkpt lat="19.405585" lon="-99.089723"/>
      <trkpt lat="19.405621" lon="-99.089558"/>
  </trkseg></trk>
</gpx>
