<?xml version="1.0" encoding="UTF-8"?>
<gpx version="1.1" creator="SimRacing overlays (OpenStreetMap, ODbL)" xmlns="http://www.topografix.com/GPX/1/1">
  <metadata><name>Michigan International Speedway (Oval)</name>
    <desc>Driving direction. Source: OpenStreetMap contributors (ODbL).</desc></metadata>
  <trk><name>michigan ONTRACK</name><trkseg>
      <trkpt lat="42.067713" lon="-84.244731"/>
      <trkpt lat="42.067637" lon="-84.244758"/>
      <trkpt lat="42.067282" lon="-84.244863"/>
      <trkpt lat="42.066924" lon="-84.244954"/>
      <trkpt lat="42.066564" lon="-84.245029"/>
      <trkpt lat="42.066202" lon="-84.245087"/>
      <trkpt lat="42.065657" lon="-84.245142"/>
      <trkpt lat="42.065475" lon="-84.245152"/>
      <trkpt lat="42.064929" lon="-84.245157"/>
      <trkpt lat="42.064564" lon="-84.245139"/>
      <trkpt lat="42.063969" lon="-84.245075"/>
      <trkpt lat="42.063298" lon="-84.244942"/>
      <trkpt lat="42.062762" lon="-84.244795"/>
      <trkpt lat="42.062515" lon="-84.244659"/>
      <trkpt lat="42.062330" lon="-84.244538"/>
      <trkpt lat="42.062154" lon="-84.244395"/>
      <trkpt lat="42.061988" lon="-84.244233"/>
      <trkpt lat="42.061833" lon="-84.244052"/>
      <trkpt lat="42.061690" lon="-84.243853"/>
      <trkpt lat="42.061561" lon="-84.243638"/>
      <trkpt lat="42.061446" lon="-84.243409"/>
      <trkpt lat="42.061346" lon="-84.243167"/>
      <trkpt lat="42.061262" lon="-84.242915"/>
      <trkpt lat="42.061195" lon="-84.242653"/>
      <trkpt lat="42.061145" lon="-84.242385"/>
      <trkpt lat="42.061113" lon="-84.242112"/>
      <trkpt lat="42.061098" lon="-84.241836"/>
      <trkpt lat="42.061101" lon="-84.241560"/>
      <trkpt lat="42.061123" lon="-84.241285"/>
      <trkpt lat="42.061161" lon="-84.241013"/>
      <trkpt lat="42.061205" lon="-84.240800"/>
      <trkpt lat="42.061275" lon="-84.240539"/>
      <trkpt lat="42.061343" lon="-84.240338"/>
      <trkpt lat="42.061442" lon="-84.240096"/>
      <trkpt lat="42.061663" lon="-84.239702"/>
      <trkpt lat="42.061806" lon="-84.239513"/>
      <trkpt lat="42.061965" lon="-84.239325"/>
      <trkpt lat="42.062117" lon="-84.239171"/>
      <trkpt lat="42.062270" lon="-84.239034"/>
      <trkpt lat="42.062766" lon="-84.238709"/>
      <trkpt lat="42.063083" lon="-84.238542"/>
      <trkpt lat="42.063592" lon="-84.238335"/>
      <trkpt lat="42.064714" lon="-84.237956"/>
      <trkpt lat="42.068657" lon="-84.236664"/>
      <trkpt lat="42.069204" lon="-84.236501"/>
      <trkpt lat="42.069505" lon="-84.236422"/>
      <trkpt lat="42.069947" lon="-84.236355"/>
      <trkpt lat="42.070349" lon="-84.236356"/>
      <trkpt lat="42.070513" lon="-84.236368"/>
      <trkpt lat="42.070717" lon="-84.236405"/>
      <trkpt lat="42.070878" lon="-84.236451"/>
      <trkpt lat="42.071075" lon="-84.236530"/>
      <trkpt lat="42.071228" lon="-84.236610"/>
      <trkpt lat="42.071414" lon="-84.236730"/>
      <trkpt lat="42.071556" lon="-84.236841"/>
      <trkpt lat="42.071725" lon="-84.236998"/>
      <trkpt lat="42.071853" lon="-84.237138"/>
      <trkpt lat="42.072002" lon="-84.237329"/>
      <trkpt lat="42.072112" lon="-84.237494"/>
      <trkpt lat="42.072237" lon="-84.237714"/>
      <trkpt lat="42.072327" lon="-84.237900"/>
      <trkpt lat="42.072424" lon="-84.238143"/>
      <trkpt lat="42.072506" lon="-84.238397"/>
      <trkpt lat="42.072571" lon="-84.238660"/>
      <trkpt lat="42.072611" lon="-84.238875"/>
      <trkpt lat="42.072645" lon="-84.239148"/>
      <trkpt lat="42.072651" lon="-84.239423"/>
      <trkpt lat="42.072641" lon="-84.239702"/>
      <trkpt lat="42.072619" lon="-84.239941"/>
      <trkpt lat="42.072581" lon="-84.240198"/>
      <trkpt lat="42.072524" lon="-84.240464"/>
      <trkpt lat="42.072466" lon="-84.240665"/>
      <trkpt lat="42.072292" lon="-84.241127"/>
      <trkpt lat="42.072184" lon="-84.241354"/>
      <trkpt lat="42.071958" lon="-84.241730"/>
      <trkpt lat="42.071828" lon="-84.241906"/>
      <trkpt lat="42.071553" lon="-84.242228"/>
      <trkpt lat="42.071111" lon="-84.242660"/>
      <trkpt lat="42.070807" lon="-84.242931"/>
      <trkpt lat="42.070339" lon="-84.243311"/>
      <trkpt lat="42.069856" lon="-84.243657"/>
      <trkpt lat="42.069528" lon="-84.243870"/>
      <trkpt lat="42.069025" lon="-84.244159"/>
      <trkpt lat="42.068855" lon="-84.244247"/>
      <trkpt lat="42.068339" lon="-84.244489"/>
      <trkpt lat="42.067990" lon="-84.244630"/>
      <trkpt lat="42.067713" lon="-84.244731"/>
  </trkseg></trk>
  <trk><name>michigan ONPITROAD</name><trkseg>
      <trkpt lat="42.071111" lon="-84.242660"/>
      <trkpt lat="42.070768" lon="-84.242811"/>
      <trkpt lat="42.070549" lon="-84.242901"/>
      <trkpt lat="42.067463" lon="-84.243921"/>
      <trkpt lat="42.063969" lon="-84.245075"/>
  </trkseg></trk>
</gpx>
