<?xml version="1.0" encoding="UTF-8"?>
<gpx version="1.1" creator="SimRacing overlays (OpenStreetMap, ODbL)" xmlns="http://www.topografix.com/GPX/1/1">
  <metadata><name>Mid-Ohio Sports Car Course</name>
    <desc>Driving direction. Source: OpenStreetMap contributors (ODbL).</desc></metadata>
  <trk><name>midohio_full ONTRACK</name><trkseg>
      <trkpt lat="40.689516" lon="-82.636160"/>
      <trkpt lat="40.689584" lon="-82.638031"/>
      <trkpt lat="40.689579" lon="-82.638184"/>
      <trkpt lat="40.689559" lon="-82.638345"/>
      <trkpt lat="40.689525" lon="-82.638490"/>
      <trkpt lat="40.689486" lon="-82.638607"/>
      <trkpt lat="40.689360" lon="-82.638845"/>
      <trkpt lat="40.689195" lon="-82.639042"/>
      <trkpt lat="40.689110" lon="-82.639115"/>
      <trkpt lat="40.689013" lon="-82.639168"/>
      <trkpt lat="40.688918" lon="-82.639209"/>
      <trkpt lat="40.688841" lon="-82.639228"/>
      <trkpt lat="40.688766" lon="-82.639240"/>
      <trkpt lat="40.688591" lon="-82.639246"/>
      <trkpt lat="40.687608" lon="-82.639187"/>
      <trkpt lat="40.685944" lon="-82.639141"/>
      <trkpt lat="40.684288" lon="-82.638997"/>
      <trkpt lat="40.684209" lon="-82.639022"/>
      <trkpt lat="40.684137" lon="-82.639065"/>
      <trkpt lat="40.684061" lon="-82.639129"/>
      <trkpt lat="40.683995" lon="-82.639206"/>
      <trkpt lat="40.683939" lon="-82.639310"/>
      <trkpt lat="40.683898" lon="-82.639420"/>
      <trkpt lat="40.683882" lon="-82.639517"/>
      <trkpt lat="40.683881" lon="-82.639613"/>
      <trkpt lat="40.683904" lon="-82.639737"/>
      <trkpt lat="40.683938" lon="-82.639855"/>
      <trkpt lat="40.683994" lon="-82.639949"/>
      <trkpt lat="40.684056" lon="-82.640021"/>
      <trkpt lat="40.684128" lon="-82.640081"/>
      <trkpt lat="40.684207" lon="-82.640115"/>
      <trkpt lat="40.684369" lon="-82.640159"/>
      <trkpt lat="40.685830" lon="-82.640214"/>
      <trkpt lat="40.687486" lon="-82.640311"/>
      <trkpt lat="40.688161" lon="-82.640311"/>
      <trkpt lat="40.688431" lon="-82.640256"/>
      <trkpt lat="40.688933" lon="-82.640083"/>
      <trkpt lat="40.689804" lon="-82.639656"/>
      <trkpt lat="40.692229" lon="-82.638381"/>
      <trkpt lat="40.692284" lon="-82.638328"/>
      <trkpt lat="40.692357" lon="-82.638230"/>
      <trkpt lat="40.692391" lon="-82.638151"/>
      <trkpt lat="40.692416" lon="-82.638062"/>
      <trkpt lat="40.692427" lon="-82.637970"/>
      <trkpt lat="40.692427" lon="-82.637873"/>
      <trkpt lat="40.692420" lon="-82.637791"/>
      <trkpt lat="40.692399" lon="-82.637709"/>
      <trkpt lat="40.692096" lon="-82.637002"/>
      <trkpt lat="40.692064" lon="-82.636853"/>
      <trkpt lat="40.692060" lon="-82.636707"/>
      <trkpt lat="40.692079" lon="-82.636604"/>
      <trkpt lat="40.692109" lon="-82.636520"/>
      <trkpt lat="40.692167" lon="-82.636430"/>
      <trkpt lat="40.692231" lon="-82.636359"/>
      <trkpt lat="40.692326" lon="-82.636289"/>
      <trkpt lat="40.692424" lon="-82.636263"/>
      <trkpt lat="40.693390" lon="-82.636308"/>
      <trkpt lat="40.693465" lon="-82.636296"/>
      <trkpt lat="40.693516" lon="-82.636277"/>
      <trkpt lat="40.693588" lon="-82.636211"/>
      <trkpt lat="40.693624" lon="-82.636161"/>
      <trkpt lat="40.693652" lon="-82.636106"/>
      <trkpt lat="40.693677" lon="-82.636029"/>
      <trkpt lat="40.693691" lon="-82.635887"/>
      <trkpt lat="40.693686" lon="-82.635525"/>
      <trkpt lat="40.693657" lon="-82.635028"/>
      <trkpt lat="40.693664" lon="-82.634950"/>
      <trkpt lat="40.693686" lon="-82.634870"/>
      <trkpt lat="40.693715" lon="-82.634809"/>
      <trkpt lat="40.694061" lon="-82.634293"/>
      <trkpt lat="40.694359" lon="-82.634011"/>
      <trkpt lat="40.694474" lon="-82.633877"/>
      <trkpt lat="40.694506" lon="-82.633801"/>
      <trkpt lat="40.694529" lon="-82.633707"/>
      <trkpt lat="40.694542" lon="-82.633611"/>
      <trkpt lat="40.694548" lon="-82.633486"/>
      <trkpt lat="40.694576" lon="-82.632694"/>
      <trkpt lat="40.694574" lon="-82.632594"/>
      <trkpt lat="40.694560" lon="-82.632494"/>
      <trkpt lat="40.694532" lon="-82.632404"/>
      <trkpt lat="40.694494" lon="-82.632324"/>
      <trkpt lat="40.694454" lon="-82.632265"/>
      <trkpt lat="40.694410" lon="-82.632221"/>
      <trkpt lat="40.694309" lon="-82.632150"/>
      <trkpt lat="40.694210" lon="-82.632103"/>
      <trkpt lat="40.694076" lon="-82.632066"/>
      <trkpt lat="40.693939" lon="-82.632047"/>
      <trkpt lat="40.693289" lon="-82.632012"/>
      <trkpt lat="40.692863" lon="-82.631978"/>
      <trkpt lat="40.692650" lon="-82.631972"/>
      <trkpt lat="40.692449" lon="-82.631988"/>
      <trkpt lat="40.692243" lon="-82.632017"/>
      <trkpt lat="40.692058" lon="-82.632070"/>
      <trkpt lat="40.691882" lon="-82.632142"/>
      <trkpt lat="40.691658" lon="-82.632286"/>
      <trkpt lat="40.691433" lon="-82.632466"/>
      <trkpt lat="40.690947" lon="-82.632930"/>
      <trkpt lat="40.690801" lon="-82.633001"/>
      <trkpt lat="40.690724" lon="-82.633014"/>
      <trkpt lat="40.690564" lon="-82.632998"/>
      <trkpt lat="40.690452" lon="-82.632942"/>
      <trkpt lat="40.690355" lon="-82.632874"/>
      <trkpt lat="40.689935" lon="-82.632485"/>
      <trkpt lat="40.689805" lon="-82.632389"/>
      <trkpt lat="40.689742" lon="-82.632355"/>
      <trkpt lat="40.689499" lon="-82.632252"/>
      <trkpt lat="40.689397" lon="-82.632221"/>
      <trkpt lat="40.689209" lon="-82.632215"/>
      <trkpt lat="40.689126" lon="-82.632233"/>
      <trkpt lat="40.689033" lon="-82.632273"/>
      <trkpt lat="40.688967" lon="-82.632321"/>
      <trkpt lat="40.688905" lon="-82.632384"/>
      <trkpt lat="40.688839" lon="-82.632472"/>
      <trkpt lat="40.688791" lon="-82.632573"/>
      <trkpt lat="40.688763" lon="-82.632678"/>
      <trkpt lat="40.688751" lon="-82.632789"/>
      <trkpt lat="40.688763" lon="-82.632907"/>
      <trkpt lat="40.688794" lon="-82.633010"/>
      <trkpt lat="40.688825" lon="-82.633094"/>
      <trkpt lat="40.688860" lon="-82.633156"/>
      <trkpt lat="40.688938" lon="-82.633256"/>
      <trkpt lat="40.689034" lon="-82.633336"/>
      <trkpt lat="40.689202" lon="-82.633455"/>
      <trkpt lat="40.689345" lon="-82.633581"/>
      <trkpt lat="40.689409" lon="-82.633694"/>
      <trkpt lat="40.689430" lon="-82.633803"/>
      <trkpt lat="40.689516" lon="-82.636160"/>
  </trkseg></trk>
  <trk><name>midohio_full ONPITROAD</name><trkseg>
      <trkpt lat="40.688751" lon="-82.632789"/>
      <trkpt lat="40.688735" lon="-82.633076"/>
      <trkpt lat="40.688758" lon="-82.633286"/>
      <trkpt lat="40.688792" lon="-82.633418"/>
      <trkpt lat="40.688835" lon="-82.633496"/>
      <trkpt lat="40.688901" lon="-82.633559"/>
      <trkpt lat="40.689117" lon="-82.633679"/>
      <trkpt lat="40.689215" lon="-82.633763"/>
      <trkpt lat="40.689297" lon="-82.633981"/>
      <trkpt lat="40.689319" lon="-82.634389"/>
      <trkpt lat="40.689369" lon="-82.635734"/>
      <trkpt lat="40.689470" lon="-82.637548"/>
      <trkpt lat="40.689495" lon="-82.637782"/>
      <trkpt lat="40.689499" lon="-82.638102"/>
      <trkpt lat="40.689485" lon="-82.638334"/>
      <trkpt lat="40.689450" lon="-82.638477"/>
      <trkpt lat="40.689402" lon="-82.638600"/>
      <trkpt lat="40.689340" lon="-82.638707"/>
      <trkpt lat="40.689275" lon="-82.638800"/>
      <trkpt lat="40.689166" lon="-82.638919"/>
      <trkpt lat="40.689049" lon="-82.639022"/>
      <trkpt lat="40.688922" lon="-82.639105"/>
      <trkpt lat="40.688794" lon="-82.639168"/>
      <trkpt lat="40.688591" lon="-82.639246"/>
  </trkseg></trk>
</gpx>
