<?xml version="1.0" encoding="UTF-8"?>
<gpx version="1.1" creator="SimRacing overlays (OpenStreetMap, ODbL)" xmlns="http://www.topografix.com/GPX/1/1">
  <metadata><name>Circuit Gilles Villeneuve (Montreal)</name>
    <desc>Driving direction. Source: OpenStreetMap contributors (ODbL).</desc></metadata>
  <trk><name>montreal ONTRACK</name><trkseg>
      <trkpt lat="45.500443" lon="-73.522818"/>
      <trkpt lat="45.500082" lon="-73.522709"/>
      <trkpt lat="45.499783" lon="-73.522625"/>
      <trkpt lat="45.499500" lon="-73.522582"/>
      <trkpt lat="45.499260" lon="-73.522572"/>
      <trkpt lat="45.498987" lon="-73.522582"/>
      <trkpt lat="45.497979" lon="-73.522761"/>
      <trkpt lat="45.497911" lon="-73.522766"/>
      <trkpt lat="45.497856" lon="-73.522756"/>
      <trkpt lat="45.497805" lon="-73.522728"/>
      <trkpt lat="45.497758" lon="-73.522676"/>
      <trkpt lat="45.497719" lon="-73.522599"/>
      <trkpt lat="45.497583" lon="-73.522166"/>
      <trkpt lat="45.497558" lon="-73.522112"/>
      <trkpt lat="45.497498" lon="-73.522023"/>
      <trkpt lat="45.497460" lon="-73.521990"/>
      <trkpt lat="45.497405" lon="-73.521971"/>
      <trkpt lat="45.497342" lon="-73.521967"/>
      <trkpt lat="45.497287" lon="-73.521983"/>
      <trkpt lat="45.497230" lon="-73.522017"/>
      <trkpt lat="45.497178" lon="-73.522071"/>
      <trkpt lat="45.497110" lon="-73.522190"/>
      <trkpt lat="45.497089" lon="-73.522253"/>
      <trkpt lat="45.497066" lon="-73.522384"/>
      <trkpt lat="45.497074" lon="-73.522619"/>
      <trkpt lat="45.497118" lon="-73.522902"/>
      <trkpt lat="45.497300" lon="-73.523739"/>
      <trkpt lat="45.497355" lon="-73.523931"/>
      <trkpt lat="45.497423" lon="-73.524113"/>
      <trkpt lat="45.497498" lon="-73.524296"/>
      <trkpt lat="45.497600" lon="-73.524503"/>
      <trkpt lat="45.497721" lon="-73.524717"/>
      <trkpt lat="45.498126" lon="-73.525404"/>
      <trkpt lat="45.498505" lon="-73.525986"/>
      <trkpt lat="45.498577" lon="-73.526048"/>
      <trkpt lat="45.498626" lon="-73.526059"/>
      <trkpt lat="45.498737" lon="-73.526032"/>
      <trkpt lat="45.498873" lon="-73.525963"/>
      <trkpt lat="45.498981" lon="-73.525928"/>
      <trkpt lat="45.499081" lon="-73.525927"/>
      <trkpt lat="45.499161" lon="-73.525965"/>
      <trkpt lat="45.499202" lon="-73.526002"/>
      <trkpt lat="45.499664" lon="-73.526537"/>
      <trkpt lat="45.500017" lon="-73.526926"/>
      <trkpt lat="45.500117" lon="-73.527052"/>
      <trkpt lat="45.500214" lon="-73.527234"/>
      <trkpt lat="45.500293" lon="-73.527420"/>
      <trkpt lat="45.500344" lon="-73.527520"/>
      <trkpt lat="45.500467" lon="-73.527710"/>
      <trkpt lat="45.500527" lon="-73.527778"/>
      <trkpt lat="45.500610" lon="-73.527849"/>
      <trkpt lat="45.500782" lon="-73.527968"/>
      <trkpt lat="45.500982" lon="-73.528051"/>
      <trkpt lat="45.501191" lon="-73.528089"/>
      <trkpt lat="45.501444" lon="-73.528096"/>
      <trkpt lat="45.502475" lon="-73.528067"/>
      <trkpt lat="45.502601" lon="-73.528081"/>
      <trkpt lat="45.502680" lon="-73.528129"/>
      <trkpt lat="45.502748" lon="-73.528209"/>
      <trkpt lat="45.502782" lon="-73.528301"/>
      <trkpt lat="45.502794" lon="-73.528364"/>
      <trkpt lat="45.502801" lon="-73.528433"/>
      <trkpt lat="45.502794" lon="-73.528568"/>
      <trkpt lat="45.502753" lon="-73.528745"/>
      <trkpt lat="45.502739" lon="-73.528886"/>
      <trkpt lat="45.502744" lon="-73.528965"/>
      <trkpt lat="45.502761" lon="-73.529056"/>
      <trkpt lat="45.502819" lon="-73.529218"/>
      <trkpt lat="45.502907" lon="-73.529368"/>
      <trkpt lat="45.502987" lon="-73.529467"/>
      <trkpt lat="45.503059" lon="-73.529535"/>
      <trkpt lat="45.503179" lon="-73.529618"/>
      <trkpt lat="45.503285" lon="-73.529669"/>
      <trkpt lat="45.503502" lon="-73.529743"/>
      <trkpt lat="45.503722" lon="-73.529795"/>
      <trkpt lat="45.504133" lon="-73.529852"/>
      <trkpt lat="45.505111" lon="-73.529932"/>
      <trkpt lat="45.505517" lon="-73.529943"/>
      <trkpt lat="45.506267" lon="-73.529887"/>
      <trkpt lat="45.506888" lon="-73.529776"/>
      <trkpt lat="45.507194" lon="-73.529695"/>
      <trkpt lat="45.507495" lon="-73.529587"/>
      <trkpt lat="45.508567" lon="-73.529163"/>
      <trkpt lat="45.508671" lon="-73.529108"/>
      <trkpt lat="45.508696" lon="-73.529072"/>
      <trkpt lat="45.508710" lon="-73.529028"/>
      <trkpt lat="45.508717" lon="-73.528964"/>
      <trkpt lat="45.508720" lon="-73.528719"/>
      <trkpt lat="45.508729" lon="-73.528654"/>
      <trkpt lat="45.508784" lon="-73.528484"/>
      <trkpt lat="45.508815" lon="-73.528416"/>
      <trkpt lat="45.508876" lon="-73.528335"/>
      <trkpt lat="45.508964" lon="-73.528244"/>
      <trkpt lat="45.509062" lon="-73.528168"/>
      <trkpt lat="45.509500" lon="-73.527963"/>
      <trkpt lat="45.509793" lon="-73.527845"/>
      <trkpt lat="45.510211" lon="-73.527695"/>
      <trkpt lat="45.510707" lon="-73.527549"/>
      <trkpt lat="45.511390" lon="-73.527379"/>
      <trkpt lat="45.511850" lon="-73.527306"/>
      <trkpt lat="45.512229" lon="-73.527283"/>
      <trkpt lat="45.512622" lon="-73.527288"/>
      <trkpt lat="45.512917" lon="-73.527342"/>
      <trkpt lat="45.514108" lon="-73.527698"/>
      <trkpt lat="45.514162" lon="-73.527692"/>
      <trkpt lat="45.514204" lon="-73.527673"/>
      <trkpt lat="45.514246" lon="-73.527637"/>
      <trkpt lat="45.514271" lon="-73.527586"/>
      <trkpt lat="45.514287" lon="-73.527526"/>
      <trkpt lat="45.514291" lon="-73.527464"/>
      <trkpt lat="45.514284" lon="-73.527403"/>
      <trkpt lat="45.514271" lon="-73.527362"/>
      <trkpt lat="45.514222" lon="-73.527284"/>
      <trkpt lat="45.514147" lon="-73.527232"/>
      <trkpt lat="45.513879" lon="-73.527152"/>
      <trkpt lat="45.513397" lon="-73.527104"/>
      <trkpt lat="45.513206" lon="-73.527031"/>
      <trkpt lat="45.513016" lon="-73.526918"/>
      <trkpt lat="45.512559" lon="-73.526599"/>
      <trkpt lat="45.512328" lon="-73.526452"/>
      <trkpt lat="45.510894" lon="-73.525663"/>
      <trkpt lat="45.510197" lon="-73.525299"/>
      <trkpt lat="45.510100" lon="-73.525257"/>
      <trkpt lat="45.508832" lon="-73.524892"/>
      <trkpt lat="45.504562" lon="-73.523603"/>
      <trkpt lat="45.504096" lon="-73.523468"/>
      <trkpt lat="45.504026" lon="-73.523460"/>
      <trkpt lat="45.503986" lon="-73.523466"/>
      <trkpt lat="45.503932" lon="-73.523508"/>
      <trkpt lat="45.503912" lon="-73.523541"/>
      <trkpt lat="45.503869" lon="-73.523675"/>
      <trkpt lat="45.503837" lon="-73.523728"/>
      <trkpt lat="45.503803" lon="-73.523766"/>
      <trkpt lat="45.503767" lon="-73.523791"/>
      <trkpt lat="45.503685" lon="-73.523792"/>
      <trkpt lat="45.500443" lon="-73.522818"/>
  </trkseg></trk>
  <trk><name>montreal ONPITROAD</name><trkseg>
      <trkpt lat="45.504096" lon="-73.523468"/>
      <trkpt lat="45.503831" lon="-73.523364"/>
      <trkpt lat="45.503322" lon="-73.523215"/>
      <trkpt lat="45.503173" lon="-73.523212"/>
      <trkpt lat="45.503065" lon="-73.523236"/>
      <trkpt lat="45.502797" lon="-73.523353"/>
      <trkpt lat="45.502720" lon="-73.523354"/>
      <trkpt lat="45.499872" lon="-73.522502"/>
      <trkpt lat="45.499464" lon="-73.522411"/>
      <trkpt lat="45.499349" lon="-73.522395"/>
      <trkpt lat="45.499026" lon="-73.522395"/>
      <trkpt lat="45.498872" lon="-73.522362"/>
      <trkpt lat="45.497422" lon="-73.521917"/>
      <trkpt lat="45.497356" lon="-73.521912"/>
      <trkpt lat="45.497278" lon="-73.521925"/>
      <trkpt lat="45.497224" lon="-73.521953"/>
      <trkpt lat="45.497145" lon="-73.522037"/>
      <trkpt lat="45.497108" lon="-73.522113"/>
      <trkpt lat="45.497076" lon="-73.522225"/>
      <trkpt lat="45.497064" lon="-73.522365"/>
      <trkpt lat="45.497065" lon="-73.522466"/>
  </trkseg></trk>
</gpx>
