<?xml version="1.0" encoding="UTF-8"?>
<gpx version="1.1" creator="SimRacing overlays (OpenStreetMap, ODbL)" xmlns="http://www.topografix.com/GPX/1/1">
  <metadata><name>Canadian Tire Motorsport Park</name>
    <desc>Driving direction. Source: OpenStreetMap contributors (ODbL).</desc></metadata>
  <trk><name>mosport ONTRACK</name><trkseg>
      <trkpt lat="44.054101" lon="-78.673058"/>
      <trkpt lat="44.054049" lon="-78.672837"/>
      <trkpt lat="44.053995" lon="-78.672654"/>
      <trkpt lat="44.053901" lon="-78.672387"/>
      <trkpt lat="44.053793" lon="-78.672221"/>
      <trkpt lat="44.053723" lon="-78.672136"/>
      <trkpt lat="44.053575" lon="-78.671996"/>
      <trkpt lat="44.053402" lon="-78.671867"/>
      <trkpt lat="44.053226" lon="-78.671804"/>
      <trkpt lat="44.053053" lon="-78.671761"/>
      <trkpt lat="44.052915" lon="-78.671756"/>
      <trkpt lat="44.052774" lon="-78.671780"/>
      <trkpt lat="44.052601" lon="-78.671833"/>
      <trkpt lat="44.052405" lon="-78.671963"/>
      <trkpt lat="44.052060" lon="-78.672217"/>
      <trkpt lat="44.051419" lon="-78.672780"/>
      <trkpt lat="44.050630" lon="-78.673405"/>
      <trkpt lat="44.050236" lon="-78.673699"/>
      <trkpt lat="44.050082" lon="-78.673787"/>
      <trkpt lat="44.049860" lon="-78.673852"/>
      <trkpt lat="44.049655" lon="-78.673858"/>
      <trkpt lat="44.049502" lon="-78.673818"/>
      <trkpt lat="44.049297" lon="-78.673723"/>
      <trkpt lat="44.049075" lon="-78.673597"/>
      <trkpt lat="44.048848" lon="-78.673407"/>
      <trkpt lat="44.048666" lon="-78.673201"/>
      <trkpt lat="44.048540" lon="-78.672979"/>
      <trkpt lat="44.048439" lon="-78.672719"/>
      <trkpt lat="44.048371" lon="-78.672387"/>
      <trkpt lat="44.048319" lon="-78.671956"/>
      <trkpt lat="44.048229" lon="-78.669888"/>
      <trkpt lat="44.048181" lon="-78.669678"/>
      <trkpt lat="44.048103" lon="-78.669445"/>
      <trkpt lat="44.048007" lon="-78.669263"/>
      <trkpt lat="44.047858" lon="-78.669113"/>
      <trkpt lat="44.047751" lon="-78.669026"/>
      <trkpt lat="44.047576" lon="-78.668931"/>
      <trkpt lat="44.047461" lon="-78.668907"/>
      <trkpt lat="44.047219" lon="-78.668951"/>
      <trkpt lat="44.047025" lon="-78.669017"/>
      <trkpt lat="44.046796" lon="-78.669176"/>
      <trkpt lat="44.046563" lon="-78.669381"/>
      <trkpt lat="44.046433" lon="-78.669544"/>
      <trkpt lat="44.045000" lon="-78.672015"/>
      <trkpt lat="44.044858" lon="-78.672205"/>
      <trkpt lat="44.044704" lon="-78.672387"/>
      <trkpt lat="44.044403" lon="-78.672640"/>
      <trkpt lat="44.044050" lon="-78.672869"/>
      <trkpt lat="44.043832" lon="-78.672952"/>
      <trkpt lat="44.043641" lon="-78.672972"/>
      <trkpt lat="44.043311" lon="-78.672940"/>
      <trkpt lat="44.042930" lon="-78.672861"/>
      <trkpt lat="44.042658" lon="-78.672790"/>
      <trkpt lat="44.042510" lon="-78.672774"/>
      <trkpt lat="44.042368" lon="-78.672845"/>
      <trkpt lat="44.042220" lon="-78.672972"/>
      <trkpt lat="44.042140" lon="-78.673130"/>
      <trkpt lat="44.042100" lon="-78.673359"/>
      <trkpt lat="44.042100" lon="-78.673699"/>
      <trkpt lat="44.042157" lon="-78.673850"/>
      <trkpt lat="44.042271" lon="-78.673945"/>
      <trkpt lat="44.042425" lon="-78.673968"/>
      <trkpt lat="44.042640" lon="-78.673976"/>
      <trkpt lat="44.042817" lon="-78.673976"/>
      <trkpt lat="44.042987" lon="-78.674000"/>
      <trkpt lat="44.043169" lon="-78.674071"/>
      <trkpt lat="44.043408" lon="-78.674190"/>
      <trkpt lat="44.043624" lon="-78.674316"/>
      <trkpt lat="44.043851" lon="-78.674490"/>
      <trkpt lat="44.045801" lon="-78.676752"/>
      <trkpt lat="44.046874" lon="-78.677789"/>
      <trkpt lat="44.048274" lon="-78.678998"/>
      <trkpt lat="44.048626" lon="-78.679267"/>
      <trkpt lat="44.048956" lon="-78.679473"/>
      <trkpt lat="44.049224" lon="-78.679613"/>
      <trkpt lat="44.051434" lon="-78.680509"/>
      <trkpt lat="44.051792" lon="-78.680596"/>
      <trkpt lat="44.052048" lon="-78.680612"/>
      <trkpt lat="44.052253" lon="-78.680572"/>
      <trkpt lat="44.052440" lon="-78.680485"/>
      <trkpt lat="44.052681" lon="-78.680294"/>
      <trkpt lat="44.052901" lon="-78.680058"/>
      <trkpt lat="44.053032" lon="-78.679844"/>
      <trkpt lat="44.053213" lon="-78.679425"/>
      <trkpt lat="44.053276" lon="-78.679117"/>
      <trkpt lat="44.053316" lon="-78.678824"/>
      <trkpt lat="44.053316" lon="-78.678547"/>
      <trkpt lat="44.053339" lon="-78.678144"/>
      <trkpt lat="44.053401" lon="-78.677938"/>
      <trkpt lat="44.053498" lon="-78.677725"/>
      <trkpt lat="44.053623" lon="-78.677567"/>
      <trkpt lat="44.053731" lon="-78.677488"/>
      <trkpt lat="44.053981" lon="-78.677385"/>
      <trkpt lat="44.054444" lon="-78.677172"/>
      <trkpt lat="44.054627" lon="-78.677067"/>
      <trkpt lat="44.054710" lon="-78.676999"/>
      <trkpt lat="44.054771" lon="-78.676918"/>
      <trkpt lat="44.054816" lon="-78.676784"/>
      <trkpt lat="44.054833" lon="-78.676602"/>
      <trkpt lat="44.054826" lon="-78.676409"/>
      <trkpt lat="44.054306" lon="-78.673922"/>
      <trkpt lat="44.054101" lon="-78.673058"/>
  </trkseg></trk>
  <trk><name>mosport ONPITROAD</name><trkseg>
      <trkpt lat="44.054444" lon="-78.677172"/>
      <trkpt lat="44.054617" lon="-78.676950"/>
      <trkpt lat="44.054689" lon="-78.676735"/>
      <trkpt lat="44.054724" lon="-78.676582"/>
      <trkpt lat="44.054723" lon="-78.676410"/>
      <trkpt lat="44.054696" lon="-78.676222"/>
      <trkpt lat="44.054054" lon="-78.673398"/>
      <trkpt lat="44.053851" lon="-78.672645"/>
      <trkpt lat="44.053771" lon="-78.672457"/>
      <trkpt lat="44.053674" lon="-78.672294"/>
      <trkpt lat="44.053543" lon="-78.672155"/>
      <trkpt lat="44.053385" lon="-78.672040"/>
      <trkpt lat="44.053243" lon="-78.671972"/>
      <trkpt lat="44.053078" lon="-78.671924"/>
      <trkpt lat="44.052933" lon="-78.671910"/>
      <trkpt lat="44.052764" lon="-78.671924"/>
      <trkpt lat="44.052636" lon="-78.671963"/>
      <trkpt lat="44.052419" lon="-78.672088"/>
      <trkpt lat="44.052146" lon="-78.672265"/>
      <trkpt lat="44.051419" lon="-78.672780"/>
  </trkseg></trk>
</gpx>
