<?xml version="1.0" encoding="UTF-8"?>
<gpx version="1.1" creator="SimRacing overlays (OpenStreetMap, ODbL)" xmlns="http://www.topografix.com/GPX/1/1">
  <metadata><name>Mobility Resort Motegi (East)</name>
    <desc>Driving direction. Source: OpenStreetMap contributors (ODbL).</desc></metadata>
  <trk><name>motegi_east ONTRACK</name><trkseg>
      <trkpt lat="36.532793" lon="140.237939"/>
      <trkpt lat="36.530758" lon="140.235169"/>
      <trkpt lat="36.528557" lon="140.232191"/>
      <trkpt lat="36.528497" lon="140.232085"/>
      <trkpt lat="36.528486" lon="140.232041"/>
      <trkpt lat="36.528484" lon="140.231926"/>
      <trkpt lat="36.528506" lon="140.231820"/>
      <trkpt lat="36.528557" lon="140.231747"/>
      <trkpt lat="36.528589" lon="140.231718"/>
      <trkpt lat="36.529723" lon="140.230929"/>
      <trkpt lat="36.529779" lon="140.230920"/>
      <trkpt lat="36.529840" lon="140.230924"/>
      <trkpt lat="36.529900" lon="140.230946"/>
      <trkpt lat="36.529957" lon="140.230985"/>
      <trkpt lat="36.530516" lon="140.231504"/>
      <trkpt lat="36.530646" lon="140.231572"/>
      <trkpt lat="36.530791" lon="140.231588"/>
      <trkpt lat="36.530863" lon="140.231582"/>
      <trkpt lat="36.530988" lon="140.231540"/>
      <trkpt lat="36.531043" lon="140.231504"/>
      <trkpt lat="36.531629" lon="140.231035"/>
      <trkpt lat="36.531722" lon="140.230992"/>
      <trkpt lat="36.531810" lon="140.230987"/>
      <trkpt lat="36.531870" lon="140.231002"/>
      <trkpt lat="36.531947" lon="140.231050"/>
      <trkpt lat="36.532034" lon="140.231075"/>
      <trkpt lat="36.532126" lon="140.231089"/>
      <trkpt lat="36.532218" lon="140.231089"/>
      <trkpt lat="36.532308" lon="140.231076"/>
      <trkpt lat="36.532398" lon="140.231047"/>
      <trkpt lat="36.532478" lon="140.230998"/>
      <trkpt lat="36.532550" lon="140.230940"/>
      <trkpt lat="36.535902" lon="140.227109"/>
      <trkpt lat="36.535969" lon="140.227064"/>
      <trkpt lat="36.536042" lon="140.227045"/>
      <trkpt lat="36.536108" lon="140.227046"/>
      <trkpt lat="36.536172" lon="140.227062"/>
      <trkpt lat="36.536230" lon="140.227102"/>
      <trkpt lat="36.536280" lon="140.227161"/>
      <trkpt lat="36.536317" lon="140.227237"/>
      <trkpt lat="36.536336" lon="140.227327"/>
      <trkpt lat="36.536444" lon="140.228729"/>
      <trkpt lat="36.536487" lon="140.229485"/>
      <trkpt lat="36.536486" lon="140.229664"/>
      <trkpt lat="36.536470" lon="140.229838"/>
      <trkpt lat="36.536439" lon="140.230007"/>
      <trkpt lat="36.536392" lon="140.230168"/>
      <trkpt lat="36.536322" lon="140.230326"/>
      <trkpt lat="36.536239" lon="140.230474"/>
      <trkpt lat="36.536141" lon="140.230612"/>
      <trkpt lat="36.536030" lon="140.230731"/>
      <trkpt lat="36.534092" lon="140.232147"/>
      <trkpt lat="36.534024" lon="140.232218"/>
      <trkpt lat="36.533966" lon="140.232304"/>
      <trkpt lat="36.533920" lon="140.232394"/>
      <trkpt lat="36.533883" lon="140.232504"/>
      <trkpt lat="36.533866" lon="140.232608"/>
      <trkpt lat="36.533863" lon="140.232712"/>
      <trkpt lat="36.533872" lon="140.232823"/>
      <trkpt lat="36.533898" lon="140.232931"/>
      <trkpt lat="36.534035" lon="140.233305"/>
      <trkpt lat="36.534073" lon="140.233481"/>
      <trkpt lat="36.534075" lon="140.233674"/>
      <trkpt lat="36.534045" lon="140.233867"/>
      <trkpt lat="36.533972" lon="140.234038"/>
      <trkpt lat="36.533875" lon="140.234183"/>
      <trkpt lat="36.533737" lon="140.234283"/>
      <trkpt lat="36.533595" lon="140.234355"/>
      <trkpt lat="36.533435" lon="140.234376"/>
      <trkpt lat="36.531608" lon="140.234297"/>
      <trkpt lat="36.531548" lon="140.234305"/>
      <trkpt lat="36.531487" lon="140.234342"/>
      <trkpt lat="36.531437" lon="140.234397"/>
      <trkpt lat="36.531401" lon="140.234469"/>
      <trkpt lat="36.531380" lon="140.234539"/>
      <trkpt lat="36.531373" lon="140.234625"/>
      <trkpt lat="36.531381" lon="140.234710"/>
      <trkpt lat="36.531411" lon="140.234801"/>
      <trkpt lat="36.532062" lon="140.235770"/>
      <trkpt lat="36.533580" lon="140.237989"/>
      <trkpt lat="36.533632" lon="140.238112"/>
      <trkpt lat="36.533645" lon="140.238179"/>
      <trkpt lat="36.533645" lon="140.238249"/>
      <trkpt lat="36.533633" lon="140.238319"/>
      <trkpt lat="36.533611" lon="140.238384"/>
      <trkpt lat="36.533580" lon="140.238443"/>
      <trkpt lat="36.533490" lon="140.238520"/>
      <trkpt lat="36.533443" lon="140.238542"/>
      <trkpt lat="36.533389" lon="140.238554"/>
      <trkpt lat="36.533285" lon="140.238542"/>
      <trkpt lat="36.533234" lon="140.238516"/>
      <trkpt lat="36.533189" lon="140.238477"/>
      <trkpt lat="36.532793" lon="140.237939"/>
  </trkseg></trk>
  <trk><name>motegi_east ONPITROAD</name><trkseg>
      <trkpt lat="36.532062" lon="140.235770"/>
      <trkpt lat="36.533390" lon="140.237946"/>
      <trkpt lat="36.533409" lon="140.238029"/>
      <trkpt lat="36.533401" lon="140.238105"/>
      <trkpt lat="36.533369" lon="140.238176"/>
      <trkpt lat="36.533317" lon="140.238221"/>
      <trkpt lat="36.533250" lon="140.238234"/>
      <trkpt lat="36.533189" lon="140.238223"/>
      <trkpt lat="36.533128" lon="140.238169"/>
      <trkpt lat="36.531789" lon="140.236335"/>
      <trkpt lat="36.530758" lon="140.235169"/>
  </trkseg></trk>
</gpx>
