<?xml version="1.0" encoding="UTF-8"?>
<gpx version="1.1" creator="SimRacing overlays (OpenStreetMap, ODbL)" xmlns="http://www.topografix.com/GPX/1/1">
  <metadata><name>Mobility Resort Motegi (Grand Prix)</name>
    <desc>Driving direction. Source: OpenStreetMap contributors (ODbL).</desc></metadata>
  <trk><name>motegi_gp ONTRACK</name><trkseg>
      <trkpt lat="36.532007" lon="140.227410"/>
      <trkpt lat="36.534675" lon="140.225596"/>
      <trkpt lat="36.534895" lon="140.225454"/>
      <trkpt lat="36.534961" lon="140.225425"/>
      <trkpt lat="36.535033" lon="140.225410"/>
      <trkpt lat="36.535100" lon="140.225409"/>
      <trkpt lat="36.535166" lon="140.225426"/>
      <trkpt lat="36.535229" lon="140.225453"/>
      <trkpt lat="36.535290" lon="140.225494"/>
      <trkpt lat="36.535341" lon="140.225553"/>
      <trkpt lat="36.535382" lon="140.225624"/>
      <trkpt lat="36.535535" lon="140.225950"/>
      <trkpt lat="36.535558" lon="140.226028"/>
      <trkpt lat="36.535564" lon="140.226185"/>
      <trkpt lat="36.535553" lon="140.226266"/>
      <trkpt lat="36.535533" lon="140.226344"/>
      <trkpt lat="36.535464" lon="140.226477"/>
      <trkpt lat="36.535417" lon="140.226531"/>
      <trkpt lat="36.531813" lon="140.229671"/>
      <trkpt lat="36.531415" lon="140.230008"/>
      <trkpt lat="36.531378" lon="140.230045"/>
      <trkpt lat="36.531352" lon="140.230106"/>
      <trkpt lat="36.531334" lon="140.230167"/>
      <trkpt lat="36.531325" lon="140.230230"/>
      <trkpt lat="36.531328" lon="140.230299"/>
      <trkpt lat="36.531340" lon="140.230362"/>
      <trkpt lat="36.531362" lon="140.230420"/>
      <trkpt lat="36.531397" lon="140.230476"/>
      <trkpt lat="36.531728" lon="140.230876"/>
      <trkpt lat="36.531798" lon="140.230946"/>
      <trkpt lat="36.531947" lon="140.231050"/>
      <trkpt lat="36.532034" lon="140.231075"/>
      <trkpt lat="36.532126" lon="140.231089"/>
      <trkpt lat="36.532218" lon="140.231089"/>
      <trkpt lat="36.532308" lon="140.231076"/>
      <trkpt lat="36.532398" lon="140.231047"/>
      <trkpt lat="36.532478" lon="140.230998"/>
      <trkpt lat="36.532550" lon="140.230940"/>
      <trkpt lat="36.535902" lon="140.227109"/>
      <trkpt lat="36.535969" lon="140.227064"/>
      <trkpt lat="36.536042" lon="140.227045"/>
      <trkpt lat="36.536108" lon="140.227046"/>
      <trkpt lat="36.536172" lon="140.227062"/>
      <trkpt lat="36.536230" lon="140.227102"/>
      <trkpt lat="36.536280" lon="140.227161"/>
      <trkpt lat="36.536317" lon="140.227237"/>
      <trkpt lat="36.536336" lon="140.227327"/>
      <trkpt lat="36.536385" lon="140.227938"/>
      <trkpt lat="36.536444" lon="140.228729"/>
      <trkpt lat="36.536487" lon="140.229485"/>
      <trkpt lat="36.536486" lon="140.229664"/>
      <trkpt lat="36.536470" lon="140.229838"/>
      <trkpt lat="36.536439" lon="140.230007"/>
      <trkpt lat="36.536392" lon="140.230168"/>
      <trkpt lat="36.536322" lon="140.230326"/>
      <trkpt lat="36.536239" lon="140.230474"/>
      <trkpt lat="36.536141" lon="140.230612"/>
      <trkpt lat="36.536030" lon="140.230731"/>
      <trkpt lat="36.534092" lon="140.232147"/>
      <trkpt lat="36.534024" lon="140.232218"/>
      <trkpt lat="36.533966" lon="140.232304"/>
      <trkpt lat="36.533920" lon="140.232394"/>
      <trkpt lat="36.533883" lon="140.232504"/>
      <trkpt lat="36.533866" lon="140.232608"/>
      <trkpt lat="36.533863" lon="140.232712"/>
      <trkpt lat="36.533872" lon="140.232823"/>
      <trkpt lat="36.533898" lon="140.232931"/>
      <trkpt lat="36.534035" lon="140.233305"/>
      <trkpt lat="36.534073" lon="140.233481"/>
      <trkpt lat="36.534075" lon="140.233674"/>
      <trkpt lat="36.534045" lon="140.233867"/>
      <trkpt lat="36.533972" lon="140.234038"/>
      <trkpt lat="36.533875" lon="140.234183"/>
      <trkpt lat="36.533737" lon="140.234283"/>
      <trkpt lat="36.533595" lon="140.234355"/>
      <trkpt lat="36.533435" lon="140.234376"/>
      <trkpt lat="36.531608" lon="140.234297"/>
      <trkpt lat="36.531548" lon="140.234305"/>
      <trkpt lat="36.531487" lon="140.234342"/>
      <trkpt lat="36.531437" lon="140.234397"/>
      <trkpt lat="36.531401" lon="140.234469"/>
      <trkpt lat="36.531380" lon="140.234539"/>
      <trkpt lat="36.531373" lon="140.234625"/>
      <trkpt lat="36.531381" lon="140.234710"/>
      <trkpt lat="36.531411" lon="140.234801"/>
      <trkpt lat="36.532062" lon="140.235770"/>
      <trkpt lat="36.533580" lon="140.237989"/>
      <trkpt lat="36.533610" lon="140.238048"/>
      <trkpt lat="36.533632" lon="140.238112"/>
      <trkpt lat="36.533645" lon="140.238179"/>
      <trkpt lat="36.533645" lon="140.238249"/>
      <trkpt lat="36.533633" lon="140.238319"/>
      <trkpt lat="36.533611" lon="140.238384"/>
      <trkpt lat="36.533580" lon="140.238443"/>
      <trkpt lat="36.533490" lon="140.238520"/>
      <trkpt lat="36.533443" lon="140.238542"/>
      <trkpt lat="36.533389" lon="140.238554"/>
      <trkpt lat="36.533285" lon="140.238542"/>
      <trkpt lat="36.533234" lon="140.238516"/>
      <trkpt lat="36.533189" lon="140.238477"/>
      <trkpt lat="36.530758" lon="140.235169"/>
      <trkpt lat="36.528557" lon="140.232191"/>
      <trkpt lat="36.528497" lon="140.232085"/>
      <trkpt lat="36.528486" lon="140.232041"/>
      <trkpt lat="36.528482" lon="140.231984"/>
      <trkpt lat="36.528492" lon="140.231869"/>
      <trkpt lat="36.528506" lon="140.231820"/>
      <trkpt lat="36.528529" lon="140.231782"/>
      <trkpt lat="36.528589" lon="140.231718"/>
      <trkpt lat="36.529723" lon="140.230929"/>
      <trkpt lat="36.530012" lon="140.230742"/>
      <trkpt lat="36.530056" lon="140.230702"/>
      <trkpt lat="36.530084" lon="140.230659"/>
      <trkpt lat="36.530106" lon="140.230608"/>
      <trkpt lat="36.530217" lon="140.230196"/>
      <trkpt lat="36.530360" lon="140.229548"/>
      <trkpt lat="36.530369" lon="140.229462"/>
      <trkpt lat="36.530358" lon="140.229386"/>
      <trkpt lat="36.530331" lon="140.229319"/>
      <trkpt lat="36.530285" lon="140.229260"/>
      <trkpt lat="36.530183" lon="140.229165"/>
      <trkpt lat="36.530152" lon="140.229116"/>
      <trkpt lat="36.530108" lon="140.229005"/>
      <trkpt lat="36.530097" lon="140.228946"/>
      <trkpt lat="36.530094" lon="140.228879"/>
      <trkpt lat="36.530101" lon="140.228814"/>
      <trkpt lat="36.530139" lon="140.228713"/>
      <trkpt lat="36.530200" lon="140.228638"/>
      <trkpt lat="36.532007" lon="140.227410"/>
  </trkseg></trk>
  <trk><name>motegi_gp ONPITROAD</name><trkseg>
      <trkpt lat="36.530217" lon="140.230196"/>
      <trkpt lat="36.530493" lon="140.229446"/>
      <trkpt lat="36.530613" lon="140.229039"/>
      <trkpt lat="36.530637" lon="140.229007"/>
      <trkpt lat="36.530672" lon="140.228993"/>
      <trkpt lat="36.530762" lon="140.228981"/>
      <trkpt lat="36.530800" lon="140.228953"/>
      <trkpt lat="36.530828" lon="140.228912"/>
      <trkpt lat="36.530839" lon="140.228864"/>
      <trkpt lat="36.530876" lon="140.228482"/>
      <trkpt lat="36.530888" lon="140.228415"/>
      <trkpt lat="36.530910" lon="140.228362"/>
      <trkpt lat="36.530947" lon="140.228309"/>
      <trkpt lat="36.533230" lon="140.226774"/>
      <trkpt lat="36.534675" lon="140.225596"/>
  </trkseg></trk>
</gpx>
