<?xml version="1.0" encoding="UTF-8"?>
<gpx version="1.1" creator="SimRacing overlays (OpenStreetMap, ODbL)" xmlns="http://www.topografix.com/GPX/1/1">
  <metadata><name>Oulton Park International</name>
    <desc>Driving direction. Source: OpenStreetMap contributors (ODbL).</desc></metadata>
  <trk><name>oulton_international ONTRACK</name><trkseg>
      <trkpt lat="53.179076" lon="-2.612456"/>
      <trkpt lat="53.179017" lon="-2.612433"/>
      <trkpt lat="53.178149" lon="-2.611965"/>
      <trkpt lat="53.177940" lon="-2.611905"/>
      <trkpt lat="53.177748" lon="-2.611917"/>
      <trkpt lat="53.177610" lon="-2.611977"/>
      <trkpt lat="53.177473" lon="-2.612099"/>
      <trkpt lat="53.177348" lon="-2.612382"/>
      <trkpt lat="53.177211" lon="-2.612801"/>
      <trkpt lat="53.176726" lon="-2.614088"/>
      <trkpt lat="53.176101" lon="-2.615917"/>
      <trkpt lat="53.176012" lon="-2.616376"/>
      <trkpt lat="53.175884" lon="-2.617480"/>
      <trkpt lat="53.175828" lon="-2.617784"/>
      <trkpt lat="53.175760" lon="-2.618051"/>
      <trkpt lat="53.175613" lon="-2.618366"/>
      <trkpt lat="53.175444" lon="-2.618571"/>
      <trkpt lat="53.175281" lon="-2.618679"/>
      <trkpt lat="53.175165" lon="-2.618696"/>
      <trkpt lat="53.175023" lon="-2.618687"/>
      <trkpt lat="53.174839" lon="-2.618608"/>
      <trkpt lat="53.174639" lon="-2.618456"/>
      <trkpt lat="53.172721" lon="-2.616524"/>
      <trkpt lat="53.171882" lon="-2.615775"/>
      <trkpt lat="53.171399" lon="-2.615304"/>
      <trkpt lat="53.171096" lon="-2.614988"/>
      <trkpt lat="53.170938" lon="-2.614745"/>
      <trkpt lat="53.170832" lon="-2.614509"/>
      <trkpt lat="53.170738" lon="-2.614146"/>
      <trkpt lat="53.170674" lon="-2.613629"/>
      <trkpt lat="53.170651" lon="-2.613174"/>
      <trkpt lat="53.170658" lon="-2.612798"/>
      <trkpt lat="53.170691" lon="-2.612420"/>
      <trkpt lat="53.170890" lon="-2.611235"/>
      <trkpt lat="53.170909" lon="-2.610996"/>
      <trkpt lat="53.170872" lon="-2.610761"/>
      <trkpt lat="53.170796" lon="-2.610607"/>
      <trkpt lat="53.170738" lon="-2.610527"/>
      <trkpt lat="53.170649" lon="-2.610484"/>
      <trkpt lat="53.170572" lon="-2.610486"/>
      <trkpt lat="53.170438" lon="-2.610562"/>
      <trkpt lat="53.170367" lon="-2.610658"/>
      <trkpt lat="53.170320" lon="-2.610774"/>
      <trkpt lat="53.170279" lon="-2.610915"/>
      <trkpt lat="53.170245" lon="-2.611236"/>
      <trkpt lat="53.170212" lon="-2.612052"/>
      <trkpt lat="53.170208" lon="-2.612718"/>
      <trkpt lat="53.170232" lon="-2.613381"/>
      <trkpt lat="53.170306" lon="-2.613907"/>
      <trkpt lat="53.170399" lon="-2.614257"/>
      <trkpt lat="53.170596" lon="-2.614757"/>
      <trkpt lat="53.170938" lon="-2.615434"/>
      <trkpt lat="53.170970" lon="-2.615600"/>
      <trkpt lat="53.170985" lon="-2.615935"/>
      <trkpt lat="53.171015" lon="-2.616033"/>
      <trkpt lat="53.171083" lon="-2.616098"/>
      <trkpt lat="53.171446" lon="-2.616212"/>
      <trkpt lat="53.171585" lon="-2.616309"/>
      <trkpt lat="53.174767" lon="-2.620386"/>
      <trkpt lat="53.174833" lon="-2.620406"/>
      <trkpt lat="53.174898" lon="-2.620386"/>
      <trkpt lat="53.175109" lon="-2.620252"/>
      <trkpt lat="53.175198" lon="-2.620237"/>
      <trkpt lat="53.175289" lon="-2.620285"/>
      <trkpt lat="53.175353" lon="-2.620379"/>
      <trkpt lat="53.175740" lon="-2.621377"/>
      <trkpt lat="53.175799" lon="-2.621509"/>
      <trkpt lat="53.175879" lon="-2.621620"/>
      <trkpt lat="53.175976" lon="-2.621650"/>
      <trkpt lat="53.176128" lon="-2.621636"/>
      <trkpt lat="53.176276" lon="-2.621580"/>
      <trkpt lat="53.177320" lon="-2.621008"/>
      <trkpt lat="53.177538" lon="-2.620823"/>
      <trkpt lat="53.177816" lon="-2.620616"/>
      <trkpt lat="53.178042" lon="-2.620464"/>
      <trkpt lat="53.178239" lon="-2.620391"/>
      <trkpt lat="53.178508" lon="-2.620338"/>
      <trkpt lat="53.179444" lon="-2.620226"/>
      <trkpt lat="53.179851" lon="-2.620195"/>
      <trkpt lat="53.180042" lon="-2.620202"/>
      <trkpt lat="53.180219" lon="-2.620263"/>
      <trkpt lat="53.180543" lon="-2.620450"/>
      <trkpt lat="53.180838" lon="-2.620585"/>
      <trkpt lat="53.181283" lon="-2.620727"/>
      <trkpt lat="53.181424" lon="-2.620711"/>
      <trkpt lat="53.181538" lon="-2.620649"/>
      <trkpt lat="53.181947" lon="-2.620214"/>
      <trkpt lat="53.182051" lon="-2.620008"/>
      <trkpt lat="53.182114" lon="-2.619775"/>
      <trkpt lat="53.182167" lon="-2.619431"/>
      <trkpt lat="53.182266" lon="-2.618398"/>
      <trkpt lat="53.182327" lon="-2.617915"/>
      <trkpt lat="53.182728" lon="-2.615493"/>
      <trkpt lat="53.182999" lon="-2.613444"/>
      <trkpt lat="53.183010" lon="-2.613161"/>
      <trkpt lat="53.182938" lon="-2.612923"/>
      <trkpt lat="53.182829" lon="-2.612800"/>
      <trkpt lat="53.182687" lon="-2.612737"/>
      <trkpt lat="53.182469" lon="-2.612731"/>
      <trkpt lat="53.181959" lon="-2.612817"/>
      <trkpt lat="53.181786" lon="-2.612859"/>
      <trkpt lat="53.181368" lon="-2.613032"/>
      <trkpt lat="53.181136" lon="-2.613072"/>
      <trkpt lat="53.180875" lon="-2.613050"/>
      <trkpt lat="53.180014" lon="-2.612820"/>
      <trkpt lat="53.179076" lon="-2.612456"/>
  </trkseg></trk>
  <trk><name>oulton_international ONPITROAD</name><trkseg>
      <trkpt lat="53.181368" lon="-2.613032"/>
      <trkpt lat="53.181060" lon="-2.613222"/>
      <trkpt lat="53.180662" lon="-2.613292"/>
      <trkpt lat="53.180545" lon="-2.613292"/>
      <trkpt lat="53.180040" lon="-2.613053"/>
      <trkpt lat="53.178441" lon="-2.612331"/>
      <trkpt lat="53.178162" lon="-2.612194"/>
      <trkpt lat="53.178042" lon="-2.612163"/>
      <trkpt lat="53.177922" lon="-2.612173"/>
      <trkpt lat="53.177784" lon="-2.612229"/>
      <trkpt lat="53.177658" lon="-2.612338"/>
      <trkpt lat="53.177271" lon="-2.612924"/>
      <trkpt lat="53.176978" lon="-2.613417"/>
  </trkseg></trk>
</gpx>
