<?xml version="1.0" encoding="UTF-8"?>
<gpx version="1.1" creator="SimRacing overlays (OpenStreetMap, ODbL)" xmlns="http://www.topografix.com/GPX/1/1">
  <metadata><name>Portland International Raceway (with Festival Chicane)</name>
    <desc>Driving direction. Source: OpenStreetMap contributors (ODbL).</desc></metadata>
  <trk><name>portland ONTRACK</name><trkseg>
      <trkpt lat="45.594712" lon="-122.693365"/>
      <trkpt lat="45.595048" lon="-122.694606"/>
      <trkpt lat="45.595408" lon="-122.695984"/>
      <trkpt lat="45.595647" lon="-122.696934"/>
      <trkpt lat="45.595981" lon="-122.698165"/>
      <trkpt lat="45.596091" lon="-122.698280"/>
      <trkpt lat="45.596168" lon="-122.698320"/>
      <trkpt lat="45.596209" lon="-122.698308"/>
      <trkpt lat="45.596461" lon="-122.698164"/>
      <trkpt lat="45.596549" lon="-122.698126"/>
      <trkpt lat="45.596593" lon="-122.698136"/>
      <trkpt lat="45.596627" lon="-122.698166"/>
      <trkpt lat="45.596657" lon="-122.698220"/>
      <trkpt lat="45.596669" lon="-122.698275"/>
      <trkpt lat="45.596653" lon="-122.698465"/>
      <trkpt lat="45.596450" lon="-122.699710"/>
      <trkpt lat="45.596437" lon="-122.699847"/>
      <trkpt lat="45.597024" lon="-122.702012"/>
      <trkpt lat="45.597136" lon="-122.702403"/>
      <trkpt lat="45.597229" lon="-122.702665"/>
      <trkpt lat="45.597285" lon="-122.702780"/>
      <trkpt lat="45.597374" lon="-122.702905"/>
      <trkpt lat="45.597441" lon="-122.702970"/>
      <trkpt lat="45.597589" lon="-122.703060"/>
      <trkpt lat="45.597815" lon="-122.703130"/>
      <trkpt lat="45.597922" lon="-122.703139"/>
      <trkpt lat="45.598131" lon="-122.703082"/>
      <trkpt lat="45.598266" lon="-122.702983"/>
      <trkpt lat="45.598363" lon="-122.702869"/>
      <trkpt lat="45.598526" lon="-122.702614"/>
      <trkpt lat="45.598627" lon="-122.702420"/>
      <trkpt lat="45.598737" lon="-122.702102"/>
      <trkpt lat="45.598752" lon="-122.701914"/>
      <trkpt lat="45.598740" lon="-122.701762"/>
      <trkpt lat="45.598712" lon="-122.701635"/>
      <trkpt lat="45.598668" lon="-122.701519"/>
      <trkpt lat="45.598568" lon="-122.701339"/>
      <trkpt lat="45.598133" lon="-122.700867"/>
      <trkpt lat="45.598041" lon="-122.700729"/>
      <trkpt lat="45.597952" lon="-122.700495"/>
      <trkpt lat="45.597927" lon="-122.700308"/>
      <trkpt lat="45.597936" lon="-122.700145"/>
      <trkpt lat="45.597974" lon="-122.699990"/>
      <trkpt lat="45.598060" lon="-122.699814"/>
      <trkpt lat="45.598196" lon="-122.699670"/>
      <trkpt lat="45.598319" lon="-122.699592"/>
      <trkpt lat="45.598647" lon="-122.699478"/>
      <trkpt lat="45.599077" lon="-122.699471"/>
      <trkpt lat="45.599604" lon="-122.699523"/>
      <trkpt lat="45.599719" lon="-122.699509"/>
      <trkpt lat="45.599853" lon="-122.699442"/>
      <trkpt lat="45.599921" lon="-122.699363"/>
      <trkpt lat="45.599953" lon="-122.699289"/>
      <trkpt lat="45.599972" lon="-122.699153"/>
      <trkpt lat="45.599961" lon="-122.699012"/>
      <trkpt lat="45.599904" lon="-122.698771"/>
      <trkpt lat="45.599608" lon="-122.697785"/>
      <trkpt lat="45.599566" lon="-122.697604"/>
      <trkpt lat="45.599523" lon="-122.697265"/>
      <trkpt lat="45.599479" lon="-122.696225"/>
      <trkpt lat="45.599455" lon="-122.696013"/>
      <trkpt lat="45.599303" lon="-122.695169"/>
      <trkpt lat="45.599225" lon="-122.694868"/>
      <trkpt lat="45.599137" lon="-122.694602"/>
      <trkpt lat="45.598969" lon="-122.694179"/>
      <trkpt lat="45.598698" lon="-122.693653"/>
      <trkpt lat="45.598513" lon="-122.693360"/>
      <trkpt lat="45.598027" lon="-122.692667"/>
      <trkpt lat="45.597727" lon="-122.692265"/>
      <trkpt lat="45.597354" lon="-122.691807"/>
      <trkpt lat="45.595905" lon="-122.690223"/>
      <trkpt lat="45.595515" lon="-122.689771"/>
      <trkpt lat="45.595427" lon="-122.689644"/>
      <trkpt lat="45.595342" lon="-122.689479"/>
      <trkpt lat="45.595292" lon="-122.689343"/>
      <trkpt lat="45.595138" lon="-122.688743"/>
      <trkpt lat="45.595036" lon="-122.688503"/>
      <trkpt lat="45.594956" lon="-122.688382"/>
      <trkpt lat="45.594731" lon="-122.688174"/>
      <trkpt lat="45.594325" lon="-122.687901"/>
      <trkpt lat="45.594190" lon="-122.687835"/>
      <trkpt lat="45.594075" lon="-122.687808"/>
      <trkpt lat="45.593995" lon="-122.687814"/>
      <trkpt lat="45.593860" lon="-122.687876"/>
      <trkpt lat="45.593786" lon="-122.687948"/>
      <trkpt lat="45.593725" lon="-122.688042"/>
      <trkpt lat="45.593680" lon="-122.688151"/>
      <trkpt lat="45.593637" lon="-122.688359"/>
      <trkpt lat="45.593627" lon="-122.688538"/>
      <trkpt lat="45.593636" lon="-122.688704"/>
      <trkpt lat="45.593830" lon="-122.690104"/>
      <trkpt lat="45.594712" lon="-122.693365"/>
  </trkseg></trk>
  <trk><name>portland ONPITROAD</name><trkseg>
      <trkpt lat="45.593734" lon="-122.689398"/>
      <trkpt lat="45.593992" lon="-122.690159"/>
      <trkpt lat="45.594225" lon="-122.690971"/>
      <trkpt lat="45.595313" lon="-122.695009"/>
      <trkpt lat="45.595422" lon="-122.695480"/>
      <trkpt lat="45.595744" lon="-122.697291"/>
  </trkseg></trk>
</gpx>
