<?xml version="1.0" encoding="UTF-8"?>
<gpx version="1.1" creator="SimRacing overlays (OpenStreetMap, ODbL)" xmlns="http://www.topografix.com/GPX/1/1">
  <metadata><name>Road America</name>
    <desc>Driving direction. Source: OpenStreetMap contributors (ODbL).</desc></metadata>
  <trk><name>roadamerica_full ONTRACK</name><trkseg>
      <trkpt lat="43.798090" lon="-87.989634"/>
      <trkpt lat="43.797569" lon="-87.989620"/>
      <trkpt lat="43.793754" lon="-87.989500"/>
      <trkpt lat="43.792547" lon="-87.989475"/>
      <trkpt lat="43.792399" lon="-87.989490"/>
      <trkpt lat="43.792327" lon="-87.989514"/>
      <trkpt lat="43.792195" lon="-87.989592"/>
      <trkpt lat="43.792055" lon="-87.989725"/>
      <trkpt lat="43.791985" lon="-87.989823"/>
      <trkpt lat="43.791931" lon="-87.989933"/>
      <trkpt lat="43.791893" lon="-87.990026"/>
      <trkpt lat="43.791846" lon="-87.990187"/>
      <trkpt lat="43.791799" lon="-87.990489"/>
      <trkpt lat="43.791447" lon="-87.993088"/>
      <trkpt lat="43.791429" lon="-87.993313"/>
      <trkpt lat="43.791388" lon="-87.994360"/>
      <trkpt lat="43.791385" lon="-87.994851"/>
      <trkpt lat="43.791410" lon="-87.995037"/>
      <trkpt lat="43.791433" lon="-87.995132"/>
      <trkpt lat="43.791462" lon="-87.995208"/>
      <trkpt lat="43.791562" lon="-87.995362"/>
      <trkpt lat="43.791639" lon="-87.995441"/>
      <trkpt lat="43.791739" lon="-87.995501"/>
      <trkpt lat="43.791839" lon="-87.995533"/>
      <trkpt lat="43.791945" lon="-87.995543"/>
      <trkpt lat="43.792774" lon="-87.995452"/>
      <trkpt lat="43.794446" lon="-87.995119"/>
      <trkpt lat="43.794992" lon="-87.994984"/>
      <trkpt lat="43.795313" lon="-87.994885"/>
      <trkpt lat="43.795823" lon="-87.994707"/>
      <trkpt lat="43.797269" lon="-87.994090"/>
      <trkpt lat="43.798855" lon="-87.993251"/>
      <trkpt lat="43.799169" lon="-87.993100"/>
      <trkpt lat="43.799530" lon="-87.992961"/>
      <trkpt lat="43.800017" lon="-87.992798"/>
      <trkpt lat="43.800446" lon="-87.992672"/>
      <trkpt lat="43.801077" lon="-87.992521"/>
      <trkpt lat="43.801462" lon="-87.992446"/>
      <trkpt lat="43.801658" lon="-87.992424"/>
      <trkpt lat="43.801774" lon="-87.992483"/>
      <trkpt lat="43.801815" lon="-87.992529"/>
      <trkpt lat="43.801856" lon="-87.992648"/>
      <trkpt lat="43.801869" lon="-87.992743"/>
      <trkpt lat="43.801878" lon="-87.992841"/>
      <trkpt lat="43.801874" lon="-87.992989"/>
      <trkpt lat="43.801789" lon="-87.995725"/>
      <trkpt lat="43.801777" lon="-87.995859"/>
      <trkpt lat="43.801743" lon="-87.995977"/>
      <trkpt lat="43.801700" lon="-87.996068"/>
      <trkpt lat="43.801625" lon="-87.996146"/>
      <trkpt lat="43.801520" lon="-87.996215"/>
      <trkpt lat="43.801475" lon="-87.996224"/>
      <trkpt lat="43.801355" lon="-87.996221"/>
      <trkpt lat="43.799849" lon="-87.996100"/>
      <trkpt lat="43.799776" lon="-87.996106"/>
      <trkpt lat="43.799625" lon="-87.996149"/>
      <trkpt lat="43.799547" lon="-87.996186"/>
      <trkpt lat="43.799478" lon="-87.996240"/>
      <trkpt lat="43.799396" lon="-87.996320"/>
      <trkpt lat="43.799315" lon="-87.996438"/>
      <trkpt lat="43.797334" lon="-87.999845"/>
      <trkpt lat="43.797213" lon="-87.999962"/>
      <trkpt lat="43.797166" lon="-87.999989"/>
      <trkpt lat="43.797073" lon="-88.000005"/>
      <trkpt lat="43.796980" lon="-87.999973"/>
      <trkpt lat="43.796837" lon="-87.999855"/>
      <trkpt lat="43.795941" lon="-87.998937"/>
      <trkpt lat="43.795795" lon="-87.998815"/>
      <trkpt lat="43.795675" lon="-87.998745"/>
      <trkpt lat="43.795571" lon="-87.998702"/>
      <trkpt lat="43.795458" lon="-87.998681"/>
      <trkpt lat="43.795366" lon="-87.998670"/>
      <trkpt lat="43.795203" lon="-87.998681"/>
      <trkpt lat="43.795114" lon="-87.998697"/>
      <trkpt lat="43.794909" lon="-87.998777"/>
      <trkpt lat="43.794808" lon="-87.998831"/>
      <trkpt lat="43.794715" lon="-87.998901"/>
      <trkpt lat="43.794630" lon="-87.998970"/>
      <trkpt lat="43.794556" lon="-87.999051"/>
      <trkpt lat="43.794413" lon="-87.999238"/>
      <trkpt lat="43.794285" lon="-87.999480"/>
      <trkpt lat="43.794239" lon="-87.999600"/>
      <trkpt lat="43.794196" lon="-87.999758"/>
      <trkpt lat="43.794165" lon="-87.999925"/>
      <trkpt lat="43.794150" lon="-88.000107"/>
      <trkpt lat="43.794142" lon="-88.000327"/>
      <trkpt lat="43.794150" lon="-88.000510"/>
      <trkpt lat="43.794169" lon="-88.000676"/>
      <trkpt lat="43.794215" lon="-88.000869"/>
      <trkpt lat="43.794281" lon="-88.001089"/>
      <trkpt lat="43.794355" lon="-88.001250"/>
      <trkpt lat="43.794421" lon="-88.001368"/>
      <trkpt lat="43.794517" lon="-88.001491"/>
      <trkpt lat="43.794649" lon="-88.001625"/>
      <trkpt lat="43.794839" lon="-88.001776"/>
      <trkpt lat="43.795013" lon="-88.001861"/>
      <trkpt lat="43.796160" lon="-88.002223"/>
      <trkpt lat="43.796973" lon="-88.002460"/>
      <trkpt lat="43.797948" lon="-88.002725"/>
      <trkpt lat="43.798091" lon="-88.002748"/>
      <trkpt lat="43.798319" lon="-88.002753"/>
      <trkpt lat="43.798416" lon="-88.002736"/>
      <trkpt lat="43.798608" lon="-88.002691"/>
      <trkpt lat="43.798800" lon="-88.002545"/>
      <trkpt lat="43.799044" lon="-88.002332"/>
      <trkpt lat="43.799466" lon="-88.001897"/>
      <trkpt lat="43.800218" lon="-88.001067"/>
      <trkpt lat="43.800376" lon="-88.000878"/>
      <trkpt lat="43.800477" lon="-88.000748"/>
      <trkpt lat="43.800694" lon="-88.000431"/>
      <trkpt lat="43.800927" lon="-88.000109"/>
      <trkpt lat="43.801096" lon="-87.999898"/>
      <trkpt lat="43.801513" lon="-87.999492"/>
      <trkpt lat="43.801676" lon="-87.999362"/>
      <trkpt lat="43.802607" lon="-87.998711"/>
      <trkpt lat="43.803040" lon="-87.998434"/>
      <trkpt lat="43.803198" lon="-87.998344"/>
      <trkpt lat="43.803587" lon="-87.998172"/>
      <trkpt lat="43.804749" lon="-87.997719"/>
      <trkpt lat="43.804807" lon="-87.997684"/>
      <trkpt lat="43.804860" lon="-87.997634"/>
      <trkpt lat="43.804921" lon="-87.997551"/>
      <trkpt lat="43.804967" lon="-87.997457"/>
      <trkpt lat="43.804993" lon="-87.997364"/>
      <trkpt lat="43.805004" lon="-87.997287"/>
      <trkpt lat="43.805007" lon="-87.997187"/>
      <trkpt lat="43.804998" lon="-87.997084"/>
      <trkpt lat="43.804840" lon="-87.996303"/>
      <trkpt lat="43.804770" lon="-87.996009"/>
      <trkpt lat="43.804693" lon="-87.995759"/>
      <trkpt lat="43.804632" lon="-87.995591"/>
      <trkpt lat="43.804545" lon="-87.995389"/>
      <trkpt lat="43.804461" lon="-87.995230"/>
      <trkpt lat="43.804383" lon="-87.995108"/>
      <trkpt lat="43.804150" lon="-87.994786"/>
      <trkpt lat="43.803987" lon="-87.994538"/>
      <trkpt lat="43.803872" lon="-87.994343"/>
      <trkpt lat="43.803828" lon="-87.994240"/>
      <trkpt lat="43.803790" lon="-87.994123"/>
      <trkpt lat="43.803748" lon="-87.993929"/>
      <trkpt lat="43.803731" lon="-87.993803"/>
      <trkpt lat="43.803735" lon="-87.993499"/>
      <trkpt lat="43.803749" lon="-87.993366"/>
      <trkpt lat="43.804106" lon="-87.991682"/>
      <trkpt lat="43.804147" lon="-87.991397"/>
      <trkpt lat="43.804181" lon="-87.991031"/>
      <trkpt lat="43.804190" lon="-87.990894"/>
      <trkpt lat="43.804193" lon="-87.990607"/>
      <trkpt lat="43.804185" lon="-87.990468"/>
      <trkpt lat="43.804167" lon="-87.990327"/>
      <trkpt lat="43.804112" lon="-87.990124"/>
      <trkpt lat="43.804072" lon="-87.990048"/>
      <trkpt lat="43.803983" lon="-87.989932"/>
      <trkpt lat="43.803936" lon="-87.989886"/>
      <trkpt lat="43.803837" lon="-87.989822"/>
      <trkpt lat="43.803738" lon="-87.989795"/>
      <trkpt lat="43.803541" lon="-87.989781"/>
      <trkpt lat="43.798090" lon="-87.989634"/>
  </trkseg></trk>
  <trk><name>roadamerica_full ONPITROAD</name><trkseg>
      <trkpt lat="43.802422" lon="-87.989754"/>
      <trkpt lat="43.802244" lon="-87.989808"/>
      <trkpt lat="43.801749" lon="-87.989911"/>
      <trkpt lat="43.801234" lon="-87.989931"/>
      <trkpt lat="43.800579" lon="-87.989919"/>
      <trkpt lat="43.800434" lon="-87.989915"/>
      <trkpt lat="43.800298" lon="-87.989894"/>
      <trkpt lat="43.798428" lon="-87.989785"/>
      <trkpt lat="43.794869" lon="-87.989683"/>
      <trkpt lat="43.794594" lon="-87.989632"/>
      <trkpt lat="43.793964" lon="-87.989584"/>
      <trkpt lat="43.793754" lon="-87.989500"/>
  </trkseg></trk>
</gpx>
