<?xml version="1.0" encoding="UTF-8"?>
<gpx version="1.1" creator="SimRacing overlays (OpenStreetMap, ODbL)" xmlns="http://www.topografix.com/GPX/1/1">
  <metadata><name>Michelin Raceway Road Atlanta</name>
    <desc>Driving direction. Source: OpenStreetMap contributors (ODbL).</desc></metadata>
  <trk><name>roadatlanta_full ONTRACK</name><trkseg>
      <trkpt lat="34.149732" lon="-83.812999"/>
      <trkpt lat="34.148725" lon="-83.811096"/>
      <trkpt lat="34.148532" lon="-83.810795"/>
      <trkpt lat="34.148430" lon="-83.810667"/>
      <trkpt lat="34.148250" lon="-83.810483"/>
      <trkpt lat="34.148092" lon="-83.810356"/>
      <trkpt lat="34.148013" lon="-83.810315"/>
      <trkpt lat="34.147951" lon="-83.810294"/>
      <trkpt lat="34.147832" lon="-83.810276"/>
      <trkpt lat="34.147706" lon="-83.810279"/>
      <trkpt lat="34.147577" lon="-83.810309"/>
      <trkpt lat="34.147380" lon="-83.810388"/>
      <trkpt lat="34.147189" lon="-83.810481"/>
      <trkpt lat="34.147102" lon="-83.810529"/>
      <trkpt lat="34.146860" lon="-83.810688"/>
      <trkpt lat="34.146785" lon="-83.810744"/>
      <trkpt lat="34.146621" lon="-83.810917"/>
      <trkpt lat="34.146153" lon="-83.811520"/>
      <trkpt lat="34.146032" lon="-83.811641"/>
      <trkpt lat="34.145916" lon="-83.811741"/>
      <trkpt lat="34.145794" lon="-83.811825"/>
      <trkpt lat="34.145621" lon="-83.811923"/>
      <trkpt lat="34.145477" lon="-83.811981"/>
      <trkpt lat="34.145234" lon="-83.812040"/>
      <trkpt lat="34.145117" lon="-83.812079"/>
      <trkpt lat="34.145057" lon="-83.812120"/>
      <trkpt lat="34.145028" lon="-83.812156"/>
      <trkpt lat="34.145008" lon="-83.812201"/>
      <trkpt lat="34.144898" lon="-83.812581"/>
      <trkpt lat="34.144798" lon="-83.812859"/>
      <trkpt lat="34.144683" lon="-83.813055"/>
      <trkpt lat="34.144596" lon="-83.813168"/>
      <trkpt lat="34.144482" lon="-83.813283"/>
      <trkpt lat="34.144395" lon="-83.813350"/>
      <trkpt lat="34.144298" lon="-83.813404"/>
      <trkpt lat="34.143373" lon="-83.813734"/>
      <trkpt lat="34.143161" lon="-83.813790"/>
      <trkpt lat="34.143065" lon="-83.813841"/>
      <trkpt lat="34.143012" lon="-83.813878"/>
      <trkpt lat="34.142880" lon="-83.813998"/>
      <trkpt lat="34.142783" lon="-83.814117"/>
      <trkpt lat="34.142721" lon="-83.814221"/>
      <trkpt lat="34.142583" lon="-83.814621"/>
      <trkpt lat="34.142492" lon="-83.814826"/>
      <trkpt lat="34.142387" lon="-83.814993"/>
      <trkpt lat="34.142271" lon="-83.815133"/>
      <trkpt lat="34.142200" lon="-83.815207"/>
      <trkpt lat="34.141948" lon="-83.815427"/>
      <trkpt lat="34.141878" lon="-83.815509"/>
      <trkpt lat="34.141845" lon="-83.815564"/>
      <trkpt lat="34.141732" lon="-83.815812"/>
      <trkpt lat="34.141687" lon="-83.815945"/>
      <trkpt lat="34.141642" lon="-83.816149"/>
      <trkpt lat="34.141610" lon="-83.816217"/>
      <trkpt lat="34.141551" lon="-83.816305"/>
      <trkpt lat="34.141474" lon="-83.816370"/>
      <trkpt lat="34.141423" lon="-83.816398"/>
      <trkpt lat="34.141320" lon="-83.816426"/>
      <trkpt lat="34.141242" lon="-83.816436"/>
      <trkpt lat="34.140880" lon="-83.816449"/>
      <trkpt lat="34.140541" lon="-83.816472"/>
      <trkpt lat="34.139815" lon="-83.816541"/>
      <trkpt lat="34.138909" lon="-83.816582"/>
      <trkpt lat="34.138593" lon="-83.816582"/>
      <trkpt lat="34.137996" lon="-83.816561"/>
      <trkpt lat="34.136754" lon="-83.816475"/>
      <trkpt lat="34.136621" lon="-83.816498"/>
      <trkpt lat="34.136520" lon="-83.816537"/>
      <trkpt lat="34.136452" lon="-83.816588"/>
      <trkpt lat="34.136369" lon="-83.816666"/>
      <trkpt lat="34.136290" lon="-83.816782"/>
      <trkpt lat="34.136258" lon="-83.816846"/>
      <trkpt lat="34.136229" lon="-83.816936"/>
      <trkpt lat="34.136205" lon="-83.817079"/>
      <trkpt lat="34.136152" lon="-83.817986"/>
      <trkpt lat="34.136148" lon="-83.818127"/>
      <trkpt lat="34.136155" lon="-83.818208"/>
      <trkpt lat="34.136172" lon="-83.818272"/>
      <trkpt lat="34.136228" lon="-83.818348"/>
      <trkpt lat="34.136268" lon="-83.818381"/>
      <trkpt lat="34.136360" lon="-83.818397"/>
      <trkpt lat="34.136705" lon="-83.818360"/>
      <trkpt lat="34.137213" lon="-83.818285"/>
      <trkpt lat="34.137901" lon="-83.818131"/>
      <trkpt lat="34.138240" lon="-83.818081"/>
      <trkpt lat="34.138548" lon="-83.818059"/>
      <trkpt lat="34.138675" lon="-83.818058"/>
      <trkpt lat="34.139133" lon="-83.818081"/>
      <trkpt lat="34.139616" lon="-83.818136"/>
      <trkpt lat="34.141298" lon="-83.818387"/>
      <trkpt lat="34.143624" lon="-83.818757"/>
      <trkpt lat="34.143909" lon="-83.818795"/>
      <trkpt lat="34.144164" lon="-83.818813"/>
      <trkpt lat="34.144454" lon="-83.818816"/>
      <trkpt lat="34.144694" lon="-83.818803"/>
      <trkpt lat="34.145121" lon="-83.818747"/>
      <trkpt lat="34.145313" lon="-83.818709"/>
      <trkpt lat="34.145773" lon="-83.818593"/>
      <trkpt lat="34.146492" lon="-83.818348"/>
      <trkpt lat="34.147536" lon="-83.818013"/>
      <trkpt lat="34.148165" lon="-83.817798"/>
      <trkpt lat="34.148253" lon="-83.817779"/>
      <trkpt lat="34.148313" lon="-83.817788"/>
      <trkpt lat="34.148330" lon="-83.817801"/>
      <trkpt lat="34.148596" lon="-83.818188"/>
      <trkpt lat="34.148624" lon="-83.818219"/>
      <trkpt lat="34.148704" lon="-83.818264"/>
      <trkpt lat="34.148808" lon="-83.818283"/>
      <trkpt lat="34.148871" lon="-83.818281"/>
      <trkpt lat="34.148933" lon="-83.818261"/>
      <trkpt lat="34.148997" lon="-83.818229"/>
      <trkpt lat="34.149312" lon="-83.818031"/>
      <trkpt lat="34.149590" lon="-83.817871"/>
      <trkpt lat="34.149921" lon="-83.817621"/>
      <trkpt lat="34.149993" lon="-83.817547"/>
      <trkpt lat="34.150118" lon="-83.817386"/>
      <trkpt lat="34.150249" lon="-83.817137"/>
      <trkpt lat="34.150667" lon="-83.816126"/>
      <trkpt lat="34.150769" lon="-83.815805"/>
      <trkpt lat="34.150800" lon="-83.815641"/>
      <trkpt lat="34.150807" lon="-83.815529"/>
      <trkpt lat="34.150808" lon="-83.815436"/>
      <trkpt lat="34.150786" lon="-83.815220"/>
      <trkpt lat="34.150730" lon="-83.814947"/>
      <trkpt lat="34.150700" lon="-83.814860"/>
      <trkpt lat="34.150398" lon="-83.814256"/>
      <trkpt lat="34.149732" lon="-83.812999"/>
  </trkseg></trk>
  <trk><name>roadatlanta_full ONPITROAD</name><trkseg>
      <trkpt lat="34.149747" lon="-83.817753"/>
      <trkpt lat="34.149864" lon="-83.817637"/>
      <trkpt lat="34.149941" lon="-83.817539"/>
      <trkpt lat="34.150010" lon="-83.817436"/>
      <trkpt lat="34.150168" lon="-83.817100"/>
      <trkpt lat="34.150284" lon="-83.816800"/>
      <trkpt lat="34.150351" lon="-83.816587"/>
      <trkpt lat="34.150391" lon="-83.816352"/>
      <trkpt lat="34.150402" lon="-83.816192"/>
      <trkpt lat="34.150392" lon="-83.816042"/>
      <trkpt lat="34.150343" lon="-83.815652"/>
      <trkpt lat="34.150343" lon="-83.815497"/>
      <trkpt lat="34.150382" lon="-83.815342"/>
      <trkpt lat="34.150483" lon="-83.815129"/>
      <trkpt lat="34.150502" lon="-83.815071"/>
      <trkpt lat="34.150513" lon="-83.815025"/>
      <trkpt lat="34.150518" lon="-83.814941"/>
      <trkpt lat="34.150516" lon="-83.814893"/>
      <trkpt lat="34.150501" lon="-83.814822"/>
      <trkpt lat="34.148560" lon="-83.811168"/>
      <trkpt lat="34.148398" lon="-83.810913"/>
      <trkpt lat="34.148205" lon="-83.810701"/>
      <trkpt lat="34.148110" lon="-83.810615"/>
      <trkpt lat="34.148044" lon="-83.810576"/>
      <trkpt lat="34.147972" lon="-83.810539"/>
      <trkpt lat="34.147838" lon="-83.810492"/>
      <trkpt lat="34.147686" lon="-83.810470"/>
      <trkpt lat="34.147604" lon="-83.810473"/>
      <trkpt lat="34.147436" lon="-83.810502"/>
      <trkpt lat="34.147269" lon="-83.810546"/>
      <trkpt lat="34.147067" lon="-83.810630"/>
      <trkpt lat="34.146922" lon="-83.810725"/>
      <trkpt lat="34.146734" lon="-83.810866"/>
      <trkpt lat="34.146474" lon="-83.811111"/>
  </trkseg></trk>
</gpx>
