<?xml version="1.0" encoding="UTF-8"?>
<gpx version="1.1" creator="SimRacing overlays (OpenStreetMap, ODbL)" xmlns="http://www.topografix.com/GPX/1/1">
  <metadata><name>Sebring International Raceway</name>
    <desc>Driving direction. Source: OpenStreetMap contributors (ODbL).</desc></metadata>
  <trk><name>sebring_international ONTRACK</name><trkseg>
      <trkpt lat="27.450231" lon="-81.352373"/>
      <trkpt lat="27.450240" lon="-81.349458"/>
      <trkpt lat="27.450262" lon="-81.349187"/>
      <trkpt lat="27.450295" lon="-81.349026"/>
      <trkpt lat="27.450354" lon="-81.348892"/>
      <trkpt lat="27.450454" lon="-81.348752"/>
      <trkpt lat="27.450571" lon="-81.348642"/>
      <trkpt lat="27.450695" lon="-81.348567"/>
      <trkpt lat="27.450864" lon="-81.348508"/>
      <trkpt lat="27.451054" lon="-81.348479"/>
      <trkpt lat="27.451199" lon="-81.348476"/>
      <trkpt lat="27.451499" lon="-81.348495"/>
      <trkpt lat="27.451666" lon="-81.348522"/>
      <trkpt lat="27.452561" lon="-81.348712"/>
      <trkpt lat="27.452719" lon="-81.348755"/>
      <trkpt lat="27.453284" lon="-81.348848"/>
      <trkpt lat="27.453632" lon="-81.348859"/>
      <trkpt lat="27.454260" lon="-81.348859"/>
      <trkpt lat="27.454394" lon="-81.348897"/>
      <trkpt lat="27.454470" lon="-81.348959"/>
      <trkpt lat="27.454556" lon="-81.349152"/>
      <trkpt lat="27.454558" lon="-81.349468"/>
      <trkpt lat="27.454565" lon="-81.349565"/>
      <trkpt lat="27.454608" lon="-81.349720"/>
      <trkpt lat="27.454929" lon="-81.350257"/>
      <trkpt lat="27.454967" lon="-81.350340"/>
      <trkpt lat="27.454989" lon="-81.350420"/>
      <trkpt lat="27.455003" lon="-81.350487"/>
      <trkpt lat="27.455001" lon="-81.350659"/>
      <trkpt lat="27.454967" lon="-81.350780"/>
      <trkpt lat="27.454932" lon="-81.350868"/>
      <trkpt lat="27.454822" lon="-81.350973"/>
      <trkpt lat="27.454739" lon="-81.351035"/>
      <trkpt lat="27.454301" lon="-81.351239"/>
      <trkpt lat="27.454196" lon="-81.351298"/>
      <trkpt lat="27.454006" lon="-81.351445"/>
      <trkpt lat="27.453851" lon="-81.351582"/>
      <trkpt lat="27.453598" lon="-81.351824"/>
      <trkpt lat="27.453504" lon="-81.351925"/>
      <trkpt lat="27.453156" lon="-81.352381"/>
      <trkpt lat="27.453035" lon="-81.352585"/>
      <trkpt lat="27.452854" lon="-81.353011"/>
      <trkpt lat="27.452737" lon="-81.353392"/>
      <trkpt lat="27.452675" lon="-81.353730"/>
      <trkpt lat="27.452632" lon="-81.354235"/>
      <trkpt lat="27.452632" lon="-81.355576"/>
      <trkpt lat="27.452618" lon="-81.357986"/>
      <trkpt lat="27.452623" lon="-81.358089"/>
      <trkpt lat="27.452651" lon="-81.358159"/>
      <trkpt lat="27.452692" lon="-81.358210"/>
      <trkpt lat="27.452751" lon="-81.358250"/>
      <trkpt lat="27.452813" lon="-81.358266"/>
      <trkpt lat="27.452861" lon="-81.358269"/>
      <trkpt lat="27.452920" lon="-81.358255"/>
      <trkpt lat="27.452961" lon="-81.358236"/>
      <trkpt lat="27.453056" lon="-81.358124"/>
      <trkpt lat="27.453127" lon="-81.358057"/>
      <trkpt lat="27.453180" lon="-81.358027"/>
      <trkpt lat="27.453230" lon="-81.358008"/>
      <trkpt lat="27.453444" lon="-81.357995"/>
      <trkpt lat="27.453651" lon="-81.357923"/>
      <trkpt lat="27.453758" lon="-81.357848"/>
      <trkpt lat="27.453922" lon="-81.357708"/>
      <trkpt lat="27.454461" lon="-81.357115"/>
      <trkpt lat="27.454543" lon="-81.356984"/>
      <trkpt lat="27.454641" lon="-81.356776"/>
      <trkpt lat="27.454717" lon="-81.356569"/>
      <trkpt lat="27.455116" lon="-81.355277"/>
      <trkpt lat="27.455216" lon="-81.355047"/>
      <trkpt lat="27.455269" lon="-81.354943"/>
      <trkpt lat="27.455338" lon="-81.354828"/>
      <trkpt lat="27.455441" lon="-81.354687"/>
      <trkpt lat="27.457200" lon="-81.352708"/>
      <trkpt lat="27.457238" lon="-81.352636"/>
      <trkpt lat="27.457250" lon="-81.352572"/>
      <trkpt lat="27.457238" lon="-81.352486"/>
      <trkpt lat="27.457190" lon="-81.352370"/>
      <trkpt lat="27.457074" lon="-81.352234"/>
      <trkpt lat="27.456707" lon="-81.351923"/>
      <trkpt lat="27.456652" lon="-81.351858"/>
      <trkpt lat="27.456569" lon="-81.351689"/>
      <trkpt lat="27.456445" lon="-81.351311"/>
      <trkpt lat="27.456391" lon="-81.351051"/>
      <trkpt lat="27.456388" lon="-81.350965"/>
      <trkpt lat="27.456426" lon="-81.350753"/>
      <trkpt lat="27.456550" lon="-81.350353"/>
      <trkpt lat="27.456864" lon="-81.349677"/>
      <trkpt lat="27.456895" lon="-81.349559"/>
      <trkpt lat="27.456905" lon="-81.349436"/>
      <trkpt lat="27.456927" lon="-81.348354"/>
      <trkpt lat="27.456916" lon="-81.348254"/>
      <trkpt lat="27.456896" lon="-81.348172"/>
      <trkpt lat="27.456850" lon="-81.348052"/>
      <trkpt lat="27.456810" lon="-81.347993"/>
      <trkpt lat="27.456762" lon="-81.347953"/>
      <trkpt lat="27.456698" lon="-81.347923"/>
      <trkpt lat="27.456637" lon="-81.347906"/>
      <trkpt lat="27.456502" lon="-81.347887"/>
      <trkpt lat="27.453668" lon="-81.347878"/>
      <trkpt lat="27.453413" lon="-81.347896"/>
      <trkpt lat="27.453143" lon="-81.347942"/>
      <trkpt lat="27.453063" lon="-81.347941"/>
      <trkpt lat="27.452950" lon="-81.347917"/>
      <trkpt lat="27.452795" lon="-81.347851"/>
      <trkpt lat="27.451858" lon="-81.347401"/>
      <trkpt lat="27.451794" lon="-81.347363"/>
      <trkpt lat="27.451695" lon="-81.347274"/>
      <trkpt lat="27.450804" lon="-81.346263"/>
      <trkpt lat="27.450676" lon="-81.346158"/>
      <trkpt lat="27.450617" lon="-81.346127"/>
      <trkpt lat="27.450492" lon="-81.346085"/>
      <trkpt lat="27.450340" lon="-81.346079"/>
      <trkpt lat="27.450263" lon="-81.346092"/>
      <trkpt lat="27.450206" lon="-81.346110"/>
      <trkpt lat="27.450135" lon="-81.346150"/>
      <trkpt lat="27.449718" lon="-81.346442"/>
      <trkpt lat="27.449655" lon="-81.346478"/>
      <trkpt lat="27.449590" lon="-81.346503"/>
      <trkpt lat="27.449508" lon="-81.346526"/>
      <trkpt lat="27.448611" lon="-81.346666"/>
      <trkpt lat="27.448537" lon="-81.346701"/>
      <trkpt lat="27.448472" lon="-81.346747"/>
      <trkpt lat="27.448416" lon="-81.346809"/>
      <trkpt lat="27.448371" lon="-81.346876"/>
      <trkpt lat="27.448340" lon="-81.346938"/>
      <trkpt lat="27.448315" lon="-81.347024"/>
      <trkpt lat="27.448305" lon="-81.347137"/>
      <trkpt lat="27.448276" lon="-81.355191"/>
      <trkpt lat="27.448267" lon="-81.356273"/>
      <trkpt lat="27.448300" lon="-81.356406"/>
      <trkpt lat="27.448347" lon="-81.356533"/>
      <trkpt lat="27.448708" lon="-81.357179"/>
      <trkpt lat="27.448819" lon="-81.357342"/>
      <trkpt lat="27.448916" lon="-81.357453"/>
      <trkpt lat="27.448999" lon="-81.357509"/>
      <trkpt lat="27.449116" lon="-81.357563"/>
      <trkpt lat="27.449223" lon="-81.357583"/>
      <trkpt lat="27.449322" lon="-81.357586"/>
      <trkpt lat="27.449405" lon="-81.357571"/>
      <trkpt lat="27.449484" lon="-81.357545"/>
      <trkpt lat="27.449714" lon="-81.357418"/>
      <trkpt lat="27.449844" lon="-81.357326"/>
      <trkpt lat="27.449962" lon="-81.357228"/>
      <trkpt lat="27.449997" lon="-81.357185"/>
      <trkpt lat="27.450050" lon="-81.357099"/>
      <trkpt lat="27.450131" lon="-81.356885"/>
      <trkpt lat="27.450171" lon="-81.356691"/>
      <trkpt lat="27.450219" lon="-81.356029"/>
      <trkpt lat="27.450231" lon="-81.352373"/>
  </trkseg></trk>
  <trk><name>sebring_international ONPITROAD</name><trkseg>
      <trkpt lat="27.450090" lon="-81.356997"/>
      <trkpt lat="27.450105" lon="-81.356206"/>
      <trkpt lat="27.450130" lon="-81.349970"/>
      <trkpt lat="27.450090" lon="-81.349603"/>
      <trkpt lat="27.450090" lon="-81.349141"/>
      <trkpt lat="27.450127" lon="-81.348962"/>
      <trkpt lat="27.450289" lon="-81.348748"/>
      <trkpt lat="27.450535" lon="-81.348570"/>
      <trkpt lat="27.450761" lon="-81.348500"/>
      <trkpt lat="27.451054" lon="-81.348479"/>
  </trkseg></trk>
</gpx>
