<?xml version="1.0" encoding="UTF-8"?>
<gpx version="1.1" creator="SimRacing overlays (OpenStreetMap, ODbL)" xmlns="http://www.topografix.com/GPX/1/1">
  <metadata><name>Sonoma Raceway (Grand Prix)</name>
    <desc>Driving direction. Source: OpenStreetMap contributors (ODbL).</desc></metadata>
  <trk><name>sonoma_gp ONTRACK</name><trkseg>
      <trkpt lat="38.160242" lon="-122.453103"/>
      <trkpt lat="38.160424" lon="-122.453179"/>
      <trkpt lat="38.160562" lon="-122.453269"/>
      <trkpt lat="38.160631" lon="-122.453336"/>
      <trkpt lat="38.160762" lon="-122.453501"/>
      <trkpt lat="38.161504" lon="-122.454700"/>
      <trkpt lat="38.161983" lon="-122.455455"/>
      <trkpt lat="38.162042" lon="-122.455603"/>
      <trkpt lat="38.162086" lon="-122.455771"/>
      <trkpt lat="38.162105" lon="-122.455955"/>
      <trkpt lat="38.162110" lon="-122.457116"/>
      <trkpt lat="38.162102" lon="-122.457277"/>
      <trkpt lat="38.162069" lon="-122.457450"/>
      <trkpt lat="38.162041" lon="-122.457531"/>
      <trkpt lat="38.161944" lon="-122.457742"/>
      <trkpt lat="38.161810" lon="-122.457962"/>
      <trkpt lat="38.161684" lon="-122.458120"/>
      <trkpt lat="38.161568" lon="-122.458228"/>
      <trkpt lat="38.161495" lon="-122.458278"/>
      <trkpt lat="38.161261" lon="-122.458408"/>
      <trkpt lat="38.161146" lon="-122.458505"/>
      <trkpt lat="38.161099" lon="-122.458556"/>
      <trkpt lat="38.161068" lon="-122.458604"/>
      <trkpt lat="38.161015" lon="-122.458767"/>
      <trkpt lat="38.161004" lon="-122.458852"/>
      <trkpt lat="38.160995" lon="-122.458931"/>
      <trkpt lat="38.161002" lon="-122.459075"/>
      <trkpt lat="38.161062" lon="-122.459250"/>
      <trkpt lat="38.161169" lon="-122.459439"/>
      <trkpt lat="38.161281" lon="-122.459609"/>
      <trkpt lat="38.161659" lon="-122.460099"/>
      <trkpt lat="38.161982" lon="-122.460476"/>
      <trkpt lat="38.162057" lon="-122.460553"/>
      <trkpt lat="38.162128" lon="-122.460616"/>
      <trkpt lat="38.162270" lon="-122.460718"/>
      <trkpt lat="38.162426" lon="-122.460862"/>
      <trkpt lat="38.162522" lon="-122.460982"/>
      <trkpt lat="38.162569" lon="-122.461067"/>
      <trkpt lat="38.162605" lon="-122.461168"/>
      <trkpt lat="38.162621" lon="-122.461267"/>
      <trkpt lat="38.162624" lon="-122.461344"/>
      <trkpt lat="38.162625" lon="-122.461445"/>
      <trkpt lat="38.162595" lon="-122.461923"/>
      <trkpt lat="38.162598" lon="-122.462098"/>
      <trkpt lat="38.162624" lon="-122.462184"/>
      <trkpt lat="38.162687" lon="-122.462303"/>
      <trkpt lat="38.162734" lon="-122.462371"/>
      <trkpt lat="38.162840" lon="-122.462485"/>
      <trkpt lat="38.163938" lon="-122.463394"/>
      <trkpt lat="38.164031" lon="-122.463420"/>
      <trkpt lat="38.164072" lon="-122.463422"/>
      <trkpt lat="38.164118" lon="-122.463422"/>
      <trkpt lat="38.164155" lon="-122.463404"/>
      <trkpt lat="38.164240" lon="-122.463319"/>
      <trkpt lat="38.164278" lon="-122.463250"/>
      <trkpt lat="38.164302" lon="-122.463185"/>
      <trkpt lat="38.164446" lon="-122.462505"/>
      <trkpt lat="38.164538" lon="-122.461984"/>
      <trkpt lat="38.164545" lon="-122.461712"/>
      <trkpt lat="38.164511" lon="-122.461486"/>
      <trkpt lat="38.164473" lon="-122.461318"/>
      <trkpt lat="38.164355" lon="-122.461036"/>
      <trkpt lat="38.164230" lon="-122.460819"/>
      <trkpt lat="38.164138" lon="-122.460708"/>
      <trkpt lat="38.164066" lon="-122.460635"/>
      <trkpt lat="38.163969" lon="-122.460554"/>
      <trkpt lat="38.162901" lon="-122.459669"/>
      <trkpt lat="38.162820" lon="-122.459592"/>
      <trkpt lat="38.162746" lon="-122.459489"/>
      <trkpt lat="38.162692" lon="-122.459395"/>
      <trkpt lat="38.162647" lon="-122.459290"/>
      <trkpt lat="38.162612" lon="-122.459155"/>
      <trkpt lat="38.162597" lon="-122.459062"/>
      <trkpt lat="38.162589" lon="-122.458940"/>
      <trkpt lat="38.162593" lon="-122.458830"/>
      <trkpt lat="38.162608" lon="-122.458717"/>
      <trkpt lat="38.162633" lon="-122.458624"/>
      <trkpt lat="38.162712" lon="-122.458423"/>
      <trkpt lat="38.162831" lon="-122.458246"/>
      <trkpt lat="38.162890" lon="-122.458182"/>
      <trkpt lat="38.163025" lon="-122.458088"/>
      <trkpt lat="38.163097" lon="-122.458056"/>
      <trkpt lat="38.163312" lon="-122.458005"/>
      <trkpt lat="38.163365" lon="-122.457999"/>
      <trkpt lat="38.163444" lon="-122.458005"/>
      <trkpt lat="38.163653" lon="-122.458073"/>
      <trkpt lat="38.163736" lon="-122.458126"/>
      <trkpt lat="38.163839" lon="-122.458209"/>
      <trkpt lat="38.163956" lon="-122.458318"/>
      <trkpt lat="38.164027" lon="-122.458422"/>
      <trkpt lat="38.164858" lon="-122.459772"/>
      <trkpt lat="38.165121" lon="-122.460373"/>
      <trkpt lat="38.166053" lon="-122.462726"/>
      <trkpt lat="38.166074" lon="-122.462730"/>
      <trkpt lat="38.166702" lon="-122.462171"/>
      <trkpt lat="38.166661" lon="-122.462090"/>
      <trkpt lat="38.166199" lon="-122.461386"/>
      <trkpt lat="38.165823" lon="-122.460845"/>
      <trkpt lat="38.165749" lon="-122.460699"/>
      <trkpt lat="38.165708" lon="-122.460588"/>
      <trkpt lat="38.165675" lon="-122.460433"/>
      <trkpt lat="38.165633" lon="-122.460162"/>
      <trkpt lat="38.165583" lon="-122.460026"/>
      <trkpt lat="38.165523" lon="-122.459923"/>
      <trkpt lat="38.165337" lon="-122.459669"/>
      <trkpt lat="38.165087" lon="-122.459400"/>
      <trkpt lat="38.165006" lon="-122.459270"/>
      <trkpt lat="38.164959" lon="-122.459152"/>
      <trkpt lat="38.164919" lon="-122.459035"/>
      <trkpt lat="38.164881" lon="-122.458839"/>
      <trkpt lat="38.164870" lon="-122.458703"/>
      <trkpt lat="38.164889" lon="-122.458285"/>
      <trkpt lat="38.164887" lon="-122.458177"/>
      <trkpt lat="38.164873" lon="-122.458070"/>
      <trkpt lat="38.164848" lon="-122.457965"/>
      <trkpt lat="38.164812" lon="-122.457860"/>
      <trkpt lat="38.164770" lon="-122.457769"/>
      <trkpt lat="38.164691" lon="-122.457623"/>
      <trkpt lat="38.163003" lon="-122.455047"/>
      <trkpt lat="38.162969" lon="-122.455021"/>
      <trkpt lat="38.162930" lon="-122.455017"/>
      <trkpt lat="38.162885" lon="-122.455032"/>
      <trkpt lat="38.162729" lon="-122.455172"/>
      <trkpt lat="38.162692" lon="-122.455189"/>
      <trkpt lat="38.162649" lon="-122.455189"/>
      <trkpt lat="38.162608" lon="-122.455173"/>
      <trkpt lat="38.162569" lon="-122.455141"/>
      <trkpt lat="38.162531" lon="-122.455094"/>
      <trkpt lat="38.162458" lon="-122.454824"/>
      <trkpt lat="38.162401" lon="-122.454568"/>
      <trkpt lat="38.162365" lon="-122.454301"/>
      <trkpt lat="38.162323" lon="-122.453886"/>
      <trkpt lat="38.162289" lon="-122.453722"/>
      <trkpt lat="38.162252" lon="-122.453615"/>
      <trkpt lat="38.162213" lon="-122.453533"/>
      <trkpt lat="38.162103" lon="-122.453341"/>
      <trkpt lat="38.161979" lon="-122.453200"/>
      <trkpt lat="38.161908" lon="-122.453125"/>
      <trkpt lat="38.161822" lon="-122.453059"/>
      <trkpt lat="38.161629" lon="-122.452936"/>
      <trkpt lat="38.161497" lon="-122.452873"/>
      <trkpt lat="38.160678" lon="-122.452547"/>
      <trkpt lat="38.159430" lon="-122.452065"/>
      <trkpt lat="38.158960" lon="-122.451893"/>
      <trkpt lat="38.158870" lon="-122.451872"/>
      <trkpt lat="38.158770" lon="-122.451872"/>
      <trkpt lat="38.158714" lon="-122.451891"/>
      <trkpt lat="38.158664" lon="-122.451922"/>
      <trkpt lat="38.158633" lon="-122.451954"/>
      <trkpt lat="38.158606" lon="-122.451999"/>
      <trkpt lat="38.158587" lon="-122.452048"/>
      <trkpt lat="38.158571" lon="-122.452168"/>
      <trkpt lat="38.158576" lon="-122.452224"/>
      <trkpt lat="38.158622" lon="-122.452355"/>
      <trkpt lat="38.158705" lon="-122.452463"/>
      <trkpt lat="38.158737" lon="-122.452485"/>
      <trkpt lat="38.158792" lon="-122.452515"/>
      <trkpt lat="38.159701" lon="-122.452878"/>
      <trkpt lat="38.160242" lon="-122.453103"/>
  </trkseg></trk>
  <trk><name>sonoma_gp ONPITROAD</name><trkseg>
      <trkpt lat="38.160193" lon="-122.452363"/>
      <trkpt lat="38.160033" lon="-122.452272"/>
      <trkpt lat="38.159314" lon="-122.451926"/>
      <trkpt lat="38.158876" lon="-122.451746"/>
      <trkpt lat="38.158772" lon="-122.451733"/>
      <trkpt lat="38.158719" lon="-122.451741"/>
      <trkpt lat="38.158593" lon="-122.451799"/>
      <trkpt lat="38.158538" lon="-122.451846"/>
      <trkpt lat="38.158494" lon="-122.451903"/>
      <trkpt lat="38.158457" lon="-122.451974"/>
      <trkpt lat="38.158430" lon="-122.452072"/>
      <trkpt lat="38.158424" lon="-122.452166"/>
      <trkpt lat="38.158447" lon="-122.452398"/>
      <trkpt lat="38.158470" lon="-122.452488"/>
      <trkpt lat="38.158505" lon="-122.452550"/>
      <trkpt lat="38.158561" lon="-122.452607"/>
      <trkpt lat="38.158635" lon="-122.452645"/>
      <trkpt lat="38.160338" lon="-122.453342"/>
      <trkpt lat="38.160498" lon="-122.453435"/>
      <trkpt lat="38.160596" lon="-122.453538"/>
      <trkpt lat="38.160701" lon="-122.453691"/>
      <trkpt lat="38.160867" lon="-122.453973"/>
      <trkpt lat="38.161167" lon="-122.454430"/>
      <trkpt lat="38.161932" lon="-122.455665"/>
      <trkpt lat="38.161958" lon="-122.455744"/>
      <trkpt lat="38.161980" lon="-122.455858"/>
      <trkpt lat="38.162009" lon="-122.456148"/>
      <trkpt lat="38.162016" lon="-122.456476"/>
      <trkpt lat="38.162048" lon="-122.457101"/>
      <trkpt lat="38.162038" lon="-122.457384"/>
      <trkpt lat="38.161996" lon="-122.457635"/>
  </trkseg></trk>
</gpx>
