<?xml version="1.0" encoding="UTF-8"?>
<gpx version="1.1" creator="SimRacing overlays (OSM relation 8668325, ODbL)" xmlns="http://www.topografix.com/GPX/1/1">
  <metadata><name>Streets of St. Petersburg (stpete)</name>
    <desc>Grand Prix of St. Petersburg street circuit, 2.90 km, driving direction. Source: OpenStreetMap contributors (ODbL).</desc>
  </metadata>
  <trk><name>stpete ONTRACK</name><trkseg>
      <trkpt lat="27.765141" lon="-82.629481"/>
      <trkpt lat="27.765866" lon="-82.627953"/>
      <trkpt lat="27.765976" lon="-82.627720"/>
      <trkpt lat="27.766255" lon="-82.627125"/>
      <trkpt lat="27.766690" lon="-82.626206"/>
      <trkpt lat="27.766777" lon="-82.626073"/>
      <trkpt lat="27.766894" lon="-82.625960"/>
      <trkpt lat="27.766991" lon="-82.625906"/>
      <trkpt lat="27.767070" lon="-82.625896"/>
      <trkpt lat="27.767148" lon="-82.625904"/>
      <trkpt lat="27.767235" lon="-82.625922"/>
      <trkpt lat="27.767307" lon="-82.625972"/>
      <trkpt lat="27.767370" lon="-82.626046"/>
      <trkpt lat="27.767406" lon="-82.626121"/>
      <trkpt lat="27.767421" lon="-82.626210"/>
      <trkpt lat="27.767415" lon="-82.626294"/>
      <trkpt lat="27.767385" lon="-82.626385"/>
      <trkpt lat="27.767314" lon="-82.626538"/>
      <trkpt lat="27.766868" lon="-82.627491"/>
      <trkpt lat="27.766853" lon="-82.627544"/>
      <trkpt lat="27.766844" lon="-82.627579"/>
      <trkpt lat="27.766837" lon="-82.627650"/>
      <trkpt lat="27.766841" lon="-82.627708"/>
      <trkpt lat="27.766854" lon="-82.627747"/>
      <trkpt lat="27.766868" lon="-82.627792"/>
      <trkpt lat="27.766940" lon="-82.628069"/>
      <trkpt lat="27.766952" lon="-82.628116"/>
      <trkpt lat="27.766960" lon="-82.628164"/>
      <trkpt lat="27.766964" lon="-82.628245"/>
      <trkpt lat="27.766955" lon="-82.628338"/>
      <trkpt lat="27.766941" lon="-82.628411"/>
      <trkpt lat="27.766927" lon="-82.628466"/>
      <trkpt lat="27.766483" lon="-82.630189"/>
      <trkpt lat="27.766409" lon="-82.630442"/>
      <trkpt lat="27.766367" lon="-82.630558"/>
      <trkpt lat="27.766344" lon="-82.630617"/>
      <trkpt lat="27.766324" lon="-82.630669"/>
      <trkpt lat="27.766324" lon="-82.630705"/>
      <trkpt lat="27.766357" lon="-82.630791"/>
      <trkpt lat="27.766392" lon="-82.630818"/>
      <trkpt lat="27.766482" lon="-82.630884"/>
      <trkpt lat="27.766820" lon="-82.631135"/>
      <trkpt lat="27.767069" lon="-82.631324"/>
      <trkpt lat="27.767979" lon="-82.632015"/>
      <trkpt lat="27.768216" lon="-82.632195"/>
      <trkpt lat="27.768367" lon="-82.632309"/>
      <trkpt lat="27.768422" lon="-82.632349"/>
      <trkpt lat="27.768481" lon="-82.632376"/>
      <trkpt lat="27.768544" lon="-82.632391"/>
      <trkpt lat="27.768608" lon="-82.632396"/>
      <trkpt lat="27.768692" lon="-82.632397"/>
      <trkpt lat="27.769430" lon="-82.632380"/>
      <trkpt lat="27.770289" lon="-82.632331"/>
      <trkpt lat="27.770358" lon="-82.632327"/>
      <trkpt lat="27.770479" lon="-82.632318"/>
      <trkpt lat="27.770916" lon="-82.632250"/>
      <trkpt lat="27.771010" lon="-82.632278"/>
      <trkpt lat="27.771079" lon="-82.632313"/>
      <trkpt lat="27.771130" lon="-82.632350"/>
      <trkpt lat="27.771151" lon="-82.632383"/>
      <trkpt lat="27.771188" lon="-82.632439"/>
      <trkpt lat="27.771228" lon="-82.632578"/>
      <trkpt lat="27.771223" lon="-82.633058"/>
      <trkpt lat="27.771220" lon="-82.633330"/>
      <trkpt lat="27.771119" lon="-82.633339"/>
      <trkpt lat="27.771061" lon="-82.633344"/>
      <trkpt lat="27.770989" lon="-82.633350"/>
      <trkpt lat="27.770860" lon="-82.633370"/>
      <trkpt lat="27.770484" lon="-82.633408"/>
      <trkpt lat="27.770452" lon="-82.633375"/>
      <trkpt lat="27.770395" lon="-82.633328"/>
      <trkpt lat="27.770344" lon="-82.633286"/>
      <trkpt lat="27.770305" lon="-82.633254"/>
      <trkpt lat="27.770284" lon="-82.633237"/>
      <trkpt lat="27.770173" lon="-82.633139"/>
      <trkpt lat="27.770053" lon="-82.633079"/>
      <trkpt lat="27.769780" lon="-82.633076"/>
      <trkpt lat="27.769706" lon="-82.633091"/>
      <trkpt lat="27.769639" lon="-82.633126"/>
      <trkpt lat="27.769590" lon="-82.633190"/>
      <trkpt lat="27.769551" lon="-82.633265"/>
      <trkpt lat="27.769520" lon="-82.633474"/>
      <trkpt lat="27.769471" lon="-82.633792"/>
      <trkpt lat="27.769458" lon="-82.633849"/>
      <trkpt lat="27.769422" lon="-82.633911"/>
      <trkpt lat="27.769360" lon="-82.633962"/>
      <trkpt lat="27.769302" lon="-82.633996"/>
      <trkpt lat="27.769166" lon="-82.633995"/>
      <trkpt lat="27.768891" lon="-82.633994"/>
      <trkpt lat="27.768747" lon="-82.633993"/>
      <trkpt lat="27.768443" lon="-82.633991"/>
      <trkpt lat="27.768242" lon="-82.633989"/>
      <trkpt lat="27.768194" lon="-82.633989"/>
      <trkpt lat="27.767790" lon="-82.633987"/>
      <trkpt lat="27.767269" lon="-82.633983"/>
      <trkpt lat="27.767153" lon="-82.633983"/>
      <trkpt lat="27.767050" lon="-82.633981"/>
      <trkpt lat="27.766435" lon="-82.633976"/>
      <trkpt lat="27.766325" lon="-82.633973"/>
      <trkpt lat="27.766103" lon="-82.633968"/>
      <trkpt lat="27.765977" lon="-82.633932"/>
      <trkpt lat="27.765865" lon="-82.633879"/>
      <trkpt lat="27.765840" lon="-82.633860"/>
      <trkpt lat="27.765800" lon="-82.633821"/>
      <trkpt lat="27.765725" lon="-82.633716"/>
      <trkpt lat="27.765655" lon="-82.633623"/>
      <trkpt lat="27.765579" lon="-82.633550"/>
      <trkpt lat="27.765491" lon="-82.633467"/>
      <trkpt lat="27.765427" lon="-82.633403"/>
      <trkpt lat="27.765372" lon="-82.633338"/>
      <trkpt lat="27.765325" lon="-82.633272"/>
      <trkpt lat="27.765288" lon="-82.633201"/>
      <trkpt lat="27.765262" lon="-82.633129"/>
      <trkpt lat="27.765171" lon="-82.632949"/>
      <trkpt lat="27.765166" lon="-82.632941"/>
      <trkpt lat="27.765145" lon="-82.632906"/>
      <trkpt lat="27.765138" lon="-82.632894"/>
      <trkpt lat="27.765133" lon="-82.632885"/>
      <trkpt lat="27.765072" lon="-82.632786"/>
      <trkpt lat="27.765010" lon="-82.632690"/>
      <trkpt lat="27.764972" lon="-82.632639"/>
      <trkpt lat="27.764920" lon="-82.632604"/>
      <trkpt lat="27.764858" lon="-82.632586"/>
      <trkpt lat="27.764777" lon="-82.632581"/>
      <trkpt lat="27.764369" lon="-82.632599"/>
      <trkpt lat="27.764320" lon="-82.632596"/>
      <trkpt lat="27.764255" lon="-82.632586"/>
      <trkpt lat="27.764204" lon="-82.632572"/>
      <trkpt lat="27.764132" lon="-82.632544"/>
      <trkpt lat="27.764043" lon="-82.632455"/>
      <trkpt lat="27.763975" lon="-82.632371"/>
      <trkpt lat="27.763942" lon="-82.632303"/>
      <trkpt lat="27.763922" lon="-82.632233"/>
      <trkpt lat="27.763907" lon="-82.632170"/>
      <trkpt lat="27.763902" lon="-82.632114"/>
      <trkpt lat="27.764303" lon="-82.631264"/>
      <trkpt lat="27.764574" lon="-82.630691"/>
      <trkpt lat="27.764712" lon="-82.630397"/>
      <trkpt lat="27.764998" lon="-82.629783"/>
      <trkpt lat="27.765141" lon="-82.629481"/>
  </trkseg></trk>
  <trk><name>stpete ONPITROAD</name><trkseg>
      <trkpt lat="27.765262" lon="-82.633129"/>
      <trkpt lat="27.765235" lon="-82.633031"/>
      <trkpt lat="27.765221" lon="-82.632957"/>
      <trkpt lat="27.765169" lon="-82.632854"/>
      <trkpt lat="27.765145" lon="-82.632808"/>
      <trkpt lat="27.765045" lon="-82.632613"/>
      <trkpt lat="27.765031" lon="-82.632586"/>
      <trkpt lat="27.764913" lon="-82.632359"/>
      <trkpt lat="27.764609" lon="-82.631773"/>
      <trkpt lat="27.764568" lon="-82.631687"/>
      <trkpt lat="27.764555" lon="-82.631613"/>
      <trkpt lat="27.764557" lon="-82.631553"/>
      <trkpt lat="27.764577" lon="-82.631497"/>
      <trkpt lat="27.765395" lon="-82.629763"/>
      <trkpt lat="27.766222" lon="-82.628021"/>
      <trkpt lat="27.766371" lon="-82.627675"/>
      <trkpt lat="27.766413" lon="-82.627528"/>
      <trkpt lat="27.766434" lon="-82.627420"/>
      <trkpt lat="27.766443" lon="-82.627329"/>
      <trkpt lat="27.766449" lon="-82.627230"/>
      <trkpt lat="27.766458" lon="-82.627162"/>
      <trkpt lat="27.766496" lon="-82.627012"/>
      <trkpt lat="27.766632" lon="-82.626568"/>
      <trkpt lat="27.766663" lon="-82.626416"/>
      <trkpt lat="27.766777" lon="-82.626073"/>
  </trkseg></trk>
</gpx>
