<?xml version="1.0" encoding="UTF-8"?>
<gpx version="1.1" creator="SimRacing overlays (OpenStreetMap, ODbL)" xmlns="http://www.topografix.com/GPX/1/1">
  <metadata><name>The Bend Motorsport Park (GT Circuit)</name>
    <desc>Driving direction. Source: OpenStreetMap contributors (ODbL).</desc></metadata>
  <trk><name>thebend_gt ONTRACK</name><trkseg>
      <trkpt lat="-35.307749" lon="139.511178"/>
      <trkpt lat="-35.302613" lon="139.511607"/>
      <trkpt lat="-35.302474" lon="139.511631"/>
      <trkpt lat="-35.302381" lon="139.511693"/>
      <trkpt lat="-35.302347" lon="139.511741"/>
      <trkpt lat="-35.302311" lon="139.511879"/>
      <trkpt lat="-35.302299" lon="139.512708"/>
      <trkpt lat="-35.302227" lon="139.512967"/>
      <trkpt lat="-35.302093" lon="139.513169"/>
      <trkpt lat="-35.301724" lon="139.513428"/>
      <trkpt lat="-35.301550" lon="139.513580"/>
      <trkpt lat="-35.301418" lon="139.513784"/>
      <trkpt lat="-35.301390" lon="139.513902"/>
      <trkpt lat="-35.301404" lon="139.514040"/>
      <trkpt lat="-35.301534" lon="139.514283"/>
      <trkpt lat="-35.301638" lon="139.514376"/>
      <trkpt lat="-35.301884" lon="139.514473"/>
      <trkpt lat="-35.302752" lon="139.514529"/>
      <trkpt lat="-35.302979" lon="139.514508"/>
      <trkpt lat="-35.303278" lon="139.514424"/>
      <trkpt lat="-35.303637" lon="139.514274"/>
      <trkpt lat="-35.304617" lon="139.513771"/>
      <trkpt lat="-35.304842" lon="139.513723"/>
      <trkpt lat="-35.305141" lon="139.513734"/>
      <trkpt lat="-35.305437" lon="139.513829"/>
      <trkpt lat="-35.305634" lon="139.513949"/>
      <trkpt lat="-35.307434" lon="139.515224"/>
      <trkpt lat="-35.307623" lon="139.515393"/>
      <trkpt lat="-35.307725" lon="139.515601"/>
      <trkpt lat="-35.307737" lon="139.515838"/>
      <trkpt lat="-35.307684" lon="139.515999"/>
      <trkpt lat="-35.307572" lon="139.516100"/>
      <trkpt lat="-35.307410" lon="139.516140"/>
      <trkpt lat="-35.307234" lon="139.516131"/>
      <trkpt lat="-35.306575" lon="139.515943"/>
      <trkpt lat="-35.306365" lon="139.515908"/>
      <trkpt lat="-35.306013" lon="139.515937"/>
      <trkpt lat="-35.305571" lon="139.516089"/>
      <trkpt lat="-35.305071" lon="139.516326"/>
      <trkpt lat="-35.304894" lon="139.516444"/>
      <trkpt lat="-35.304742" lon="139.516595"/>
      <trkpt lat="-35.304524" lon="139.516912"/>
      <trkpt lat="-35.304403" lon="139.517222"/>
      <trkpt lat="-35.304343" lon="139.517570"/>
      <trkpt lat="-35.304189" lon="139.519361"/>
      <trkpt lat="-35.304085" lon="139.519603"/>
      <trkpt lat="-35.304035" lon="139.519673"/>
      <trkpt lat="-35.303919" lon="139.519744"/>
      <trkpt lat="-35.303711" lon="139.519776"/>
      <trkpt lat="-35.303555" lon="139.519739"/>
      <trkpt lat="-35.303353" lon="139.519640"/>
      <trkpt lat="-35.303180" lon="139.519475"/>
      <trkpt lat="-35.303023" lon="139.519152"/>
      <trkpt lat="-35.302937" lon="139.518853"/>
      <trkpt lat="-35.302896" lon="139.518271"/>
      <trkpt lat="-35.302861" lon="139.518093"/>
      <trkpt lat="-35.302815" lon="139.517980"/>
      <trkpt lat="-35.302671" lon="139.517796"/>
      <trkpt lat="-35.302432" lon="139.517671"/>
      <trkpt lat="-35.302160" lon="139.517634"/>
      <trkpt lat="-35.301812" lon="139.517688"/>
      <trkpt lat="-35.301578" lon="139.517800"/>
      <trkpt lat="-35.301436" lon="139.517939"/>
      <trkpt lat="-35.301299" lon="139.518186"/>
      <trkpt lat="-35.301247" lon="139.518370"/>
      <trkpt lat="-35.301228" lon="139.518548"/>
      <trkpt lat="-35.301237" lon="139.519080"/>
      <trkpt lat="-35.301292" lon="139.519598"/>
      <trkpt lat="-35.301345" lon="139.519836"/>
      <trkpt lat="-35.301435" lon="139.520057"/>
      <trkpt lat="-35.301578" lon="139.520276"/>
      <trkpt lat="-35.302049" lon="139.520859"/>
      <trkpt lat="-35.302190" lon="139.520991"/>
      <trkpt lat="-35.302310" lon="139.521050"/>
      <trkpt lat="-35.302546" lon="139.521097"/>
      <trkpt lat="-35.303066" lon="139.521097"/>
      <trkpt lat="-35.304644" lon="139.521327"/>
      <trkpt lat="-35.304881" lon="139.521401"/>
      <trkpt lat="-35.304971" lon="139.521484"/>
      <trkpt lat="-35.305070" lon="139.521624"/>
      <trkpt lat="-35.305272" lon="139.522085"/>
      <trkpt lat="-35.305421" lon="139.522322"/>
      <trkpt lat="-35.305550" lon="139.522427"/>
      <trkpt lat="-35.305752" lon="139.522475"/>
      <trkpt lat="-35.306045" lon="139.522420"/>
      <trkpt lat="-35.306258" lon="139.522313"/>
      <trkpt lat="-35.306483" lon="139.522135"/>
      <trkpt lat="-35.306643" lon="139.521955"/>
      <trkpt lat="-35.306743" lon="139.521903"/>
      <trkpt lat="-35.307136" lon="139.521936"/>
      <trkpt lat="-35.307466" lon="139.521746"/>
      <trkpt lat="-35.307621" lon="139.521716"/>
      <trkpt lat="-35.307825" lon="139.521749"/>
      <trkpt lat="-35.307924" lon="139.521805"/>
      <trkpt lat="-35.308211" lon="139.522092"/>
      <trkpt lat="-35.308501" lon="139.522263"/>
      <trkpt lat="-35.308759" lon="139.522322"/>
      <trkpt lat="-35.309067" lon="139.522294"/>
      <trkpt lat="-35.309285" lon="139.522197"/>
      <trkpt lat="-35.309433" lon="139.522098"/>
      <trkpt lat="-35.309666" lon="139.521852"/>
      <trkpt lat="-35.309786" lon="139.521633"/>
      <trkpt lat="-35.310068" lon="139.520886"/>
      <trkpt lat="-35.310148" lon="139.520776"/>
      <trkpt lat="-35.310229" lon="139.520725"/>
      <trkpt lat="-35.312995" lon="139.520195"/>
      <trkpt lat="-35.313193" lon="139.520125"/>
      <trkpt lat="-35.313270" lon="139.520041"/>
      <trkpt lat="-35.313311" lon="139.519926"/>
      <trkpt lat="-35.313309" lon="139.519755"/>
      <trkpt lat="-35.313254" lon="139.519621"/>
      <trkpt lat="-35.313138" lon="139.519520"/>
      <trkpt lat="-35.312848" lon="139.519467"/>
      <trkpt lat="-35.312679" lon="139.519399"/>
      <trkpt lat="-35.312550" lon="139.519271"/>
      <trkpt lat="-35.312458" lon="139.519127"/>
      <trkpt lat="-35.312385" lon="139.518911"/>
      <trkpt lat="-35.311787" lon="139.516186"/>
      <trkpt lat="-35.311715" lon="139.516051"/>
      <trkpt lat="-35.311639" lon="139.515963"/>
      <trkpt lat="-35.311541" lon="139.515890"/>
      <trkpt lat="-35.311423" lon="139.515850"/>
      <trkpt lat="-35.310943" lon="139.515801"/>
      <trkpt lat="-35.310850" lon="139.515831"/>
      <trkpt lat="-35.310718" lon="139.515922"/>
      <trkpt lat="-35.310348" lon="139.516213"/>
      <trkpt lat="-35.310155" lon="139.516404"/>
      <trkpt lat="-35.309937" lon="139.516744"/>
      <trkpt lat="-35.309815" lon="139.517072"/>
      <trkpt lat="-35.309786" lon="139.517271"/>
      <trkpt lat="-35.309795" lon="139.517534"/>
      <trkpt lat="-35.309840" lon="139.517708"/>
      <trkpt lat="-35.309916" lon="139.517863"/>
      <trkpt lat="-35.310004" lon="139.517955"/>
      <trkpt lat="-35.310446" lon="139.518144"/>
      <trkpt lat="-35.310692" lon="139.518280"/>
      <trkpt lat="-35.310835" lon="139.518475"/>
      <trkpt lat="-35.310887" lon="139.518640"/>
      <trkpt lat="-35.310889" lon="139.518919"/>
      <trkpt lat="-35.310839" lon="139.519072"/>
      <trkpt lat="-35.310762" lon="139.519194"/>
      <trkpt lat="-35.310623" lon="139.519318"/>
      <trkpt lat="-35.310466" lon="139.519375"/>
      <trkpt lat="-35.309325" lon="139.519508"/>
      <trkpt lat="-35.309130" lon="139.519479"/>
      <trkpt lat="-35.308925" lon="139.519324"/>
      <trkpt lat="-35.308852" lon="139.519211"/>
      <trkpt lat="-35.308787" lon="139.519019"/>
      <trkpt lat="-35.308792" lon="139.518715"/>
      <trkpt lat="-35.308865" lon="139.518424"/>
      <trkpt lat="-35.309024" lon="139.517997"/>
      <trkpt lat="-35.309720" lon="139.515884"/>
      <trkpt lat="-35.309770" lon="139.515644"/>
      <trkpt lat="-35.309754" lon="139.515427"/>
      <trkpt lat="-35.309656" lon="139.515190"/>
      <trkpt lat="-35.309510" lon="139.515023"/>
      <trkpt lat="-35.307612" lon="139.513857"/>
      <trkpt lat="-35.307502" lon="139.513765"/>
      <trkpt lat="-35.307413" lon="139.513582"/>
      <trkpt lat="-35.307399" lon="139.513424"/>
      <trkpt lat="-35.307438" lon="139.513234"/>
      <trkpt lat="-35.307804" lon="139.512640"/>
      <trkpt lat="-35.307959" lon="139.512481"/>
      <trkpt lat="-35.308122" lon="139.512413"/>
      <trkpt lat="-35.308236" lon="139.512405"/>
      <trkpt lat="-35.308440" lon="139.512463"/>
      <trkpt lat="-35.308543" lon="139.512542"/>
      <trkpt lat="-35.308592" lon="139.512593"/>
      <trkpt lat="-35.308858" lon="139.513068"/>
      <trkpt lat="-35.308995" lon="139.513239"/>
      <trkpt lat="-35.309243" lon="139.513456"/>
      <trkpt lat="-35.309491" lon="139.513589"/>
      <trkpt lat="-35.309756" lon="139.513641"/>
      <trkpt lat="-35.311875" lon="139.513894"/>
      <trkpt lat="-35.312350" lon="139.513926"/>
      <trkpt lat="-35.312481" lon="139.513903"/>
      <trkpt lat="-35.312562" lon="139.513832"/>
      <trkpt lat="-35.312584" lon="139.513780"/>
      <trkpt lat="-35.312574" lon="139.513568"/>
      <trkpt lat="-35.312003" lon="139.511336"/>
      <trkpt lat="-35.311922" lon="139.511100"/>
      <trkpt lat="-35.311809" lon="139.510961"/>
      <trkpt lat="-35.311671" lon="139.510877"/>
      <trkpt lat="-35.311468" lon="139.510868"/>
      <trkpt lat="-35.307749" lon="139.511178"/>
  </trkseg></trk>
  <trk><name>thebend_gt ONPITROAD</name><trkseg>
      <trkpt lat="-35.310977" lon="139.510911"/>
      <trkpt lat="-35.310276" lon="139.510851"/>
      <trkpt lat="-35.309801" lon="139.510827"/>
      <trkpt lat="-35.309712" lon="139.510837"/>
      <trkpt lat="-35.309500" lon="139.510887"/>
      <trkpt lat="-35.306738" lon="139.511112"/>
      <trkpt lat="-35.305952" lon="139.511163"/>
      <trkpt lat="-35.305776" lon="139.511186"/>
      <trkpt lat="-35.304949" lon="139.511349"/>
      <trkpt lat="-35.304737" lon="139.511393"/>
      <trkpt lat="-35.304518" lon="139.511458"/>
  </trkseg></trk>
</gpx>
