<?xml version="1.0" encoding="UTF-8"?>
<gpx version="1.1" creator="SimRacing overlays (OpenStreetMap, ODbL)" xmlns="http://www.topografix.com/GPX/1/1">
  <metadata><name>The Bend Motorsport Park (International)</name>
    <desc>Driving direction. Source: OpenStreetMap contributors (ODbL).</desc></metadata>
  <trk><name>thebend_international ONTRACK</name><trkseg>
      <trkpt lat="-35.307749" lon="139.511178"/>
      <trkpt lat="-35.305823" lon="139.511339"/>
      <trkpt lat="-35.304806" lon="139.511438"/>
      <trkpt lat="-35.304054" lon="139.511489"/>
      <trkpt lat="-35.303557" lon="139.511539"/>
      <trkpt lat="-35.302613" lon="139.511607"/>
      <trkpt lat="-35.302531" lon="139.511615"/>
      <trkpt lat="-35.302474" lon="139.511631"/>
      <trkpt lat="-35.302381" lon="139.511693"/>
      <trkpt lat="-35.302347" lon="139.511741"/>
      <trkpt lat="-35.302324" lon="139.511803"/>
      <trkpt lat="-35.302311" lon="139.511879"/>
      <trkpt lat="-35.302305" lon="139.512067"/>
      <trkpt lat="-35.302308" lon="139.512574"/>
      <trkpt lat="-35.302299" lon="139.512708"/>
      <trkpt lat="-35.302288" lon="139.512787"/>
      <trkpt lat="-35.302227" lon="139.512967"/>
      <trkpt lat="-35.302179" lon="139.513055"/>
      <trkpt lat="-35.302093" lon="139.513169"/>
      <trkpt lat="-35.301977" lon="139.513263"/>
      <trkpt lat="-35.301724" lon="139.513428"/>
      <trkpt lat="-35.301550" lon="139.513580"/>
      <trkpt lat="-35.301492" lon="139.513650"/>
      <trkpt lat="-35.301418" lon="139.513784"/>
      <trkpt lat="-35.301390" lon="139.513902"/>
      <trkpt lat="-35.301392" lon="139.513970"/>
      <trkpt lat="-35.301404" lon="139.514040"/>
      <trkpt lat="-35.301449" lon="139.514148"/>
      <trkpt lat="-35.301485" lon="139.514213"/>
      <trkpt lat="-35.301534" lon="139.514283"/>
      <trkpt lat="-35.301575" lon="139.514325"/>
      <trkpt lat="-35.301638" lon="139.514376"/>
      <trkpt lat="-35.301738" lon="139.514433"/>
      <trkpt lat="-35.301824" lon="139.514462"/>
      <trkpt lat="-35.301884" lon="139.514473"/>
      <trkpt lat="-35.302604" lon="139.514524"/>
      <trkpt lat="-35.302826" lon="139.514529"/>
      <trkpt lat="-35.303070" lon="139.514489"/>
      <trkpt lat="-35.303278" lon="139.514424"/>
      <trkpt lat="-35.303425" lon="139.514366"/>
      <trkpt lat="-35.303922" lon="139.514146"/>
      <trkpt lat="-35.304274" lon="139.513954"/>
      <trkpt lat="-35.304400" lon="139.513868"/>
      <trkpt lat="-35.304617" lon="139.513771"/>
      <trkpt lat="-35.304754" lon="139.513735"/>
      <trkpt lat="-35.304842" lon="139.513723"/>
      <trkpt lat="-35.305047" lon="139.513719"/>
      <trkpt lat="-35.305141" lon="139.513734"/>
      <trkpt lat="-35.305257" lon="139.513765"/>
      <trkpt lat="-35.305437" lon="139.513829"/>
      <trkpt lat="-35.305634" lon="139.513949"/>
      <trkpt lat="-35.306224" lon="139.514358"/>
      <trkpt lat="-35.307434" lon="139.515224"/>
      <trkpt lat="-35.307549" lon="139.515317"/>
      <trkpt lat="-35.307623" lon="139.515393"/>
      <trkpt lat="-35.307681" lon="139.515487"/>
      <trkpt lat="-35.307725" lon="139.515601"/>
      <trkpt lat="-35.307743" lon="139.515716"/>
      <trkpt lat="-35.307737" lon="139.515838"/>
      <trkpt lat="-35.307715" lon="139.515924"/>
      <trkpt lat="-35.307684" lon="139.515999"/>
      <trkpt lat="-35.307629" lon="139.516066"/>
      <trkpt lat="-35.307572" lon="139.516100"/>
      <trkpt lat="-35.307499" lon="139.516129"/>
      <trkpt lat="-35.307410" lon="139.516140"/>
      <trkpt lat="-35.307234" lon="139.516131"/>
      <trkpt lat="-35.306720" lon="139.515980"/>
      <trkpt lat="-35.306469" lon="139.515923"/>
      <trkpt lat="-35.306277" lon="139.515904"/>
      <trkpt lat="-35.306151" lon="139.515916"/>
      <trkpt lat="-35.305911" lon="139.515962"/>
      <trkpt lat="-35.305571" lon="139.516089"/>
      <trkpt lat="-35.305071" lon="139.516326"/>
      <trkpt lat="-35.304989" lon="139.516375"/>
      <trkpt lat="-35.304819" lon="139.516507"/>
      <trkpt lat="-35.304665" lon="139.516693"/>
      <trkpt lat="-35.304524" lon="139.516912"/>
      <trkpt lat="-35.304437" lon="139.517111"/>
      <trkpt lat="-35.304403" lon="139.517222"/>
      <trkpt lat="-35.304375" lon="139.517342"/>
      <trkpt lat="-35.304343" lon="139.517570"/>
      <trkpt lat="-35.304275" lon="139.518464"/>
      <trkpt lat="-35.304283" lon="139.518561"/>
      <trkpt lat="-35.304308" lon="139.518708"/>
      <trkpt lat="-35.304329" lon="139.518768"/>
      <trkpt lat="-35.304365" lon="139.518852"/>
      <trkpt lat="-35.304419" lon="139.518935"/>
      <trkpt lat="-35.305017" lon="139.519670"/>
      <trkpt lat="-35.305083" lon="139.519727"/>
      <trkpt lat="-35.305162" lon="139.519753"/>
      <trkpt lat="-35.305222" lon="139.519760"/>
      <trkpt lat="-35.306151" lon="139.519686"/>
      <trkpt lat="-35.306576" lon="139.519659"/>
      <trkpt lat="-35.306723" lon="139.519663"/>
      <trkpt lat="-35.306858" lon="139.519692"/>
      <trkpt lat="-35.306976" lon="139.519747"/>
      <trkpt lat="-35.307089" lon="139.519824"/>
      <trkpt lat="-35.307180" lon="139.519908"/>
      <trkpt lat="-35.307256" lon="139.520010"/>
      <trkpt lat="-35.307355" lon="139.520170"/>
      <trkpt lat="-35.307429" lon="139.520265"/>
      <trkpt lat="-35.307506" lon="139.520346"/>
      <trkpt lat="-35.307588" lon="139.520395"/>
      <trkpt lat="-35.307652" lon="139.520418"/>
      <trkpt lat="-35.307756" lon="139.520433"/>
      <trkpt lat="-35.307938" lon="139.520422"/>
      <trkpt lat="-35.308011" lon="139.520390"/>
      <trkpt lat="-35.308163" lon="139.520281"/>
      <trkpt lat="-35.308272" lon="139.520140"/>
      <trkpt lat="-35.308318" lon="139.520067"/>
      <trkpt lat="-35.308374" lon="139.519947"/>
      <trkpt lat="-35.308597" lon="139.519325"/>
      <trkpt lat="-35.308792" lon="139.518715"/>
      <trkpt lat="-35.308865" lon="139.518424"/>
      <trkpt lat="-35.309024" lon="139.517997"/>
      <trkpt lat="-35.309720" lon="139.515884"/>
      <trkpt lat="-35.309745" lon="139.515794"/>
      <trkpt lat="-35.309770" lon="139.515644"/>
      <trkpt lat="-35.309764" lon="139.515500"/>
      <trkpt lat="-35.309754" lon="139.515427"/>
      <trkpt lat="-35.309732" lon="139.515348"/>
      <trkpt lat="-35.309700" lon="139.515272"/>
      <trkpt lat="-35.309656" lon="139.515190"/>
      <trkpt lat="-35.309608" lon="139.515121"/>
      <trkpt lat="-35.309510" lon="139.515023"/>
      <trkpt lat="-35.308295" lon="139.514266"/>
      <trkpt lat="-35.307612" lon="139.513857"/>
      <trkpt lat="-35.307502" lon="139.513765"/>
      <trkpt lat="-35.307433" lon="139.513645"/>
      <trkpt lat="-35.307413" lon="139.513582"/>
      <trkpt lat="-35.307402" lon="139.513503"/>
      <trkpt lat="-35.307399" lon="139.513424"/>
      <trkpt lat="-35.307409" lon="139.513348"/>
      <trkpt lat="-35.307438" lon="139.513234"/>
      <trkpt lat="-35.307491" lon="139.513136"/>
      <trkpt lat="-35.307804" lon="139.512640"/>
      <trkpt lat="-35.307859" lon="139.512563"/>
      <trkpt lat="-35.307917" lon="139.512507"/>
      <trkpt lat="-35.308063" lon="139.512433"/>
      <trkpt lat="-35.308172" lon="139.512401"/>
      <trkpt lat="-35.308311" lon="139.512414"/>
      <trkpt lat="-35.308440" lon="139.512463"/>
      <trkpt lat="-35.308500" lon="139.512502"/>
      <trkpt lat="-35.308592" lon="139.512593"/>
      <trkpt lat="-35.308858" lon="139.513068"/>
      <trkpt lat="-35.308925" lon="139.513159"/>
      <trkpt lat="-35.309071" lon="139.513318"/>
      <trkpt lat="-35.309155" lon="139.513391"/>
      <trkpt lat="-35.309317" lon="139.513505"/>
      <trkpt lat="-35.309491" lon="139.513589"/>
      <trkpt lat="-35.309646" lon="139.513625"/>
      <trkpt lat="-35.309756" lon="139.513641"/>
      <trkpt lat="-35.311875" lon="139.513894"/>
      <trkpt lat="-35.312350" lon="139.513926"/>
      <trkpt lat="-35.312443" lon="139.513920"/>
      <trkpt lat="-35.312481" lon="139.513903"/>
      <trkpt lat="-35.312525" lon="139.513875"/>
      <trkpt lat="-35.312562" lon="139.513832"/>
      <trkpt lat="-35.312584" lon="139.513780"/>
      <trkpt lat="-35.312591" lon="139.513652"/>
      <trkpt lat="-35.312267" lon="139.512354"/>
      <trkpt lat="-35.312003" lon="139.511336"/>
      <trkpt lat="-35.311946" lon="139.511159"/>
      <trkpt lat="-35.311895" lon="139.511050"/>
      <trkpt lat="-35.311809" lon="139.510961"/>
      <trkpt lat="-35.311716" lon="139.510896"/>
      <trkpt lat="-35.311671" lon="139.510877"/>
      <trkpt lat="-35.311549" lon="139.510863"/>
      <trkpt lat="-35.311468" lon="139.510868"/>
      <trkpt lat="-35.307749" lon="139.511178"/>
  </trkseg></trk>
  <trk><name>thebend_international ONPITROAD</name><trkseg>
      <trkpt lat="-35.310977" lon="139.510911"/>
      <trkpt lat="-35.310276" lon="139.510851"/>
      <trkpt lat="-35.309801" lon="139.510827"/>
      <trkpt lat="-35.309712" lon="139.510837"/>
      <trkpt lat="-35.309500" lon="139.510887"/>
      <trkpt lat="-35.306738" lon="139.511112"/>
      <trkpt lat="-35.305952" lon="139.511163"/>
      <trkpt lat="-35.305776" lon="139.511186"/>
      <trkpt lat="-35.304949" lon="139.511349"/>
      <trkpt lat="-35.304737" lon="139.511393"/>
      <trkpt lat="-35.304518" lon="139.511458"/>
  </trkseg></trk>
</gpx>
