<?xml version="1.0" encoding="UTF-8"?>
<gpx version="1.1" creator="SimRacing overlays (OpenStreetMap, ODbL)" xmlns="http://www.topografix.com/GPX/1/1">
  <metadata><name>Circuit Zolder (Grand Prix)</name>
    <desc>Driving direction. Source: OpenStreetMap contributors (ODbL).</desc></metadata>
  <trk><name>zolder_gp ONTRACK</name><trkseg>
      <trkpt lat="50.988329" lon="5.253984"/>
      <trkpt lat="50.987859" lon="5.252841"/>
      <trkpt lat="50.987751" lon="5.252641"/>
      <trkpt lat="50.987626" lon="5.252453"/>
      <trkpt lat="50.987524" lon="5.252329"/>
      <trkpt lat="50.987469" lon="5.252298"/>
      <trkpt lat="50.987401" lon="5.252281"/>
      <trkpt lat="50.987300" lon="5.252289"/>
      <trkpt lat="50.987232" lon="5.252311"/>
      <trkpt lat="50.987034" lon="5.252424"/>
      <trkpt lat="50.986955" lon="5.252487"/>
      <trkpt lat="50.986762" lon="5.252694"/>
      <trkpt lat="50.986432" lon="5.253085"/>
      <trkpt lat="50.985552" lon="5.254080"/>
      <trkpt lat="50.985431" lon="5.254169"/>
      <trkpt lat="50.985207" lon="5.254280"/>
      <trkpt lat="50.985095" lon="5.254298"/>
      <trkpt lat="50.984968" lon="5.254279"/>
      <trkpt lat="50.984871" lon="5.254229"/>
      <trkpt lat="50.984757" lon="5.254091"/>
      <trkpt lat="50.984717" lon="5.254015"/>
      <trkpt lat="50.984677" lon="5.253917"/>
      <trkpt lat="50.984611" lon="5.253693"/>
      <trkpt lat="50.984565" lon="5.253435"/>
      <trkpt lat="50.984482" lon="5.252688"/>
      <trkpt lat="50.984466" lon="5.252318"/>
      <trkpt lat="50.984482" lon="5.252061"/>
      <trkpt lat="50.984502" lon="5.251921"/>
      <trkpt lat="50.984529" lon="5.251788"/>
      <trkpt lat="50.984570" lon="5.251645"/>
      <trkpt lat="50.984658" lon="5.251395"/>
      <trkpt lat="50.984757" lon="5.251193"/>
      <trkpt lat="50.984890" lon="5.250989"/>
      <trkpt lat="50.985065" lon="5.250786"/>
      <trkpt lat="50.986453" lon="5.249590"/>
      <trkpt lat="50.986588" lon="5.249514"/>
      <trkpt lat="50.986735" lon="5.249473"/>
      <trkpt lat="50.986815" lon="5.249469"/>
      <trkpt lat="50.986885" lon="5.249477"/>
      <trkpt lat="50.987015" lon="5.249526"/>
      <trkpt lat="50.987129" lon="5.249600"/>
      <trkpt lat="50.987250" lon="5.249722"/>
      <trkpt lat="50.987340" lon="5.249853"/>
      <trkpt lat="50.987433" lon="5.250042"/>
      <trkpt lat="50.988075" lon="5.251524"/>
      <trkpt lat="50.988516" lon="5.252563"/>
      <trkpt lat="50.989564" lon="5.254976"/>
      <trkpt lat="50.990182" lon="5.256488"/>
      <trkpt lat="50.990238" lon="5.256591"/>
      <trkpt lat="50.990273" lon="5.256635"/>
      <trkpt lat="50.990303" lon="5.256653"/>
      <trkpt lat="50.990336" lon="5.256643"/>
      <trkpt lat="50.990484" lon="5.256537"/>
      <trkpt lat="50.990549" lon="5.256546"/>
      <trkpt lat="50.991265" lon="5.257268"/>
      <trkpt lat="50.991607" lon="5.257589"/>
      <trkpt lat="50.992508" lon="5.258332"/>
      <trkpt lat="50.992768" lon="5.258508"/>
      <trkpt lat="50.992908" lon="5.258571"/>
      <trkpt lat="50.993039" lon="5.258615"/>
      <trkpt lat="50.993182" lon="5.258636"/>
      <trkpt lat="50.993435" lon="5.258649"/>
      <trkpt lat="50.993578" lon="5.258621"/>
      <trkpt lat="50.993717" lon="5.258573"/>
      <trkpt lat="50.993983" lon="5.258451"/>
      <trkpt lat="50.994481" lon="5.258188"/>
      <trkpt lat="50.994789" lon="5.257989"/>
      <trkpt lat="50.994828" lon="5.257980"/>
      <trkpt lat="50.994872" lon="5.257980"/>
      <trkpt lat="50.994904" lon="5.257994"/>
      <trkpt lat="50.994938" lon="5.258048"/>
      <trkpt lat="50.995018" lon="5.258251"/>
      <trkpt lat="50.995063" lon="5.258314"/>
      <trkpt lat="50.995116" lon="5.258335"/>
      <trkpt lat="50.995191" lon="5.258315"/>
      <trkpt lat="50.995372" lon="5.258166"/>
      <trkpt lat="50.995489" lon="5.258104"/>
      <trkpt lat="50.995595" lon="5.258104"/>
      <trkpt lat="50.995647" lon="5.258124"/>
      <trkpt lat="50.995696" lon="5.258150"/>
      <trkpt lat="50.995739" lon="5.258190"/>
      <trkpt lat="50.995781" lon="5.258249"/>
      <trkpt lat="50.996256" lon="5.259272"/>
      <trkpt lat="50.996291" lon="5.259395"/>
      <trkpt lat="50.996315" lon="5.259539"/>
      <trkpt lat="50.996331" lon="5.259698"/>
      <trkpt lat="50.996335" lon="5.259843"/>
      <trkpt lat="50.996312" lon="5.260104"/>
      <trkpt lat="50.996273" lon="5.260288"/>
      <trkpt lat="50.996230" lon="5.260424"/>
      <trkpt lat="50.996127" lon="5.260632"/>
      <trkpt lat="50.995432" lon="5.261891"/>
      <trkpt lat="50.995324" lon="5.262106"/>
      <trkpt lat="50.995222" lon="5.262347"/>
      <trkpt lat="50.995148" lon="5.262552"/>
      <trkpt lat="50.995089" lon="5.262746"/>
      <trkpt lat="50.994833" lon="5.263744"/>
      <trkpt lat="50.994409" lon="5.265468"/>
      <trkpt lat="50.994384" lon="5.265529"/>
      <trkpt lat="50.994353" lon="5.265575"/>
      <trkpt lat="50.994289" lon="5.265637"/>
      <trkpt lat="50.994246" lon="5.265655"/>
      <trkpt lat="50.994192" lon="5.265653"/>
      <trkpt lat="50.994127" lon="5.265607"/>
      <trkpt lat="50.994085" lon="5.265548"/>
      <trkpt lat="50.993821" lon="5.264915"/>
      <trkpt lat="50.993725" lon="5.264735"/>
      <trkpt lat="50.993644" lon="5.264625"/>
      <trkpt lat="50.993373" lon="5.264324"/>
      <trkpt lat="50.993285" lon="5.264181"/>
      <trkpt lat="50.991200" lon="5.259294"/>
      <trkpt lat="50.991139" lon="5.259231"/>
      <trkpt lat="50.991092" lon="5.259215"/>
      <trkpt lat="50.990987" lon="5.259264"/>
      <trkpt lat="50.990832" lon="5.259421"/>
      <trkpt lat="50.990777" lon="5.259442"/>
      <trkpt lat="50.990720" lon="5.259448"/>
      <trkpt lat="50.990669" lon="5.259442"/>
      <trkpt lat="50.990615" lon="5.259406"/>
      <trkpt lat="50.990551" lon="5.259354"/>
      <trkpt lat="50.990467" lon="5.259246"/>
      <trkpt lat="50.989373" lon="5.256524"/>
      <trkpt lat="50.988329" lon="5.253984"/>
  </trkseg></trk>
  <trk><name>zolder_gp ONPITROAD</name><trkseg>
      <trkpt lat="50.991200" lon="5.259294"/>
      <trkpt lat="50.990758" lon="5.258264"/>
      <trkpt lat="50.990718" lon="5.258222"/>
      <trkpt lat="50.990676" lon="5.258222"/>
      <trkpt lat="50.990380" lon="5.258298"/>
      <trkpt lat="50.990294" lon="5.258281"/>
      <trkpt lat="50.990225" lon="5.258219"/>
      <trkpt lat="50.990106" lon="5.257997"/>
      <trkpt lat="50.990036" lon="5.257842"/>
      <trkpt lat="50.989643" lon="5.256866"/>
      <trkpt lat="50.989554" lon="5.256746"/>
      <trkpt lat="50.989270" lon="5.256056"/>
      <trkpt lat="50.989269" lon="5.255967"/>
      <trkpt lat="50.989066" lon="5.255464"/>
      <trkpt lat="50.989026" lon="5.255394"/>
      <trkpt lat="50.988080" lon="5.253067"/>
      <trkpt lat="50.987866" lon="5.252523"/>
      <trkpt lat="50.987792" lon="5.252260"/>
      <trkpt lat="50.987434" lon="5.251383"/>
      <trkpt lat="50.987372" lon="5.251271"/>
      <trkpt lat="50.987288" lon="5.251170"/>
      <trkpt lat="50.987219" lon="5.251127"/>
      <trkpt lat="50.987130" lon="5.251100"/>
      <trkpt lat="50.987053" lon="5.251087"/>
      <trkpt lat="50.986950" lon="5.251106"/>
      <trkpt lat="50.986843" lon="5.251157"/>
      <trkpt lat="50.986765" lon="5.251210"/>
      <trkpt lat="50.986683" lon="5.251310"/>
      <trkpt lat="50.986576" lon="5.251497"/>
      <trkpt lat="50.986410" lon="5.251913"/>
      <trkpt lat="50.985851" lon="5.253562"/>
      <trkpt lat="50.985803" lon="5.253693"/>
      <trkpt lat="50.985700" lon="5.253916"/>
  </trkseg></trk>
</gpx>
